{"type":"FeatureCollection","features":[{"type":"Feature","id":11622,"geometry":{"type":"Polygon","coordinates":[[[112.88563531400007,-7.613200922999965],[112.88539116300001,-7.612884810999958],[112.88514701100007,-7.61263013699994],[112.88485708200005,-7.612329735999936],[112.884574799,-7.611926814999947],[112.88410943400004,-7.61128453699996],[112.88387292800007,-7.610915469999952],[112.88373559700005,-7.6107018279999465],[112.88344566900003,-7.6102378639999415],[112.8831710070001,-7.6097624429999655],[112.88298792400008,-7.609481118999952],[112.88281243800009,-7.609349515999952],[112.882461465,-7.6090572279999265],[112.8819350550001,-7.6085160419999625],[112.8815993500001,-7.608068721999928],[112.88095085200007,-7.607044960999929],[112.88035575200001,-7.605988773999968],[112.88013451300003,-7.605499068999961],[112.87942494700008,-7.603860663999967],[112.87918844100011,-7.603298482999946],[112.87889853700005,-7.602698588999942],[112.87790671200003,-7.600717324999948],[112.87766258500005,-7.600070251999966],[112.87699119900003,-7.598061378999944],[112.87664025100003,-7.596634648999952],[112.87660209500007,-7.596568367999964],[112.8764189630001,-7.596044809999967],[112.87616721400002,-7.595479777999969],[112.87561789100005,-7.594256216999952],[112.87524405500005,-7.59311988099995],[112.87499990300012,-7.592348853999965],[112.87495412600003,-7.592218185999968],[112.8741910550001,-7.59074353699998],[112.87391657400008,-7.590213097999936],[112.8734409330001,-7.589161378999961],[112.86740201000009,-7.604308180999965],[112.86920201100008,-7.609008181999968],[112.8678020110001,-7.613308180999979],[112.86406940400002,-7.614750324999932],[112.86365729500005,-7.616330077999976],[112.86377309400007,-7.619109265999953],[112.86469949000002,-7.621656855999959],[112.86608908500011,-7.6246676429999525],[112.86713128000008,-7.6280258289999665],[112.86620488400001,-7.632542009999952],[112.86516268900004,-7.636826590999931],[112.86342569600004,-7.642848166999954],[112.86168870300003,-7.646090552999965],[112.86112608400003,-7.646579785999961],[112.85984979400007,-7.646969645999945],[112.85876139400011,-7.647827352999968],[112.85796221600003,-7.6488912639999285],[112.85723900500011,-7.649906304999945],[112.85645110400003,-7.650864387999945],[112.8556722290001,-7.6518290949999255],[112.85508803200003,-7.652716067999961],[112.85477666000008,-7.653378584999928],[112.85465839900007,-7.653763561999938],[112.85462327700009,-7.65392795799994],[112.85461448900003,-7.653973226999938],[112.85461317500005,-7.653979119999974],[112.85459698400007,-7.653990998999973],[112.85448423100001,-7.654069228999958],[112.85413538500006,-7.654297922999945],[112.8534862250001,-7.654696328999933],[112.85263754000005,-7.655180598999948],[112.85175341600007,-7.655667565999977],[112.8509354150001,-7.656145792999951],[112.85021222900002,-7.6566088539999555],[112.84958027300002,-7.657015091999938],[112.84901639500004,-7.657367203999968],[112.84847955900011,-7.657764789999931],[112.84795121000002,-7.658301503999951],[112.84745326500001,-7.6589273229999435],[112.84699284500005,-7.65950412199993],[112.84651470000006,-7.659973711999953],[112.84592639900006,-7.660356813999954],[112.8451693400001,-7.660662922999961],[112.84425875700003,-7.660953723999967],[112.84327621600005,-7.661390307999966],[112.84236818800002,-7.6620578369999635],[112.84168116600006,-7.662873864999938],[112.8411771000001,-7.663767446999941],[112.8406268660001,-7.664742163999961],[112.83992501300008,-7.665709248999974],[112.83921969800008,-7.6664859619999675],[112.83864070000004,-7.666978434999976],[112.83813613100006,-7.667186644999958],[112.83761335200006,-7.66709364999997],[112.83705594100002,-7.666717539999979],[112.83646818400007,-7.666164347999938],[112.83577965400002,-7.665535218999935],[112.83488251100005,-7.6649215429999344],[112.83379376800008,-7.66450163899998],[112.83265755700006,-7.664445797999974],[112.83148692800012,-7.664662266999926],[112.83012432900011,-7.664836332999926],[112.8286105310001,-7.6648094179999475],[112.82726243500008,-7.664709717999926],[112.82628974900001,-7.664718898999979],[112.82564114900003,-7.664938567999968],[112.82512194500009,-7.665379995999956],[112.82452520400011,-7.665912882999976],[112.8238544300001,-7.666337983999938],[112.82333449400005,-7.66656620599997],[112.82130201100006,-7.667108180999946],[112.81640201000005,-7.666808180999965],[112.81250201000012,-7.667108180999946],[112.81010201000004,-7.669308181999952],[112.80820201100005,-7.6725081819999446],[112.80580201100008,-7.674008181999966],[112.80320201100005,-7.6755081819999305],[112.80040201200006,-7.677308180999944],[112.796602011,-7.679708180999967],[112.79360201100008,-7.67950818099996],[112.79050201100006,-7.67950818099996],[112.7867020110001,-7.67950818099996],[112.78340201100002,-7.679708180999967],[112.77890201100001,-7.681608179999955],[112.77590201100008,-7.68230817999995],[112.77180201100009,-7.685608180999964],[112.76880201100005,-7.687108179999939],[112.76420201100007,-7.68940817999993],[112.75980201100003,-7.6904081809999525],[112.75460201100009,-7.693608180999945],[112.75110201200005,-7.694108179999944],[112.74810201100001,-7.694408180999972],[112.74500201100011,-7.695108180999966],[112.74260201100003,-7.696808180999938],[112.73850201100004,-7.697008180999944],[112.73570201100006,-7.698108180999952],[112.73300201100005,-7.696808180999938],[112.73090201100001,-7.696608180999931],[112.72730201000002,-7.696808180999938],[112.72230201100001,-7.697708180999939],[112.71820201100002,-7.698808180999947],[112.71580201100005,-7.699508180999942],[112.71350201100006,-7.69980818099998],[112.71020201100009,-7.699408180999967],[112.70530201100007,-7.699408180999967],[112.70100201200012,-7.700208180999937],[112.69730201100003,-7.70120818099997],[112.69410201100004,-7.702308180999978],[112.69050201100004,-7.703808180999943],[112.6866020110001,-7.706408180999972],[112.68200201100001,-7.710208180999928],[112.6771020110001,-7.714708181999981],[112.67320201000007,-7.718508181999937],[112.67090201000008,-7.72090818199996],[112.66910201100006,-7.722808180999948],[112.66770201000008,-7.724108181999952],[112.6658020110001,-7.725508180999952],[112.66320201100007,-7.726408180999954],[112.66050201000007,-7.7278081809999435],[112.65800201200011,-7.7299081799999385],[112.65560201200003,-7.732108180999944],[112.65260201100011,-7.733408180999959],[112.64890201100002,-7.734608180999942],[112.64520201100004,-7.735408180999968],[112.64240201100006,-7.736208180999938],[112.63960201100008,-7.736708180999926],[112.63720201100011,-7.737208180999971],[112.63470201100006,-7.738008180999941],[112.63160201100004,-7.739108180999949],[112.6282020110001,-7.7406081809999705],[112.62390201000005,-7.741208180999934],[112.62110201100006,-7.740908180999952],[112.61860201100001,-7.740408180999964],[112.61520201000008,-7.740408180999964],[112.61250201100006,-7.741108179999969],[112.60990201100003,-7.742208180999967],[112.60810201100003,-7.74400818099997],[112.6055020120001,-7.745808180999973],[112.60290201100008,-7.747008180999956],[112.60060201100009,-7.747908180999957],[112.59840201200007,-7.749008180999965],[112.59630201100003,-7.750408180999955],[112.59350201100006,-7.752608180999971],[112.5906020110001,-7.755308181999965],[112.58860201100003,-7.757708181999931],[112.58720201100004,-7.759408180999969],[112.58770201100003,-7.7611081809999405],[112.58920201100011,-7.764108180999926],[112.59530201100006,-7.765408180999941],[112.59710201100006,-7.767408180999951],[112.59798917900002,-7.767946818999974],[112.59990201200003,-7.769108180999979],[112.60250201100007,-7.771708180999951],[112.60430201100007,-7.774908180999944],[112.60610201100008,-7.778908180999963],[112.60710201200004,-7.781908180999949],[112.60830201100009,-7.784908179999945],[112.61060201100008,-7.788208180999959],[112.61280201000011,-7.791308180999977],[112.61470201100008,-7.794708180999976],[112.61760201000004,-7.798308180999925],[112.62060201100007,-7.800908180999954],[112.62270201100011,-7.803608180999959],[112.625402011,-7.806708180999976],[112.62790201000007,-7.810508180999932],[112.62990201100001,-7.814508180999951],[112.63230201100009,-7.81790818199994],[112.63520201100005,-7.821408179999935],[112.63790201100005,-7.825108180999962],[112.63970201100005,-7.82760818099996],[112.64150201100006,-7.8303081799999745],[112.64370201200006,-7.833408179999935],[112.64610201200003,-7.837108180999962],[112.64840201200002,-7.840908180999975],[112.65030201100001,-7.844008180999936],[112.65320201200007,-7.846308180999927],[112.65650201100004,-7.848508180999943],[112.6599020110001,-7.8516081809999605],[112.66390201000002,-7.855508181999937],[112.66730201100006,-7.85870818199993],[112.67010201000005,-7.861208180999938],[112.6735020110001,-7.864008180999974],[112.67740201100003,-7.86700818099996],[112.68070201100011,-7.870708179999951],[112.68560201100001,-7.872408179999979],[112.68960201100003,-7.875408180999955],[112.6938020120001,-7.876208180999981],[112.69630201100006,-7.878108180999959],[112.69990201100006,-7.878408180999941],[112.70340201200008,-7.8771081799999365],[112.70710201200006,-7.876508180999963],[112.71150201000012,-7.87610818099995],[112.71440201100006,-7.875808180999968],[112.71870201000002,-7.875108180999973],[112.72260201000006,-7.874308180999947],[112.72590201100002,-7.873608180999952],[112.72980201100006,-7.872508179999954],[112.7337020110001,-7.870608180999966],[112.73850201100004,-7.869108180999945],[112.74300201100004,-7.867908180999962],[112.74590201100011,-7.867208181999956],[112.74930201100005,-7.8668081809999535],[112.75390201100004,-7.867408181999963],[112.75710201100003,-7.867508181999938],[112.76030201100002,-7.865308180999932],[112.76560201000007,-7.86640818099994],[112.76611281500004,-7.866621016999943],[112.76888784300002,-7.867777278999938],[112.7704020110001,-7.86840818099995],[112.77470201100004,-7.869008181999959],[112.77718899600006,-7.8701313349999396],[112.77780201100006,-7.870408180999959],[112.78000201100008,-7.87270818099995],[112.77992014100005,-7.873264898999935],[112.77950201100009,-7.87610818099995],[112.77939963900008,-7.876423172999978],[112.77820201100008,-7.880108180999969],[112.77840201100003,-7.883308180999961],[112.778556234,-7.884053589999951],[112.7790020110001,-7.886208180999972],[112.77966975900006,-7.889250140999934],[112.77986080000005,-7.890120441999954],[112.7799020110001,-7.890308180999966],[112.78013472700002,-7.890640632999975],[112.78194118800002,-7.893221289999929],[112.78200201100003,-7.893308180999952],[112.78420201100005,-7.896808180999926],[112.7846915230001,-7.898080911999955],[112.78570201100001,-7.90070818099997],[112.78840201100002,-7.904808181999954],[112.79000201100007,-7.908808181999973],[112.79230201100006,-7.912108180999951],[112.79303683500007,-7.912779107999938],[112.79377146900003,-7.913449860999947],[112.79460201100005,-7.914208181999982],[112.7967020110001,-7.916608181999948],[112.80010201100004,-7.918408180999961],[112.80073461600011,-7.918964871999947],[112.80194737300008,-7.920032098999968],[112.80260201200008,-7.920608180999977],[112.80440201200008,-7.922908180999968],[112.80680201100006,-7.925108180999928],[112.8094020100001,-7.926408179999953],[112.81220201100007,-7.927408180999976],[112.81456305800009,-7.927837461999957],[112.8166020110001,-7.928208180999945],[112.820602011,-7.928608180999959],[112.82269541200003,-7.930268463999937],[112.82350201100007,-7.93090818099995],[112.82620201100008,-7.933708180999929],[112.82980201100008,-7.935608180999964],[112.83390201100008,-7.936808180999947],[112.83730201100002,-7.937708180999948],[112.84110201100009,-7.938208180999936],[112.84390201100007,-7.937408180999967],[112.84710201100006,-7.936008180999977],[112.85120201200004,-7.9346081809999305],[112.8547020100001,-7.935908180999945],[112.85750201100007,-7.939408180999976],[112.86110201000008,-7.941708180999967],[112.86134257100002,-7.941820942999925],[112.86398663000011,-7.943060345999982],[112.86430201100006,-7.943208180999932],[112.86497390400007,-7.943623173999981],[112.86708715100008,-7.944928413999946],[112.867702011,-7.945308180999973],[112.86915037900008,-7.94650465899997],[112.87000201100011,-7.947208180999951],[112.87290201100006,-7.946408180999981],[112.87516469700006,-7.946518555999944],[112.87700201100006,-7.946608180999931],[112.88040201100011,-7.947508180999932],[112.88350201100002,-7.949508180999942],[112.88600201100007,-7.951608180999926],[112.88935183800004,-7.9501480009999455],[112.88990201100012,-7.949908180999955],[112.89051499400011,-7.949750556999959],[112.89340201200002,-7.949008180999954],[112.89541572400003,-7.948078774999942],[112.89600201100006,-7.94780818199996],[112.89920201100006,-7.947308180999926],[112.90190201100006,-7.9474081809999575],[112.90228262500011,-7.947480678999966],[112.90400201000011,-7.94780818199996],[112.90600201100006,-7.943908180999927],[112.90870201000007,-7.940908180999941],[112.91280201100005,-7.939108180999938],[112.91680201100007,-7.938808180999956],[112.92050201100005,-7.938108180999961],[112.92300201100011,-7.9351081809999755],[112.92500201100006,-7.932108180999933],[112.9280020110001,-7.928908179999951],[112.93040201100007,-7.924308180999958],[112.93140201100005,-7.920408180999971],[112.92840201100012,-7.919208180999931],[112.92550201100005,-7.918408180999961],[112.92240201100003,-7.918008180999948],[112.91880201100003,-7.917508181999949],[112.9149020110001,-7.915908181999953],[112.91280201100005,-7.913308180999934],[112.90980201100001,-7.9120081819999655],[112.90750201100002,-7.913008180999952],[112.90410201000009,-7.914008180999929],[112.9018020100001,-7.91550818099995],[112.89980201200001,-7.916808181999954],[112.89760201100012,-7.917908179999927],[112.89470201100005,-7.918508179999947],[112.89190201200006,-7.919008180999981],[112.88940201100002,-7.920008180999957],[112.8868020110001,-7.92120818099994],[112.88360201100011,-7.921408180999947],[112.87960201100009,-7.9203081799999495],[112.87570201100004,-7.919808180999951],[112.87290201100006,-7.919008180999981],[112.87010201100009,-7.917708179999977],[112.86650201000009,-7.916008181999928],[112.8628020110001,-7.915008181999951],[112.85940201000005,-7.9144081819999315],[112.85630201000004,-7.914808180999955],[112.85300201000007,-7.91690818099994],[112.8496020120001,-7.919608180999944],[112.84570201200006,-7.9203081799999495],[112.84170201200004,-7.917208180999978],[112.84020201200008,-7.9144081819999315],[112.83980201100007,-7.911308180999981],[112.83900201100005,-7.9083081809999385],[112.83760201100006,-7.905008180999971],[112.83640201100002,-7.90070818099997],[112.8365020110001,-7.8972081809999395],[112.8365020110001,-7.893408180999927],[112.83570201100008,-7.889908180999953],[112.83370201100001,-7.88730818099998],[112.83130201100005,-7.883508179999978],[112.82970201100011,-7.879408180999974],[112.82900201100006,-7.8767081809999695],[112.82940201100007,-7.872908180999957],[112.83010201100001,-7.868608180999956],[112.82760201100007,-7.867208181999956],[112.82410201100004,-7.866008180999927],[112.82170201100007,-7.862608181999974],[112.82080201100007,-7.859708180999974],[112.81940201100008,-7.8569081809999375],[112.81730201000005,-7.853208180999957],[112.81560201000002,-7.849708180999926],[112.81510201100002,-7.84670818099994],[112.81450201100006,-7.843708180999954],[112.81230201100004,-7.84040818099993],[112.81020201000001,-7.836208180999961],[112.8098020110001,-7.833108180999943],[112.81040201100006,-7.8306081809999455],[112.81060201100001,-7.8277081809999345],[112.81190201100003,-7.824008179999964],[112.813802011,-7.819808180999928],[112.81510201100002,-7.816708180999967],[112.81670201100007,-7.812708180999948],[112.81810201000008,-7.809008180999967],[112.81860201100005,-7.804908180999973],[112.81790201100011,-7.801008180999929],[112.8175020110001,-7.797708180999962],[112.8175020110001,-7.793508180999936],[112.81720201000007,-7.79050818099995],[112.81710201100009,-7.788708180999947],[112.81500201100005,-7.785508180999955],[112.81330201000003,-7.7821081809999555],[112.81190201100003,-7.778708180999956],[112.81060201100001,-7.774908180999944],[112.81060201100001,-7.770608180999943],[112.81140201100004,-7.765908180999929],[112.81220201100007,-7.762408181999945],[112.81270201100006,-7.7587081809999745],[112.81280201100003,-7.75540818099995],[112.81280201100003,-7.752308180999933],[112.81280201100003,-7.748508180999977],[112.81330201000003,-7.745508180999934],[112.81410201000006,-7.742908180999962],[112.81440201100008,-7.740308179999943],[112.81410201000006,-7.737808180999934],[112.8139020110001,-7.734708179999927],[112.81430201100011,-7.731408180999949],[112.81470201100001,-7.728408179999974],[112.81540201100006,-7.724108181999952],[112.81670201100007,-7.720208181999965],[112.8180020100001,-7.717508180999971],[112.82010201100002,-7.715408181999976],[112.8225020110001,-7.71320818099997],[112.82460201100002,-7.710608180999941],[112.82720201100005,-7.708108180999943],[112.829202011,-7.706208180999965],[112.83150201100011,-7.704908180999951],[112.83450201100004,-7.704308180999931],[112.83730201100002,-7.702908180999941],[112.83990201100005,-7.701308180999945],[112.8424020110001,-7.700108180999962],[112.84510201100011,-7.697808180999971],[112.84680201100002,-7.695008180999935],[112.84800201200005,-7.693108180999957],[112.84910201100001,-7.6916081809999355],[112.85090201100002,-7.689908180999964],[112.85410201000002,-7.689308180999944],[112.85770201100001,-7.687708180999948],[112.86130201100002,-7.685408179999968],[112.86430201100006,-7.6834081809999475],[112.86650201000009,-7.6814081799999485],[112.8678020110001,-7.678808180999965],[112.87070201100005,-7.675708181999937],[112.87430201100005,-7.673108180999975],[112.87850201100002,-7.670908181999948],[112.88210201100003,-7.669008180999981],[112.88450201100011,-7.665808180999932],[112.88574747200005,-7.662985072999959],[112.887084662,-7.660607848999973],[112.8884218500001,-7.6579334709999785],[112.89035334500011,-7.655407669999931],[112.89213626300011,-7.652733291999937],[112.89228484000012,-7.651396102999968],[112.89228484000012,-7.649910337999927],[112.89228484000012,-7.6472359609999785],[112.89317630000005,-7.644115853999949],[112.89466206400004,-7.641144322999935],[112.89689071300006,-7.6375784859999385],[112.8992679380001,-7.634012647999953],[112.90060512600007,-7.629852505999963],[112.90271752500007,-7.6256301879999455],[112.90256492700007,-7.625251091999928],[112.90241232800008,-7.62500027699997],[112.90238179400001,-7.624962120999953],[112.90203849200009,-7.6245634779999705],[112.90155021400005,-7.623992249999958],[112.9013747030001,-7.623820107999961],[112.90109244400003,-7.62379003999996],[112.9005584140001,-7.6237810179999315],[112.90007008500004,-7.623847765999926],[112.89986411400002,-7.623876381999935],[112.89983360400004,-7.623850617999949],[112.89969625000003,-7.6237461809999445],[112.89942158800011,-7.623563564999927],[112.89897908600005,-7.623310341999968],[112.89850604900005,-7.623040449999962],[112.89815510100004,-7.622823022999967],[112.89792621800007,-7.622715290999963],[112.89765922700008,-7.622667571999955],[112.89737691900007,-7.622613214999944],[112.89720910400001,-7.622493044999942],[112.89685051000004,-7.622154020999972],[112.89669791200004,-7.621939935999933],[112.89659111500009,-7.621734897999943],[112.89646140500008,-7.621416845999931],[112.89633172000003,-7.6211078379999435],[112.89607230100012,-7.620799323999961],[112.89563744600002,-7.620394019999935],[112.89511863200005,-7.619989672999964],[112.89456171300003,-7.619664955999951],[112.89389792300005,-7.619321137999975],[112.89319602700004,-7.618994036999936],[112.8927459030001,-7.618755145999955],[112.89233393600011,-7.618571079999981],[112.89199058400004,-7.6184981369999605],[112.8917464330001,-7.618444713999963],[112.89135732900002,-7.619235828999933],[112.89127339700008,-7.619230542999958],[112.8910216480001,-7.619122786999981],[112.89064019000011,-7.618895820999967],[112.89061727700005,-7.618803308999929],[112.89063254400003,-7.6186201999999525],[112.89073172000008,-7.618466176999959],[112.89099113800012,-7.6181166549999375],[112.89097587100002,-7.617929711999977],[112.89090720600007,-7.617846294999936],[112.89081565200001,-7.617818636999971],[112.89066308000008,-7.617847254999958],[112.89038841800004,-7.617903504999958],[112.89022057700004,-7.6178606039999295],[112.89006797900004,-7.617742817999954],[112.88998911400006,-7.617667214999926],[112.88941186000011,-7.617113839999945],[112.88921348500003,-7.616839203999973],[112.8890990430001,-7.616582217999962],[112.8890990430001,-7.61638096799993],[112.88906853300011,-7.6161606879999795],[112.88898460000007,-7.616019029999961],[112.88886253700002,-7.615951322999933],[112.88871758500011,-7.615955157999963],[112.88853445400002,-7.616019029999961],[112.88829794700007,-7.616154933999951],[112.88824454900009,-7.6161845099999255],[112.8879012220001,-7.616320881999968],[112.88778678100005,-7.616269400999954],[112.88767995900002,-7.616143034999936],[112.88765119200002,-7.616081082999926],[112.88758075900012,-7.615929392999931],[112.88759605100006,-7.615826875999971],[112.8877104930001,-7.615698148999968],[112.88793173200008,-7.615408686999956],[112.8880995720001,-7.614985262999937],[112.88841241500006,-7.614165114999935],[112.88835899100002,-7.614026824999939],[112.88825981600007,-7.613954815999932],[112.88809195100009,-7.613905227999965],[112.88729088000002,-7.6136935039999685],[112.88713828200002,-7.613523769999972],[112.88671104700006,-7.613035466999975],[112.88639058400008,-7.612802771999952],[112.88626092400011,-7.61287237099998],[112.88607017000004,-7.6130445139999665],[112.88584893200004,-7.613235268999972],[112.88572684300004,-7.613272464999966],[112.88563531400007,-7.613200922999965]]]},"properties":{"OBJECTID_1":11622,"OBJECTID":11622,"Nama_DAS":"WELANG","Shape_Leng":1.34092005315,"Shape_Length":1.3409200539571404,"Shape_Area":0.040777601198891046}}]}
