{"type":"FeatureCollection","features":[{"id":"7","type":"Feature","properties":{"osm_id":29100243,"waterway":"river","name":"Kali Surabaya"},"geometry":{"type":"MultiLineString","coordinates":[[[112.6646,-7.351199,0.0],[112.668404,-7.350884,0.0],[112.670081,-7.351014,0.0]],[[112.677973,-7.350402,0.0],[112.682797,-7.347489,0.0],[112.685144,-7.346839,0.0]],[[112.703979,-7.336673,0.0],[112.710477,-7.328662,0.0],[112.710151,-7.323018,0.0],[112.711147,-7.318753,0.0],[112.711334,-7.311799,0.0],[112.712506,-7.308596,0.0],[112.714061,-7.307617,0.0],[112.718094,-7.308111,0.0],[112.723368,-7.307611,0.0],[112.72584,-7.30561,0.0],[112.729422,-7.300934,0.0],[112.733885,-7.299691,0.0],[112.737927,-7.299684,0.0]]]}},{"id":"36","type":"Feature","properties":{"osm_id":202766610,"waterway":"river","name":""},"geometry":{"type":"LineString","coordinates":[[112.630413,-7.314609,0.0],[112.633954,-7.313021,0.0],[112.638215,-7.312796,0.0],[112.640545,-7.313743,0.0],[112.64137,-7.313227,0.0],[112.669073,-7.317142,0.0]]}},{"id":"112","type":"Feature","properties":{"osm_id":455010318,"waterway":"river","name":""},"geometry":{"type":"LineString","coordinates":[[112.673917,-7.309089,0.0],[112.672085,-7.317579,0.0]]}},{"id":"128","type":"Feature","properties":{"osm_id":455642035,"waterway":"river","name":""},"geometry":{"type":"LineString","coordinates":[[112.662321,-7.30493,0.0],[112.662192,-7.306698,0.0],[112.663459,-7.307198,0.0],[112.661541,-7.316392,0.0]]}},{"id":"707","type":"Feature","properties":{"osm_id":1554487698,"waterway":"river","name":""},"geometry":{"type":"LineString","coordinates":[[112.673759,-7.308911,0.0],[112.674274,-7.309049,0.0]]}},{"id":"703","type":"Feature","properties":{"osm_id":1554487694,"waterway":"river","name":""},"geometry":{"type":"LineString","coordinates":[[112.672206,-7.308534,0.0],[112.673759,-7.308911,0.0]]}},{"id":"704","type":"Feature","properties":{"osm_id":1554487695,"waterway":"river","name":""},"geometry":{"type":"LineString","coordinates":[[112.672126,-7.308516,0.0],[112.672206,-7.308534,0.0]]}},{"id":"138","type":"Feature","properties":{"osm_id":455677850,"waterway":"stream","name":""},"geometry":{"type":"LineString","coordinates":[[112.7133,-7.339102,0.0],[112.725961,-7.342899,0.0]]}},{"id":"597","type":"Feature","properties":{"osm_id":991852556,"waterway":"stream","name":""},"geometry":{"type":"LineString","coordinates":[[112.712877,-7.338973,0.0],[112.7133,-7.339102,0.0]]}},{"id":"598","type":"Feature","properties":{"osm_id":991852557,"waterway":"stream","name":""},"geometry":{"type":"LineString","coordinates":[[112.710317,-7.338254,0.0],[112.712877,-7.338973,0.0]]}},{"id":"230","type":"Feature","properties":{"osm_id":470433055,"waterway":"stream","name":""},"geometry":{"type":"LineString","coordinates":[[112.710217,-7.338155,0.0],[112.710317,-7.338254,0.0]]}},{"id":"666","type":"Feature","properties":{"osm_id":1292111519,"waterway":"stream","name":""},"geometry":{"type":"LineString","coordinates":[[112.716838,-7.335284,0.0],[112.716908,-7.335293,0.0]]}},{"id":"667","type":"Feature","properties":{"osm_id":1292111520,"waterway":"stream","name":""},"geometry":{"type":"LineString","coordinates":[[112.714268,-7.334876,0.0],[112.716838,-7.335284,0.0]]}},{"id":"625","type":"Feature","properties":{"osm_id":1116087866,"waterway":"stream","name":""},"geometry":{"type":"LineString","coordinates":[[112.713904,-7.33482,0.0],[112.714268,-7.334876,0.0]]}},{"id":"626","type":"Feature","properties":{"osm_id":1116087867,"waterway":"stream","name":""},"geometry":{"type":"LineString","coordinates":[[112.713247,-7.334678,0.0],[112.713904,-7.33482,0.0]]}},{"id":"47","type":"Feature","properties":{"osm_id":309958849,"waterway":"stream","name":"Kali Perbatasan"},"geometry":{"type":"MultiLineString","coordinates":[[[112.719554,-7.342983,0.0],[112.720022,-7.34312,0.0],[112.719991,-7.343358,0.0]],[[112.722077,-7.345147,0.0],[112.724317,-7.34593,0.0],[112.724564,-7.34728,0.0]],[[112.725677,-7.348235,0.0],[112.72628,-7.348247,0.0]]]}},{"id":"254","type":"Feature","properties":{"osm_id":561148496,"waterway":"stream","name":""},"geometry":{"type":"LineString","coordinates":[[112.72884,-7.343811,0.0],[112.729163,-7.343897,0.0]]}},{"id":"639","type":"Feature","properties":{"osm_id":1119946718,"waterway":"stream","name":""},"geometry":{"type":"LineString","coordinates":[[112.726227,-7.342983,0.0],[112.72884,-7.343811,0.0]]}},{"id":"638","type":"Feature","properties":{"osm_id":1119946717,"waterway":"stream","name":""},"geometry":{"type":"LineString","coordinates":[[112.725961,-7.342899,0.0],[112.726227,-7.342983,0.0]]}},{"id":"253","type":"Feature","properties":{"osm_id":561148495,"waterway":"stream","name":""},"geometry":{"type":"LineString","coordinates":[[112.729163,-7.343897,0.0],[112.729183,-7.341928,0.0]]}},{"id":"246","type":"Feature","properties":{"osm_id":475733840,"waterway":"stream","name":""},"geometry":{"type":"LineString","coordinates":[[112.729185,-7.341913,0.0],[112.729183,-7.341928,0.0]]}},{"id":"247","type":"Feature","properties":{"osm_id":475735758,"waterway":"stream","name":""},"geometry":{"type":"LineString","coordinates":[[112.723555,-7.339587,0.0],[112.723579,-7.339575,0.0]]}},{"id":"133","type":"Feature","properties":{"osm_id":455675297,"waterway":"stream","name":""},"geometry":{"type":"LineString","coordinates":[[112.730256,-7.333814,0.0],[112.726985,-7.332977,0.0],[112.724999,-7.333728,0.0],[112.723579,-7.339575,0.0]]}},{"id":"132","type":"Feature","properties":{"osm_id":455675296,"waterway":"stream","name":""},"geometry":{"type":"LineString","coordinates":[[112.716908,-7.335293,0.0],[112.724432,-7.336598,0.0]]}},{"id":"234","type":"Feature","properties":{"osm_id":470920494,"waterway":"stream","name":""},"geometry":{"type":"LineString","coordinates":[[112.734817,-7.335101,0.0],[112.730383,-7.333851,0.0]]}},{"id":"233","type":"Feature","properties":{"osm_id":470920493,"waterway":"stream","name":""},"geometry":{"type":"LineString","coordinates":[[112.730383,-7.333851,0.0],[112.730256,-7.333814,0.0]]}},{"id":"131","type":"Feature","properties":{"osm_id":455675295,"waterway":"stream","name":""},"geometry":{"type":"LineString","coordinates":[[112.730346,-7.329809,0.0],[112.728772,-7.333073,0.0]]}},{"id":"197","type":"Feature","properties":{"osm_id":462689608,"waterway":"river","name":""},"geometry":{"type":"LineString","coordinates":[[112.743366,-7.331316,0.0],[112.747206,-7.331127,0.0],[112.747409,-7.329488,0.0]]}},{"id":"204","type":"Feature","properties":{"osm_id":465330044,"waterway":"stream","name":""},"geometry":{"type":"LineString","coordinates":[[112.731571,-7.330253,0.0],[112.731621,-7.330272,0.0]]}},{"id":"258","type":"Feature","properties":{"osm_id":561203994,"waterway":"stream","name":""},"geometry":{"type":"LineString","coordinates":[[112.731066,-7.329896,0.0],[112.730891,-7.329927,0.0]]}},{"id":"257","type":"Feature","properties":{"osm_id":561203992,"waterway":"stream","name":""},"geometry":{"type":"LineString","coordinates":[[112.730891,-7.329927,0.0],[112.730346,-7.329809,0.0]]}},{"id":"129","type":"Feature","properties":{"osm_id":455672966,"waterway":"stream","name":""},"geometry":{"type":"LineString","coordinates":[[112.728069,-7.329442,0.0],[112.731571,-7.330253,0.0]]}},{"id":"566","type":"Feature","properties":{"osm_id":818757980,"waterway":"stream","name":""},"geometry":{"type":"LineString","coordinates":[[112.727953,-7.329433,0.0],[112.728069,-7.329442,0.0]]}},{"id":"610","type":"Feature","properties":{"osm_id":1027609669,"waterway":"stream","name":""},"geometry":{"type":"LineString","coordinates":[[112.727141,-7.329333,0.0],[112.727129,-7.329403,0.0]]}},{"id":"567","type":"Feature","properties":{"osm_id":818757981,"waterway":"stream","name":""},"geometry":{"type":"LineString","coordinates":[[112.725053,-7.329231,0.0],[112.727953,-7.329433,0.0]]}},{"id":"611","type":"Feature","properties":{"osm_id":1027609670,"waterway":"stream","name":""},"geometry":{"type":"LineString","coordinates":[[112.727157,-7.329243,0.0],[112.727141,-7.329333,0.0]]}},{"id":"568","type":"Feature","properties":{"osm_id":818757982,"waterway":"stream","name":""},"geometry":{"type":"LineString","coordinates":[[112.725,-7.329227,0.0],[112.725053,-7.329231,0.0]]}},{"id":"569","type":"Feature","properties":{"osm_id":818757983,"waterway":"stream","name":""},"geometry":{"type":"LineString","coordinates":[[112.723812,-7.329127,0.0],[112.725,-7.329227,0.0]]}},{"id":"571","type":"Feature","properties":{"osm_id":818757990,"waterway":"stream","name":""},"geometry":{"type":"LineString","coordinates":[[112.723777,-7.329123,0.0],[112.723812,-7.329127,0.0]]}},{"id":"570","type":"Feature","properties":{"osm_id":818757987,"waterway":"stream","name":""},"geometry":{"type":"LineString","coordinates":[[112.722371,-7.328996,0.0],[112.723777,-7.329123,0.0]]}},{"id":"205","type":"Feature","properties":{"osm_id":465330045,"waterway":"stream","name":""},"geometry":{"type":"LineString","coordinates":[[112.731621,-7.330272,0.0],[112.732226,-7.330439,0.0],[112.7338,-7.327992,0.0],[112.735046,-7.328247,0.0],[112.735232,-7.32766,0.0]]}},{"id":"572","type":"Feature","properties":{"osm_id":818757992,"waterway":"stream","name":""},"geometry":{"type":"LineString","coordinates":[[112.72231,-7.328989,0.0],[112.722371,-7.328996,0.0]]}},{"id":"38","type":"Feature","properties":{"osm_id":223152644,"waterway":"stream","name":""},"geometry":{"type":"LineString","coordinates":[[112.736742,-7.327992,0.0],[112.743571,-7.329344,0.0],[112.750234,-7.329514,0.0]]}},{"id":"573","type":"Feature","properties":{"osm_id":818757993,"waterway":"stream","name":""},"geometry":{"type":"LineString","coordinates":[[112.718378,-7.328497,0.0],[112.72231,-7.328989,0.0]]}},{"id":"628","type":"Feature","properties":{"osm_id":1116300448,"waterway":"stream","name":""},"geometry":{"type":"LineString","coordinates":[[112.727417,-7.327706,0.0],[112.727157,-7.329243,0.0]]}},{"id":"214","type":"Feature","properties":{"osm_id":466876539,"waterway":"stream","name":""},"geometry":{"type":"LineString","coordinates":[[112.713043,-7.334583,0.0],[112.713247,-7.334678,0.0]]}},{"id":"213","type":"Feature","properties":{"osm_id":466876538,"waterway":"stream","name":""},"geometry":{"type":"LineString","coordinates":[[112.711481,-7.334327,0.0],[112.713043,-7.334583,0.0]]}},{"id":"106","type":"Feature","properties":{"osm_id":454184456,"waterway":"river","name":""},"geometry":{"type":"LineString","coordinates":[[112.690231,-7.327553,0.0],[112.685671,-7.326355,0.0]]}},{"id":"119","type":"Feature","properties":{"osm_id":455454342,"waterway":"river","name":""},"geometry":{"type":"LineString","coordinates":[[112.69729,-7.326335,0.0],[112.696765,-7.329049,0.0],[112.701677,-7.330793,0.0],[112.702061,-7.326273,0.0],[112.699802,-7.325287,0.0],[112.700088,-7.322373,0.0]]}},{"id":"120","type":"Feature","properties":{"osm_id":455454343,"waterway":"river","name":""},"geometry":{"type":"LineString","coordinates":[[112.69676,-7.323921,0.0],[112.696452,-7.326236,0.0],[112.701917,-7.327821,0.0]]}},{"id":"107","type":"Feature","properties":{"osm_id":454231086,"waterway":"river","name":""},"geometry":{"type":"LineString","coordinates":[[112.685434,-7.327101,0.0],[112.686189,-7.323817,0.0]]}},{"id":"624","type":"Feature","properties":{"osm_id":1115079428,"waterway":"river","name":""},"geometry":{"type":"LineString","coordinates":[[112.696784,-7.32381,0.0],[112.69676,-7.323921,0.0]]}},{"id":"645","type":"Feature","properties":{"osm_id":1136978140,"waterway":"river","name":""},"geometry":{"type":"LineString","coordinates":[[112.700088,-7.322373,0.0],[112.700086,-7.322345,0.0]]}},{"id":"644","type":"Feature","properties":{"osm_id":1136978139,"waterway":"river","name":""},"geometry":{"type":"LineString","coordinates":[[112.700086,-7.322345,0.0],[112.700083,-7.32231,0.0]]}},{"id":"244","type":"Feature","properties":{"osm_id":475588911,"waterway":"stream","name":""},"geometry":{"type":"LineString","coordinates":[[112.717802,-7.320275,0.0],[112.717804,-7.320269,0.0]]}},{"id":"513","type":"Feature","properties":{"osm_id":637467914,"waterway":"stream","name":""},"geometry":{"type":"LineString","coordinates":[[112.731875,-7.327386,0.0],[112.736742,-7.327992,0.0]]}},{"id":"627","type":"Feature","properties":{"osm_id":1116300447,"waterway":"stream","name":""},"geometry":{"type":"LineString","coordinates":[[112.727428,-7.327642,0.0],[112.727417,-7.327706,0.0]]}},{"id":"512","type":"Feature","properties":{"osm_id":637467913,"waterway":"stream","name":""},"geometry":{"type":"LineString","coordinates":[[112.731734,-7.327358,0.0],[112.731875,-7.327386,0.0]]}},{"id":"232","type":"Feature","properties":{"osm_id":470668093,"waterway":"stream","name":""},"geometry":{"type":"LineString","coordinates":[[112.731519,-7.327307,0.0],[112.731734,-7.327358,0.0]]}},{"id":"231","type":"Feature","properties":{"osm_id":470668091,"waterway":"stream","name":""},"geometry":{"type":"LineString","coordinates":[[112.731221,-7.327262,0.0],[112.731519,-7.327307,0.0]]}},{"id":"608","type":"Feature","properties":{"osm_id":1027603485,"waterway":"stream","name":""},"geometry":{"type":"LineString","coordinates":[[112.730934,-7.327197,0.0],[112.731221,-7.327262,0.0]]}},{"id":"609","type":"Feature","properties":{"osm_id":1027603486,"waterway":"stream","name":""},"geometry":{"type":"LineString","coordinates":[[112.730701,-7.327051,0.0],[112.730934,-7.327197,0.0]]}},{"id":"130","type":"Feature","properties":{"osm_id":455672967,"waterway":"stream","name":""},"geometry":{"type":"LineString","coordinates":[[112.727688,-7.326105,0.0],[112.727428,-7.327642,0.0]]}},{"id":"163","type":"Feature","properties":{"osm_id":458026862,"waterway":"stream","name":""},"geometry":{"type":"LineString","coordinates":[[112.71081,-7.327516,0.0],[112.713559,-7.32746,0.0],[112.714279,-7.325035,0.0],[112.716395,-7.323938,0.0],[112.717056,-7.322451,0.0],[112.730701,-7.327051,0.0]]}},{"id":"612","type":"Feature","properties":{"osm_id":1028966959,"waterway":"stream","name":""},"geometry":{"type":"LineString","coordinates":[[112.736122,-7.318968,0.0],[112.736183,-7.31893,0.0]]}},{"id":"705","type":"Feature","properties":{"osm_id":1554487696,"waterway":"river","name":""},"geometry":{"type":"LineString","coordinates":[[112.671925,-7.30847,0.0],[112.672126,-7.308516,0.0]]}},{"id":"706","type":"Feature","properties":{"osm_id":1554487697,"waterway":"river","name":""},"geometry":{"type":"LineString","coordinates":[[112.671805,-7.308443,0.0],[112.671925,-7.30847,0.0]]}},{"id":"708","type":"Feature","properties":{"osm_id":1554487699,"waterway":"river","name":""},"geometry":{"type":"LineString","coordinates":[[112.671085,-7.30828,0.0],[112.671805,-7.308443,0.0]]}},{"id":"134","type":"Feature","properties":{"osm_id":455675900,"waterway":"river","name":""},"geometry":{"type":"LineString","coordinates":[[112.636676,-7.30454,0.0],[112.636413,-7.306265,0.0],[112.640295,-7.307416,0.0]]}},{"id":"125","type":"Feature","properties":{"osm_id":455642032,"waterway":"river","name":""},"geometry":{"type":"LineString","coordinates":[[112.662322,-7.304857,0.0],[112.662321,-7.30493,0.0]]}},{"id":"136","type":"Feature","properties":{"osm_id":455677087,"waterway":"river","name":""},"geometry":{"type":"LineString","coordinates":[[112.636719,-7.304479,0.0],[112.636676,-7.30454,0.0]]}},{"id":"127","type":"Feature","properties":{"osm_id":455642034,"waterway":"river","name":""},"geometry":{"type":"LineString","coordinates":[[112.66407,-7.304088,0.0],[112.662345,-7.304207,0.0],[112.662322,-7.304857,0.0]]}},{"id":"126","type":"Feature","properties":{"osm_id":455642033,"waterway":"river","name":""},"geometry":{"type":"LineString","coordinates":[[112.664099,-7.304042,0.0],[112.66407,-7.304088,0.0]]}},{"id":"124","type":"Feature","properties":{"osm_id":455642031,"waterway":"river","name":""},"geometry":{"type":"LineString","coordinates":[[112.668108,-7.303012,0.0],[112.664534,-7.303355,0.0],[112.664099,-7.304042,0.0]]}},{"id":"245","type":"Feature","properties":{"osm_id":475588912,"waterway":"stream","name":""},"geometry":{"type":"LineString","coordinates":[[112.717967,-7.319716,0.0],[112.717804,-7.320269,0.0]]}},{"id":"193","type":"Feature","properties":{"osm_id":462025680,"waterway":"stream","name":""},"geometry":{"type":"LineString","coordinates":[[112.71927,-7.314831,0.0],[112.717967,-7.319716,0.0]]}},{"id":"105","type":"Feature","properties":{"osm_id":453929860,"waterway":"river","name":""},"geometry":{"type":"LineString","coordinates":[[112.691889,-7.307721,0.0],[112.690331,-7.308778,0.0],[112.688949,-7.317287,0.0],[112.687622,-7.320347,0.0]]}},{"id":"13","type":"Feature","properties":{"osm_id":36001523,"waterway":"river","name":"Kali Brantas"},"geometry":{"type":"LineString","coordinates":[[112.669073,-7.317142,0.0],[112.688062,-7.320434,0.0],[112.697768,-7.320075,0.0],[112.699018,-7.319523,0.0],[112.702454,-7.314024,0.0],[112.702875,-7.311055,0.0],[112.703568,-7.31032,0.0],[112.707009,-7.30945,0.0],[112.709814,-7.307725,0.0],[112.713919,-7.30702,0.0],[112.720116,-7.306953,0.0],[112.720964,-7.308019,0.0]]}},{"id":"108","type":"Feature","properties":{"osm_id":454786041,"waterway":"river","name":""},"geometry":{"type":"LineString","coordinates":[[112.674274,-7.309049,0.0],[112.687728,-7.311619,0.0],[112.692675,-7.313744,0.0],[112.702634,-7.313446,0.0]]}},{"id":"111","type":"Feature","properties":{"osm_id":455010118,"waterway":"river","name":""},"geometry":{"type":"LineString","coordinates":[[112.709269,-7.312708,0.0],[112.711162,-7.309104,0.0],[112.713495,-7.307087,0.0]]}},{"id":"182","type":"Feature","properties":{"osm_id":459530469,"waterway":"river","name":"Kali Brantas"},"geometry":{"type":"LineString","coordinates":[[112.712732,-7.305125,0.0],[112.712957,-7.307158,0.0]]}},{"id":"110","type":"Feature","properties":{"osm_id":455008064,"waterway":"stream","name":""},"geometry":{"type":"LineString","coordinates":[[112.708873,-7.308514,0.0],[112.707266,-7.307524,0.0],[112.707578,-7.303568,0.0],[112.706877,-7.301561,0.0],[112.70505,-7.300104,0.0]]}},{"id":"104","type":"Feature","properties":{"osm_id":453926566,"waterway":"stream","name":""},"geometry":{"type":"LineString","coordinates":[[112.69322,-7.295657,0.0],[112.691872,-7.295572,0.0],[112.690375,-7.297668,0.0],[112.690789,-7.298475,0.0],[112.690232,-7.299972,0.0],[112.691284,-7.300899,0.0],[112.690888,-7.303454,0.0],[112.693761,-7.304299,0.0],[112.693061,-7.306763,0.0],[112.691936,-7.306439,0.0],[112.691889,-7.307721,0.0]]}},{"id":"525","type":"Feature","properties":{"osm_id":670992745,"waterway":"stream","name":""},"geometry":{"type":"LineString","coordinates":[[112.689301,-7.293995,0.0],[112.691362,-7.296622,0.0]]}},{"id":"613","type":"Feature","properties":{"osm_id":1028966960,"waterway":"stream","name":""},"geometry":{"type":"LineString","coordinates":[[112.717804,-7.313977,0.0],[112.726562,-7.317936,0.0],[112.733608,-7.319168,0.0],[112.734784,-7.318521,0.0],[112.736122,-7.318968,0.0]]}},{"id":"271","type":"Feature","properties":{"osm_id":584574376,"waterway":"stream","name":""},"geometry":{"type":"LineString","coordinates":[[112.735022,-7.312764,0.0],[112.736603,-7.313424,0.0]]}},{"id":"268","type":"Feature","properties":{"osm_id":584574373,"waterway":"stream","name":""},"geometry":{"type":"LineString","coordinates":[[112.736603,-7.313424,0.0],[112.737141,-7.312518,0.0]]}},{"id":"269","type":"Feature","properties":{"osm_id":584574374,"waterway":"stream","name":""},"geometry":{"type":"LineString","coordinates":[[112.737141,-7.312518,0.0],[112.73754,-7.312081,0.0]]}},{"id":"270","type":"Feature","properties":{"osm_id":584574375,"waterway":"stream","name":""},"geometry":{"type":"LineString","coordinates":[[112.73754,-7.312081,0.0],[112.738315,-7.312331,0.0]]}},{"id":"200","type":"Feature","properties":{"osm_id":464034861,"waterway":"river","name":"Kali Jagir"},"geometry":{"type":"LineString","coordinates":[[112.741131,-7.300594,0.0],[112.741445,-7.300674,0.0]]}},{"id":"201","type":"Feature","properties":{"osm_id":464034862,"waterway":"river","name":"Kali Jagir"},"geometry":{"type":"LineString","coordinates":[[112.737927,-7.299684,0.0],[112.741131,-7.300594,0.0]]}},{"id":"199","type":"Feature","properties":{"osm_id":464005747,"waterway":"river","name":""},"geometry":{"type":"LineString","coordinates":[[112.721063,-7.299323,0.0],[112.721454,-7.29944,0.0]]}},{"id":"9","type":"Feature","properties":{"osm_id":35319452,"waterway":"river","name":""},"geometry":{"type":"LineString","coordinates":[[112.719301,-7.307043,0.0],[112.720147,-7.306183,0.0],[112.720977,-7.295899,0.0],[112.72462,-7.293954,0.0],[112.725296,-7.291432,0.0],[112.728673,-7.292196,0.0],[112.729435,-7.290608,0.0]]}},{"id":"198","type":"Feature","properties":{"osm_id":464005745,"waterway":"river","name":""},"geometry":{"type":"LineString","coordinates":[[112.721454,-7.29944,0.0],[112.7229,-7.300412,0.0],[112.726692,-7.294939,0.0],[112.728718,-7.29438,0.0],[112.729549,-7.293359,0.0],[112.731301,-7.294731,0.0],[112.730731,-7.295474,0.0]]}},{"id":"691","type":"Feature","properties":{"osm_id":1453236472,"waterway":"stream","name":""},"geometry":{"type":"LineString","coordinates":[[112.818923,-7.34491,0.0],[112.81858,-7.343604,0.0]]}},{"id":"43","type":"Feature","properties":{"osm_id":309946510,"waterway":"river","name":"Kali Perbatasan"},"geometry":{"type":"MultiLineString","coordinates":[[[112.800998,-7.345237,0.0],[112.812171,-7.346379,0.0]],[[112.812485,-7.346389,0.0],[112.818697,-7.343566,0.0],[112.826037,-7.343196,0.0]]]}},{"id":"188","type":"Feature","properties":{"osm_id":460454297,"waterway":"river","name":""},"geometry":{"type":"LineString","coordinates":[[112.796525,-7.342911,0.0],[112.802333,-7.343834,0.0]]}},{"id":"187","type":"Feature","properties":{"osm_id":460454293,"waterway":"river","name":""},"geometry":{"type":"LineString","coordinates":[[112.799602,-7.340803,0.0],[112.797675,-7.340586,0.0],[112.797647,-7.3452,0.0]]}},{"id":"603","type":"Feature","properties":{"osm_id":1013431477,"waterway":"river","name":"Roh Kelem"},"geometry":{"type":"LineString","coordinates":[[112.805667,-7.340504,0.0],[112.805725,-7.340524,0.0]]}},{"id":"605","type":"Feature","properties":{"osm_id":1013431479,"waterway":"river","name":"Roh Kelem"},"geometry":{"type":"LineString","coordinates":[[112.805725,-7.340524,0.0],[112.808823,-7.340354,0.0]]}},{"id":"622","type":"Feature","properties":{"osm_id":1053817012,"waterway":"river","name":"Roh Kelem"},"geometry":{"type":"LineString","coordinates":[[112.808962,-7.340349,0.0],[112.810831,-7.340363,0.0]]}},{"id":"623","type":"Feature","properties":{"osm_id":1053817013,"waterway":"river","name":"Roh Kelem"},"geometry":{"type":"LineString","coordinates":[[112.808823,-7.340354,0.0],[112.808962,-7.340349,0.0]]}},{"id":"46","type":"Feature","properties":{"osm_id":309958848,"waterway":"river","name":"Kali Perbatasan"},"geometry":{"type":"MultiLineString","coordinates":[[[112.765793,-7.338248,0.0],[112.766787,-7.338216,0.0],[112.769611,-7.339556,0.0],[112.769935,-7.339474,0.0]],[[112.77072,-7.339277,0.0],[112.771225,-7.33915,0.0],[112.775196,-7.33982,0.0]],[[112.778461,-7.342367,0.0],[112.779398,-7.34258,0.0],[112.77941,-7.344443,0.0]],[[112.77952,-7.344682,0.0],[112.781131,-7.345053,0.0]],[[112.784824,-7.345498,0.0],[112.789101,-7.343964,0.0],[112.792308,-7.345739,0.0]],[[112.796443,-7.345872,0.0],[112.796981,-7.345317,0.0],[112.798734,-7.344909,0.0],[112.799666,-7.345597,0.0],[112.800998,-7.345237,0.0]]]}},{"id":"190","type":"Feature","properties":{"osm_id":461677951,"waterway":"river","name":""},"geometry":{"type":"LineString","coordinates":[[112.770167,-7.334602,0.0],[112.778576,-7.335299,0.0],[112.777463,-7.340183,0.0]]}},{"id":"186","type":"Feature","properties":{"osm_id":460435425,"waterway":"river","name":""},"geometry":{"type":"LineString","coordinates":[[112.7705,-7.336502,0.0],[112.778151,-7.33748,0.0]]}},{"id":"595","type":"Feature","properties":{"osm_id":991098234,"waterway":"river","name":"Kali Kebon Agung"},"geometry":{"type":"LineString","coordinates":[[112.781173,-7.331684,0.0],[112.781401,-7.331694,0.0]]}},{"id":"48","type":"Feature","properties":{"osm_id":309958850,"waterway":"river","name":"Kali Perbatasan"},"geometry":{"type":"MultiLineString","coordinates":[[[112.733428,-7.34686,0.0],[112.733493,-7.346587,0.0],[112.736296,-7.346193,0.0],[112.736503,-7.344694,0.0],[112.741947,-7.34515,0.0],[112.742943,-7.340903,0.0],[112.743006,-7.340922,0.0]],[[112.75273,-7.342131,0.0],[112.753504,-7.342085,0.0],[112.755121,-7.336729,0.0],[112.755392,-7.336792,0.0]]]}},{"id":"28","type":"Feature","properties":{"osm_id":159864278,"waterway":"river","name":"Kali Perbatasan"},"geometry":{"type":"LineString","coordinates":[[112.754819,-7.336027,0.0],[112.763308,-7.337887,0.0]]}},{"id":"191","type":"Feature","properties":{"osm_id":462007461,"waterway":"river","name":""},"geometry":{"type":"LineString","coordinates":[[112.764619,-7.338077,0.0],[112.765879,-7.33169,0.0]]}},{"id":"636","type":"Feature","properties":{"osm_id":1119717556,"waterway":"river","name":"Kali Kebon Agung"},"geometry":{"type":"LineString","coordinates":[[112.770536,-7.331246,0.0],[112.771304,-7.331293,0.0]]}},{"id":"604","type":"Feature","properties":{"osm_id":1013431478,"waterway":"river","name":"Roh Kelem"},"geometry":{"type":"LineString","coordinates":[[112.804445,-7.340349,0.0],[112.80534,-7.339998,0.0],[112.805667,-7.340504,0.0]]}},{"id":"681","type":"Feature","properties":{"osm_id":1374329637,"waterway":"river","name":""},"geometry":{"type":"LineString","coordinates":[[112.810831,-7.340363,0.0],[112.816076,-7.339225,0.0],[112.825653,-7.339418,0.0],[112.828764,-7.338658,0.0]]}},{"id":"20","type":"Feature","properties":{"osm_id":137474434,"waterway":"river","name":"Kali Kebon Agung"},"geometry":{"type":"LineString","coordinates":[[112.781401,-7.331694,0.0],[112.787305,-7.331922,0.0],[112.795113,-7.333392,0.0],[112.808504,-7.331138,0.0],[112.822044,-7.330395,0.0],[112.825976,-7.330773,0.0],[112.826759,-7.33247,0.0],[112.830322,-7.335015,0.0]]}},{"id":"35","type":"Feature","properties":{"osm_id":185394208,"waterway":"river","name":""},"geometry":{"type":"LineString","coordinates":[[112.784677,-7.326314,0.0],[112.79427,-7.32558,0.0],[112.798786,-7.323704,0.0],[112.800582,-7.324039,0.0],[112.803494,-7.323668,0.0],[112.804173,-7.323005,0.0],[112.806259,-7.323127,0.0],[112.807947,-7.319799,0.0],[112.812411,-7.31821,0.0],[112.81441,-7.315915,0.0],[112.814883,-7.314174,0.0],[112.81628,-7.313787,0.0],[112.817095,-7.312465,0.0],[112.818595,-7.312231,0.0],[112.818847,-7.310811,0.0],[112.819719,-7.310542,0.0],[112.820095,-7.311397,0.0],[112.821367,-7.310652,0.0],[112.822116,-7.310955,0.0]]}},{"id":"225","type":"Feature","properties":{"osm_id":469027846,"waterway":"canal","name":"Sungai Avuur Wonorejo"},"geometry":{"type":"LineString","coordinates":[[112.796629,-7.309492,0.0],[112.822456,-7.30944,0.0],[112.822238,-7.311338,0.0],[112.825956,-7.313647,0.0],[112.827671,-7.316243,0.0],[112.829345,-7.317317,0.0],[112.833758,-7.318358,0.0],[112.836122,-7.320485,0.0]]}},{"id":"167","type":"Feature","properties":{"osm_id":458220126,"waterway":"river","name":"Selokan"},"geometry":{"type":"LineString","coordinates":[[112.799585,-7.313793,0.0],[112.800187,-7.311153,0.0]]}},{"id":"166","type":"Feature","properties":{"osm_id":458220125,"waterway":"river","name":"Selokan"},"geometry":{"type":"LineString","coordinates":[[112.800187,-7.311153,0.0],[112.800264,-7.309847,0.0]]}},{"id":"226","type":"Feature","properties":{"osm_id":469027853,"waterway":"canal","name":""},"geometry":{"type":"LineString","coordinates":[[112.822647,-7.310208,0.0],[112.822874,-7.310283,0.0]]}},{"id":"228","type":"Feature","properties":{"osm_id":469027889,"waterway":"canal","name":"Sungai Avuur Wonorejo"},"geometry":{"type":"LineString","coordinates":[[112.796496,-7.309499,0.0],[112.796629,-7.309492,0.0]]}},{"id":"227","type":"Feature","properties":{"osm_id":469027856,"waterway":"canal","name":""},"geometry":{"type":"LineString","coordinates":[[112.822586,-7.309546,0.0],[112.822704,-7.309324,0.0]]}},{"id":"637","type":"Feature","properties":{"osm_id":1119717557,"waterway":"river","name":"Kali Kebon Agung"},"geometry":{"type":"LineString","coordinates":[[112.771304,-7.331293,0.0],[112.781173,-7.331684,0.0]]}},{"id":"679","type":"Feature","properties":{"osm_id":1374000139,"waterway":"river","name":""},"geometry":{"type":"LineString","coordinates":[[112.781486,-7.326507,0.0],[112.784526,-7.32633,0.0]]}},{"id":"680","type":"Feature","properties":{"osm_id":1374000140,"waterway":"river","name":""},"geometry":{"type":"LineString","coordinates":[[112.784526,-7.32633,0.0],[112.784677,-7.326314,0.0]]}},{"id":"181","type":"Feature","properties":{"osm_id":459502617,"waterway":"river","name":""},"geometry":{"type":"LineString","coordinates":[[112.780704,-7.324893,0.0],[112.770594,-7.324786,0.0]]}},{"id":"594","type":"Feature","properties":{"osm_id":990830228,"waterway":"river","name":"Selokan"},"geometry":{"type":"LineString","coordinates":[[112.781027,-7.317213,0.0],[112.781018,-7.317063,0.0]]}},{"id":"592","type":"Feature","properties":{"osm_id":990830226,"waterway":"river","name":"Selokan"},"geometry":{"type":"LineString","coordinates":[[112.781018,-7.317063,0.0],[112.781015,-7.316942,0.0]]}},{"id":"619","type":"Feature","properties":{"osm_id":1046425125,"waterway":"river","name":"Selokan"},"geometry":{"type":"LineString","coordinates":[[112.781015,-7.316942,0.0],[112.781012,-7.316857,0.0]]}},{"id":"618","type":"Feature","properties":{"osm_id":1046425124,"waterway":"river","name":"Selokan"},"geometry":{"type":"LineString","coordinates":[[112.781012,-7.316857,0.0],[112.780979,-7.316134,0.0]]}},{"id":"164","type":"Feature","properties":{"osm_id":458029987,"waterway":"canal","name":"Selokan"},"geometry":{"type":"LineString","coordinates":[[112.776966,-7.316196,0.0],[112.773689,-7.316324,0.0]]}},{"id":"591","type":"Feature","properties":{"osm_id":990830225,"waterway":"river","name":"Selokan"},"geometry":{"type":"LineString","coordinates":[[112.780979,-7.316134,0.0],[112.780974,-7.316051,0.0]]}},{"id":"646","type":"Feature","properties":{"osm_id":1136997525,"waterway":"river","name":"Kali Kebon Agung"},"geometry":{"type":"LineString","coordinates":[[112.768711,-7.331291,0.0],[112.770536,-7.331246,0.0]]}},{"id":"596","type":"Feature","properties":{"osm_id":991098235,"waterway":"river","name":"Kali Kebon Agung"},"geometry":{"type":"LineString","coordinates":[[112.751498,-7.329759,0.0],[112.763245,-7.330739,0.0],[112.766972,-7.332041,0.0],[112.768711,-7.331291,0.0]]}},{"id":"189","type":"Feature","properties":{"osm_id":461269475,"waterway":"river","name":"Kali Kebon Agung"},"geometry":{"type":"LineString","coordinates":[[112.750234,-7.329514,0.0],[112.75108,-7.32973,0.0]]}},{"id":"196","type":"Feature","properties":{"osm_id":462682314,"waterway":"river","name":"Selokan"},"geometry":{"type":"LineString","coordinates":[[112.770569,-7.327006,0.0],[112.770536,-7.331246,0.0]]}},{"id":"195","type":"Feature","properties":{"osm_id":462682313,"waterway":"river","name":"Selokan"},"geometry":{"type":"LineString","coordinates":[[112.770581,-7.326209,0.0],[112.770569,-7.327006,0.0]]}},{"id":"180","type":"Feature","properties":{"osm_id":459489143,"waterway":"river","name":""},"geometry":{"type":"LineString","coordinates":[[112.770576,-7.322651,0.0],[112.770581,-7.326209,0.0]]}},{"id":"6","type":"Feature","properties":{"osm_id":29100137,"waterway":"stream","name":""},"geometry":{"type":"LineString","coordinates":[[112.736183,-7.31893,0.0],[112.736964,-7.318964,0.0],[112.737136,-7.319951,0.0],[112.738736,-7.320377,0.0],[112.739771,-7.319313,0.0],[112.739738,-7.318178,0.0],[112.747409,-7.31924,0.0],[112.748225,-7.317389,0.0],[112.751294,-7.318417,0.0],[112.757478,-7.318555,0.0],[112.757873,-7.317653,0.0],[112.759469,-7.317935,0.0],[112.760952,-7.317166,0.0],[112.761585,-7.317884,0.0],[112.762352,-7.316452,0.0],[112.76313,-7.31622,0.0],[112.761818,-7.314761,0.0],[112.762514,-7.314411,0.0],[112.764164,-7.315036,0.0],[112.764515,-7.314371,0.0],[112.764034,-7.313405,0.0]]}},{"id":"516","type":"Feature","properties":{"osm_id":660977048,"waterway":"canal","name":"Sungai Avuur Wonorejo"},"geometry":{"type":"LineString","coordinates":[[112.771743,-7.311318,0.0],[112.772133,-7.310391,0.0]]}},{"id":"515","type":"Feature","properties":{"osm_id":660977046,"waterway":"canal","name":"Sungai Avuur Wonorejo"},"geometry":{"type":"LineString","coordinates":[[112.772133,-7.310391,0.0],[112.77268,-7.309261,0.0]]}},{"id":"514","type":"Feature","properties":{"osm_id":660977044,"waterway":"canal","name":"Sungai Avuur Wonorejo"},"geometry":{"type":"LineString","coordinates":[[112.77268,-7.309261,0.0],[112.772765,-7.30909,0.0]]}},{"id":"621","type":"Feature","properties":{"osm_id":1049492742,"waterway":"river","name":"Selokan"},"geometry":{"type":"LineString","coordinates":[[112.780974,-7.316051,0.0],[112.780931,-7.314801,0.0]]}},{"id":"17","type":"Feature","properties":{"osm_id":122218842,"waterway":"river","name":"Selokan"},"geometry":{"type":"LineString","coordinates":[[112.783324,-7.313217,0.0],[112.783545,-7.314397,0.0],[112.78223,-7.317432,0.0],[112.781027,-7.317213,0.0]]}},{"id":"620","type":"Feature","properties":{"osm_id":1049492741,"waterway":"river","name":"Selokan"},"geometry":{"type":"LineString","coordinates":[[112.780931,-7.314801,0.0],[112.780929,-7.314737,0.0]]}},{"id":"593","type":"Feature","properties":{"osm_id":990830227,"waterway":"river","name":"Selokan"},"geometry":{"type":"LineString","coordinates":[[112.780929,-7.314737,0.0],[112.780897,-7.31226,0.0]]}},{"id":"165","type":"Feature","properties":{"osm_id":458183786,"waterway":"river","name":"Selokan"},"geometry":{"type":"LineString","coordinates":[[112.783238,-7.312997,0.0],[112.783648,-7.312098,0.0]]}},{"id":"83","type":"Feature","properties":{"osm_id":448479827,"waterway":"stream","name":""},"geometry":{"type":"LineString","coordinates":[[112.7847,-7.311807,0.0],[112.78447,-7.313111,0.0],[112.789461,-7.312518,0.0]]}},{"id":"29","type":"Feature","properties":{"osm_id":159914631,"waterway":"canal","name":"Sungai Avuur Wonorejo"},"geometry":{"type":"LineString","coordinates":[[112.757073,-7.312552,0.0],[112.763812,-7.313304,0.0],[112.765798,-7.314786,0.0],[112.768938,-7.313738,0.0],[112.768405,-7.311712,0.0],[112.768664,-7.310584,0.0],[112.769496,-7.310302,0.0],[112.771998,-7.311385,0.0],[112.782652,-7.312341,0.0],[112.79084,-7.310409,0.0],[112.795318,-7.310157,0.0],[112.796496,-7.309499,0.0]]}},{"id":"44","type":"Feature","properties":{"osm_id":309956659,"waterway":"river","name":"Kali Jagir"},"geometry":{"type":"LineString","coordinates":[[112.741445,-7.300674,0.0],[112.780037,-7.310788,0.0],[112.791728,-7.307502,0.0],[112.796681,-7.307941,0.0],[112.803267,-7.307546,0.0],[112.807203,-7.3088,0.0],[112.808383,-7.307941,0.0],[112.808491,-7.307082,0.0],[112.80613,-7.304316,0.0],[112.805978,-7.302667,0.0],[112.808098,-7.299681,0.0],[112.810542,-7.298798,0.0],[112.817124,-7.301813,0.0],[112.822117,-7.306877,0.0],[112.825939,-7.307214,0.0],[112.838437,-7.310175,0.0],[112.839938,-7.309941,0.0],[112.841856,-7.307038,0.0],[112.843505,-7.305673,0.0]]}},{"id":"27","type":"Feature","properties":{"osm_id":159852283,"waterway":"canal","name":""},"geometry":{"type":"LineString","coordinates":[[112.772576,-7.300234,0.0],[112.772212,-7.302626,0.0],[112.772814,-7.305795,0.0],[112.77769,-7.308908,0.0],[112.789645,-7.306364,0.0],[112.79948,-7.306936,0.0],[112.800357,-7.307661,0.0]]}},{"id":"162","type":"Feature","properties":{"osm_id":457816223,"waterway":"river","name":"Kali Keputih"},"geometry":{"type":"LineString","coordinates":[[112.792192,-7.290426,0.0],[112.793087,-7.290469,0.0]]}},{"id":"229","type":"Feature","properties":{"osm_id":469278425,"waterway":"river","name":""},"geometry":{"type":"LineString","coordinates":[[112.823496,-7.307691,0.0],[112.823613,-7.307053,0.0]]}},{"id":"684","type":"Feature","properties":{"osm_id":1449284452,"waterway":"stream","name":""},"geometry":{"type":"LineString","coordinates":[[112.828861,-7.303619,0.0],[112.834955,-7.302487,0.0],[112.841315,-7.302215,0.0],[112.845304,-7.299125,0.0]]}},{"id":"686","type":"Feature","properties":{"osm_id":1449284454,"waterway":"stream","name":""},"geometry":{"type":"LineString","coordinates":[[112.824783,-7.298224,0.0],[112.826454,-7.293416,0.0],[112.830977,-7.292305,0.0]]}},{"id":"676","type":"Feature","properties":{"osm_id":1372017702,"waterway":"stream","name":""},"geometry":{"type":"LineString","coordinates":[[112.841144,-7.302224,0.0],[112.841778,-7.296281,0.0],[112.8408,-7.291624,0.0],[112.841449,-7.28723,0.0]]}},{"id":"685","type":"Feature","properties":{"osm_id":1449284453,"waterway":"stream","name":""},"geometry":{"type":"LineString","coordinates":[[112.831546,-7.303106,0.0],[112.830847,-7.290475,0.0],[112.831368,-7.283553,0.0]]}},{"id":"153","type":"Feature","properties":{"osm_id":457109699,"waterway":"river","name":""},"geometry":{"type":"LineString","coordinates":[[112.796802,-7.290249,0.0],[112.796882,-7.29022,0.0]]}},{"id":"148","type":"Feature","properties":{"osm_id":457109694,"waterway":"river","name":""},"geometry":{"type":"LineString","coordinates":[[112.796882,-7.29022,0.0],[112.797087,-7.290114,0.0]]}},{"id":"150","type":"Feature","properties":{"osm_id":457109696,"waterway":"river","name":""},"geometry":{"type":"LineString","coordinates":[[112.797087,-7.290114,0.0],[112.797221,-7.290071,0.0]]}},{"id":"151","type":"Feature","properties":{"osm_id":457109697,"waterway":"river","name":""},"geometry":{"type":"LineString","coordinates":[[112.797221,-7.290071,0.0],[112.797442,-7.290002,0.0]]}},{"id":"154","type":"Feature","properties":{"osm_id":457109700,"waterway":"river","name":""},"geometry":{"type":"LineString","coordinates":[[112.797442,-7.290002,0.0],[112.797674,-7.289971,0.0]]}},{"id":"123","type":"Feature","properties":{"osm_id":455642028,"waterway":"river","name":""},"geometry":{"type":"LineString","coordinates":[[112.661438,-7.302805,0.0],[112.662467,-7.304188,0.0]]}},{"id":"137","type":"Feature","properties":{"osm_id":455677088,"waterway":"river","name":""},"geometry":{"type":"LineString","coordinates":[[112.639453,-7.30055,0.0],[112.639342,-7.302443,0.0],[112.636719,-7.304479,0.0]]}},{"id":"146","type":"Feature","properties":{"osm_id":456528213,"waterway":"river","name":""},"geometry":{"type":"LineString","coordinates":[[112.662067,-7.301707,0.0],[112.661705,-7.302556,0.0]]}},{"id":"116","type":"Feature","properties":{"osm_id":455248869,"waterway":"river","name":""},"geometry":{"type":"LineString","coordinates":[[112.667786,-7.300481,0.0],[112.668108,-7.303012,0.0]]}},{"id":"145","type":"Feature","properties":{"osm_id":456528212,"waterway":"river","name":""},"geometry":{"type":"LineString","coordinates":[[112.662059,-7.30167,0.0],[112.662067,-7.301707,0.0]]}},{"id":"144","type":"Feature","properties":{"osm_id":456528211,"waterway":"river","name":""},"geometry":{"type":"LineString","coordinates":[[112.661992,-7.30103,0.0],[112.662059,-7.30167,0.0]]}},{"id":"142","type":"Feature","properties":{"osm_id":456494622,"waterway":"river","name":""},"geometry":{"type":"LineString","coordinates":[[112.639408,-7.300494,0.0],[112.639453,-7.30055,0.0]]}},{"id":"117","type":"Feature","properties":{"osm_id":455248871,"waterway":"river","name":""},"geometry":{"type":"LineString","coordinates":[[112.667786,-7.300481,0.0],[112.667758,-7.300362,0.0]]}},{"id":"141","type":"Feature","properties":{"osm_id":456494621,"waterway":"river","name":""},"geometry":{"type":"LineString","coordinates":[[112.636845,-7.299976,0.0],[112.639408,-7.300494,0.0]]}},{"id":"118","type":"Feature","properties":{"osm_id":455248872,"waterway":"river","name":""},"geometry":{"type":"LineString","coordinates":[[112.667519,-7.299966,0.0],[112.666873,-7.299327,0.0],[112.665759,-7.300236,0.0]]}},{"id":"238","type":"Feature","properties":{"osm_id":474267048,"waterway":"river","name":""},"geometry":{"type":"LineString","coordinates":[[112.637002,-7.299557,0.0],[112.636845,-7.299976,0.0]]}},{"id":"115","type":"Feature","properties":{"osm_id":455248868,"waterway":"river","name":""},"geometry":{"type":"LineString","coordinates":[[112.667758,-7.300362,0.0],[112.667897,-7.298755,0.0]]}},{"id":"606","type":"Feature","properties":{"osm_id":1020356807,"waterway":"river","name":""},"geometry":{"type":"LineString","coordinates":[[112.637136,-7.299249,0.0],[112.637002,-7.299557,0.0]]}},{"id":"607","type":"Feature","properties":{"osm_id":1020356808,"waterway":"river","name":""},"geometry":{"type":"LineString","coordinates":[[112.637197,-7.299114,0.0],[112.637136,-7.299249,0.0]]}},{"id":"530","type":"Feature","properties":{"osm_id":685495172,"waterway":"river","name":""},"geometry":{"type":"LineString","coordinates":[[112.667897,-7.298755,0.0],[112.667993,-7.298519,0.0]]}},{"id":"143","type":"Feature","properties":{"osm_id":456495325,"waterway":"river","name":""},"geometry":{"type":"LineString","coordinates":[[112.637415,-7.298111,0.0],[112.637197,-7.299114,0.0]]}},{"id":"529","type":"Feature","properties":{"osm_id":685495171,"waterway":"river","name":""},"geometry":{"type":"LineString","coordinates":[[112.667993,-7.298519,0.0],[112.668138,-7.298114,0.0]]}},{"id":"585","type":"Feature","properties":{"osm_id":951864994,"waterway":"river","name":""},"geometry":{"type":"LineString","coordinates":[[112.668138,-7.298114,0.0],[112.668337,-7.297824,0.0]]}},{"id":"584","type":"Feature","properties":{"osm_id":951864993,"waterway":"river","name":""},"geometry":{"type":"LineString","coordinates":[[112.668337,-7.297824,0.0],[112.668391,-7.297768,0.0]]}},{"id":"523","type":"Feature","properties":{"osm_id":670992743,"waterway":"stream","name":""},"geometry":{"type":"LineString","coordinates":[[112.679446,-7.291732,0.0],[112.680425,-7.291822,0.0]]}},{"id":"520","type":"Feature","properties":{"osm_id":670992739,"waterway":"stream","name":""},"geometry":{"type":"LineString","coordinates":[[112.679354,-7.291715,0.0],[112.679446,-7.291732,0.0]]}},{"id":"101","type":"Feature","properties":{"osm_id":453452542,"waterway":"stream","name":""},"geometry":{"type":"LineString","coordinates":[[112.734232,-7.290682,0.0],[112.731017,-7.294496,0.0]]}},{"id":"640","type":"Feature","properties":{"osm_id":1120191368,"waterway":"river","name":""},"geometry":{"type":"LineString","coordinates":[[112.729435,-7.290608,0.0],[112.729448,-7.290594,0.0]]}},{"id":"74","type":"Feature","properties":{"osm_id":448269626,"waterway":"stream","name":""},"geometry":{"type":"LineString","coordinates":[[112.742169,-7.290159,0.0],[112.742899,-7.290176,0.0]]}},{"id":"203","type":"Feature","properties":{"osm_id":465117751,"waterway":"stream","name":""},"geometry":{"type":"LineString","coordinates":[[112.733557,-7.289653,0.0],[112.734232,-7.290682,0.0]]}},{"id":"98","type":"Feature","properties":{"osm_id":451295398,"waterway":"river","name":""},"geometry":{"type":"LineString","coordinates":[[112.741425,-7.289926,0.0],[112.742169,-7.290159,0.0]]}},{"id":"102","type":"Feature","properties":{"osm_id":453452543,"waterway":"river","name":""},"geometry":{"type":"LineString","coordinates":[[112.734232,-7.290682,0.0],[112.737732,-7.289153,0.0],[112.741328,-7.28988,0.0]]}},{"id":"97","type":"Feature","properties":{"osm_id":451295397,"waterway":"river","name":""},"geometry":{"type":"LineString","coordinates":[[112.741328,-7.28988,0.0],[112.741425,-7.289926,0.0]]}},{"id":"45","type":"Feature","properties":{"osm_id":309956660,"waterway":"river","name":"Kali Mas"},"geometry":{"type":"LineString","coordinates":[[112.737927,-7.299684,0.0],[112.741642,-7.29767,0.0],[112.742619,-7.290719,0.0],[112.747108,-7.284997,0.0],[112.746567,-7.281855,0.0],[112.744348,-7.277874,0.0]]}},{"id":"53","type":"Feature","properties":{"osm_id":423444047,"waterway":"stream","name":""},"geometry":{"type":"LineString","coordinates":[[112.734665,-7.283002,0.0],[112.732448,-7.284107,0.0],[112.732993,-7.285375,0.0],[112.731755,-7.285978,0.0],[112.733557,-7.289653,0.0]]}},{"id":"641","type":"Feature","properties":{"osm_id":1120191369,"waterway":"river","name":""},"geometry":{"type":"LineString","coordinates":[[112.729448,-7.290594,0.0],[112.730419,-7.288976,0.0],[112.729581,-7.287369,0.0],[112.730252,-7.28393,0.0],[112.728986,-7.281674,0.0],[112.729042,-7.280237,0.0],[112.727653,-7.279415,0.0],[112.727757,-7.276725,0.0],[112.72625,-7.274908,0.0]]}},{"id":"524","type":"Feature","properties":{"osm_id":670992744,"waterway":"stream","name":""},"geometry":{"type":"LineString","coordinates":[[112.686691,-7.294458,0.0],[112.689316,-7.294137,0.0]]}},{"id":"519","type":"Feature","properties":{"osm_id":670992728,"waterway":"stream","name":""},"geometry":{"type":"LineString","coordinates":[[112.685159,-7.294005,0.0],[112.686691,-7.294458,0.0]]}},{"id":"521","type":"Feature","properties":{"osm_id":670992740,"waterway":"stream","name":""},"geometry":{"type":"LineString","coordinates":[[112.689323,-7.293902,0.0],[112.689301,-7.293995,0.0]]}},{"id":"522","type":"Feature","properties":{"osm_id":670992741,"waterway":"stream","name":""},"geometry":{"type":"LineString","coordinates":[[112.689352,-7.2938,0.0],[112.689323,-7.293902,0.0]]}},{"id":"517","type":"Feature","properties":{"osm_id":670992726,"waterway":"stream","name":""},"geometry":{"type":"LineString","coordinates":[[112.681511,-7.293059,0.0],[112.682662,-7.293797,0.0],[112.685159,-7.294005,0.0]]}},{"id":"518","type":"Feature","properties":{"osm_id":670992727,"waterway":"stream","name":""},"geometry":{"type":"LineString","coordinates":[[112.680425,-7.291822,0.0],[112.681511,-7.293059,0.0]]}},{"id":"602","type":"Feature","properties":{"osm_id":991862123,"waterway":"river","name":""},"geometry":{"type":"LineString","coordinates":[[112.689789,-7.27956,0.0],[112.693027,-7.28018,0.0],[112.694448,-7.279108,0.0]]}},{"id":"601","type":"Feature","properties":{"osm_id":991862122,"waterway":"river","name":""},"geometry":{"type":"LineString","coordinates":[[112.694596,-7.279159,0.0],[112.694651,-7.279215,0.0]]}},{"id":"599","type":"Feature","properties":{"osm_id":991862120,"waterway":"river","name":""},"geometry":{"type":"LineString","coordinates":[[112.694545,-7.279104,0.0],[112.694596,-7.279159,0.0]]}},{"id":"600","type":"Feature","properties":{"osm_id":991862121,"waterway":"river","name":""},"geometry":{"type":"LineString","coordinates":[[112.694448,-7.279108,0.0],[112.694545,-7.279104,0.0]]}},{"id":"615","type":"Feature","properties":{"osm_id":1039280292,"waterway":"stream","name":""},"geometry":{"type":"LineString","coordinates":[[112.703543,-7.279961,0.0],[112.703832,-7.279206,0.0],[112.702912,-7.278018,0.0]]}},{"id":"614","type":"Feature","properties":{"osm_id":1039280291,"waterway":"stream","name":""},"geometry":{"type":"LineString","coordinates":[[112.702912,-7.278018,0.0],[112.702876,-7.277972,0.0]]}},{"id":"30","type":"Feature","properties":{"osm_id":160017661,"waterway":"stream","name":""},"geometry":{"type":"LineString","coordinates":[[112.702876,-7.277972,0.0],[112.702301,-7.277235,0.0],[112.702586,-7.274504,0.0],[112.704266,-7.273545,0.0],[112.704529,-7.268965,0.0]]}},{"id":"40","type":"Feature","properties":{"osm_id":280315115,"waterway":"river","name":""},"geometry":{"type":"LineString","coordinates":[[112.694651,-7.279215,0.0],[112.697204,-7.277313,0.0],[112.69718,-7.276512,0.0],[112.698186,-7.27619,0.0],[112.698306,-7.275511,0.0],[112.7008,-7.275645,0.0],[112.700897,-7.274189,0.0],[112.701936,-7.272733,0.0],[112.702232,-7.270614,0.0],[112.701414,-7.269789,0.0],[112.702301,-7.267443,0.0]]}},{"id":"169","type":"Feature","properties":{"osm_id":458258317,"waterway":"stream","name":""},"geometry":{"type":"LineString","coordinates":[[112.713102,-7.273419,0.0],[112.71293,-7.272635,0.0]]}},{"id":"37","type":"Feature","properties":{"osm_id":212641908,"waterway":"stream","name":""},"geometry":{"type":"LineString","coordinates":[[112.713226,-7.27353,0.0],[112.713388,-7.270117,0.0],[112.711712,-7.26929,0.0],[112.711996,-7.268284,0.0]]}},{"id":"264","type":"Feature","properties":{"osm_id":573397106,"waterway":"river","name":""},"geometry":{"type":"LineString","coordinates":[[112.721914,-7.270755,0.0],[112.711475,-7.268016,0.0]]}},{"id":"3","type":"Feature","properties":{"osm_id":24564252,"waterway":"river","name":""},"geometry":{"type":"LineString","coordinates":[[112.704529,-7.268965,0.0],[112.711202,-7.269357,0.0],[112.711498,-7.268139,0.0]]}},{"id":"168","type":"Feature","properties":{"osm_id":458258313,"waterway":"stream","name":""},"geometry":{"type":"LineString","coordinates":[[112.711996,-7.268284,0.0],[112.712014,-7.268134,0.0]]}},{"id":"647","type":"Feature","properties":{"osm_id":1137016369,"waterway":"river","name":""},"geometry":{"type":"LineString","coordinates":[[112.711498,-7.268139,0.0],[112.711515,-7.267904,0.0]]}},{"id":"252","type":"Feature","properties":{"osm_id":548665392,"waterway":"canal","name":""},"geometry":{"type":"LineString","coordinates":[[112.632005,-7.284442,0.0],[112.632199,-7.284359,0.0]]}},{"id":"249","type":"Feature","properties":{"osm_id":490802445,"waterway":"river","name":""},"geometry":{"type":"LineString","coordinates":[[112.642653,-7.281831,0.0],[112.64382,-7.279361,0.0],[112.642779,-7.276711,0.0],[112.643176,-7.275248,0.0],[112.646558,-7.27435,0.0],[112.647648,-7.272842,0.0]]}},{"id":"192","type":"Feature","properties":{"osm_id":462012272,"waterway":"river","name":""},"geometry":{"type":"LineString","coordinates":[[112.658714,-7.262383,0.0],[112.658395,-7.259754,0.0],[112.6533,-7.25675,0.0]]}},{"id":"261","type":"Feature","properties":{"osm_id":561400054,"waterway":"river","name":""},"geometry":{"type":"LineString","coordinates":[[112.680312,-7.258593,0.0],[112.680326,-7.258429,0.0]]}},{"id":"207","type":"Feature","properties":{"osm_id":465335033,"waterway":"river","name":""},"geometry":{"type":"LineString","coordinates":[[112.680326,-7.258429,0.0],[112.68048,-7.257627,0.0]]}},{"id":"15","type":"Feature","properties":{"osm_id":70364935,"waterway":"river","name":""},"geometry":{"type":"LineString","coordinates":[[112.651901,-7.264053,0.0],[112.651082,-7.261821,0.0],[112.652295,-7.261502,0.0],[112.652675,-7.259576,0.0],[112.652227,-7.257599,0.0],[112.654275,-7.255194,0.0],[112.655209,-7.251798,0.0]]}},{"id":"8","type":"Feature","properties":{"osm_id":35310900,"waterway":"stream","name":""},"geometry":{"type":"LineString","coordinates":[[112.736154,-7.286073,0.0],[112.733668,-7.280715,0.0],[112.734516,-7.280214,0.0],[112.73514,-7.276656,0.0],[112.742873,-7.278391,0.0],[112.744348,-7.277874,0.0]]}},{"id":"590","type":"Feature","properties":{"osm_id":990439328,"waterway":"river","name":""},"geometry":{"type":"LineString","coordinates":[[112.72625,-7.274908,0.0],[112.721914,-7.270755,0.0]]}},{"id":"649","type":"Feature","properties":{"osm_id":1137016371,"waterway":"stream","name":""},"geometry":{"type":"LineString","coordinates":[[112.723176,-7.271735,0.0],[112.723245,-7.271668,0.0]]}},{"id":"26","type":"Feature","properties":{"osm_id":156488773,"waterway":"stream","name":""},"geometry":{"type":"LineString","coordinates":[[112.723245,-7.271668,0.0],[112.72385,-7.270499,0.0],[112.722706,-7.268801,0.0],[112.723901,-7.267135,0.0],[112.725407,-7.259747,0.0]]}},{"id":"170","type":"Feature","properties":{"osm_id":458445216,"waterway":"stream","name":""},"geometry":{"type":"LineString","coordinates":[[112.726982,-7.26688,0.0],[112.727095,-7.266326,0.0],[112.725638,-7.26605,0.0],[112.726231,-7.265062,0.0],[112.725983,-7.264131,0.0]]}},{"id":"12","type":"Feature","properties":{"osm_id":35972444,"waterway":"river","name":""},"geometry":{"type":"LineString","coordinates":[[112.731182,-7.262943,0.0],[112.730407,-7.262773,0.0],[112.730926,-7.261546,0.0],[112.728718,-7.260068,0.0],[112.723999,-7.259801,0.0],[112.714874,-7.256216,0.0]]}},{"id":"140","type":"Feature","properties":{"osm_id":456494388,"waterway":"river","name":""},"geometry":{"type":"LineString","coordinates":[[112.722058,-7.254275,0.0],[112.720478,-7.254033,0.0]]}},{"id":"139","type":"Feature","properties":{"osm_id":456494387,"waterway":"river","name":""},"geometry":{"type":"LineString","coordinates":[[112.720478,-7.254033,0.0],[112.72022,-7.254004,0.0]]}},{"id":"661","type":"Feature","properties":{"osm_id":1193133589,"waterway":"river","name":""},"geometry":{"type":"LineString","coordinates":[[112.743481,-7.255974,0.0],[112.744477,-7.252348,0.0],[112.747542,-7.2468,0.0],[112.747346,-7.243578,0.0]]}},{"id":"147","type":"Feature","properties":{"osm_id":457105146,"waterway":"river","name":""},"geometry":{"type":"LineString","coordinates":[[112.729674,-7.2518,0.0],[112.728466,-7.251526,0.0],[112.726465,-7.248586,0.0],[112.727446,-7.245133,0.0]]}},{"id":"135","type":"Feature","properties":{"osm_id":455676938,"waterway":"stream","name":""},"geometry":{"type":"LineString","coordinates":[[112.704529,-7.268965,0.0],[112.705589,-7.266766,0.0]]}},{"id":"633","type":"Feature","properties":{"osm_id":1118463285,"waterway":"river","name":""},"geometry":{"type":"LineString","coordinates":[[112.702301,-7.267443,0.0],[112.702316,-7.267363,0.0]]}},{"id":"184","type":"Feature","properties":{"osm_id":459966845,"waterway":"river","name":""},"geometry":{"type":"LineString","coordinates":[[112.711475,-7.268016,0.0],[112.709875,-7.267906,0.0],[112.706802,-7.266272,0.0],[112.702586,-7.267399,0.0],[112.700287,-7.266307,0.0]]}},{"id":"185","type":"Feature","properties":{"osm_id":459966847,"waterway":"stream","name":""},"geometry":{"type":"LineString","coordinates":[[112.696648,-7.268872,0.0],[112.696092,-7.268827,0.0],[112.697198,-7.264946,0.0]]}},{"id":"632","type":"Feature","properties":{"osm_id":1118463283,"waterway":"river","name":""},"geometry":{"type":"LineString","coordinates":[[112.700287,-7.266307,0.0],[112.700048,-7.266191,0.0]]}},{"id":"631","type":"Feature","properties":{"osm_id":1118463282,"waterway":"stream","name":""},"geometry":{"type":"LineString","coordinates":[[112.697198,-7.264946,0.0],[112.697204,-7.264801,0.0]]}},{"id":"634","type":"Feature","properties":{"osm_id":1118463286,"waterway":"river","name":""},"geometry":{"type":"LineString","coordinates":[[112.700048,-7.266191,0.0],[112.69711,-7.264743,0.0],[112.695137,-7.262726,0.0]]}},{"id":"629","type":"Feature","properties":{"osm_id":1118463280,"waterway":"river","name":""},"geometry":{"type":"LineString","coordinates":[[112.695137,-7.262726,0.0],[112.694921,-7.262575,0.0]]}},{"id":"648","type":"Feature","properties":{"osm_id":1137016370,"waterway":"river","name":""},"geometry":{"type":"LineString","coordinates":[[112.711515,-7.267904,0.0],[112.713657,-7.255908,0.0],[112.714874,-7.256216,0.0]]}},{"id":"630","type":"Feature","properties":{"osm_id":1118463281,"waterway":"river","name":""},"geometry":{"type":"LineString","coordinates":[[112.694921,-7.262575,0.0],[112.692297,-7.260855,0.0]]}},{"id":"588","type":"Feature","properties":{"osm_id":990435940,"waterway":"river","name":""},"geometry":{"type":"LineString","coordinates":[[112.692297,-7.260855,0.0],[112.691948,-7.260761,0.0]]}},{"id":"587","type":"Feature","properties":{"osm_id":990435939,"waterway":"river","name":""},"geometry":{"type":"LineString","coordinates":[[112.691948,-7.260761,0.0],[112.689326,-7.260169,0.0]]}},{"id":"586","type":"Feature","properties":{"osm_id":990435938,"waterway":"river","name":""},"geometry":{"type":"LineString","coordinates":[[112.689326,-7.260169,0.0],[112.68912,-7.26004,0.0]]}},{"id":"589","type":"Feature","properties":{"osm_id":990435941,"waterway":"river","name":""},"geometry":{"type":"LineString","coordinates":[[112.68912,-7.26004,0.0],[112.681652,-7.258871,0.0]]}},{"id":"260","type":"Feature","properties":{"osm_id":561400053,"waterway":"river","name":""},"geometry":{"type":"LineString","coordinates":[[112.681652,-7.258871,0.0],[112.681276,-7.258857,0.0]]}},{"id":"259","type":"Feature","properties":{"osm_id":561400052,"waterway":"river","name":""},"geometry":{"type":"LineString","coordinates":[[112.681276,-7.258857,0.0],[112.680312,-7.258593,0.0]]}},{"id":"561","type":"Feature","properties":{"osm_id":807252597,"waterway":"river","name":""},"geometry":{"type":"LineString","coordinates":[[112.680568,-7.257336,0.0],[112.68062,-7.257174,0.0]]}},{"id":"559","type":"Feature","properties":{"osm_id":807252594,"waterway":"river","name":""},"geometry":{"type":"LineString","coordinates":[[112.68062,-7.257174,0.0],[112.680768,-7.256677,0.0]]}},{"id":"206","type":"Feature","properties":{"osm_id":465335032,"waterway":"river","name":""},"geometry":{"type":"LineString","coordinates":[[112.680768,-7.256677,0.0],[112.680865,-7.256369,0.0]]}},{"id":"194","type":"Feature","properties":{"osm_id":462036161,"waterway":"stream","name":""},"geometry":{"type":"LineString","coordinates":[[112.712245,-7.254038,0.0],[112.713719,-7.25586,0.0]]}},{"id":"94","type":"Feature","properties":{"osm_id":450287797,"waterway":"river","name":""},"geometry":{"type":"LineString","coordinates":[[112.772613,-7.300026,0.0],[112.772342,-7.300133,0.0]]}},{"id":"96","type":"Feature","properties":{"osm_id":450287799,"waterway":"river","name":""},"geometry":{"type":"LineString","coordinates":[[112.77261,-7.299747,0.0],[112.772613,-7.300026,0.0]]}},{"id":"93","type":"Feature","properties":{"osm_id":450287795,"waterway":"river","name":""},"geometry":{"type":"LineString","coordinates":[[112.772437,-7.29959,0.0],[112.77261,-7.299747,0.0]]}},{"id":"85","type":"Feature","properties":{"osm_id":448599551,"waterway":"river","name":"Kali Boma"},"geometry":{"type":"LineString","coordinates":[[112.754359,-7.303962,0.0],[112.757608,-7.291708,0.0],[112.757682,-7.28716,0.0]]}},{"id":"86","type":"Feature","properties":{"osm_id":449172486,"waterway":"river","name":""},"geometry":{"type":"LineString","coordinates":[[112.772185,-7.289672,0.0],[112.773119,-7.294618,0.0],[112.772437,-7.29959,0.0]]}},{"id":"91","type":"Feature","properties":{"osm_id":449836643,"waterway":"river","name":""},"geometry":{"type":"LineString","coordinates":[[112.770443,-7.29444,0.0],[112.773088,-7.294437,0.0]]}},{"id":"95","type":"Feature","properties":{"osm_id":450287798,"waterway":"river","name":""},"geometry":{"type":"LineString","coordinates":[[112.770048,-7.294428,0.0],[112.770443,-7.29444,0.0]]}},{"id":"92","type":"Feature","properties":{"osm_id":449836644,"waterway":"river","name":""},"geometry":{"type":"LineString","coordinates":[[112.764463,-7.293909,0.0],[112.770048,-7.294428,0.0]]}},{"id":"81","type":"Feature","properties":{"osm_id":448467888,"waterway":"river","name":""},"geometry":{"type":"LineString","coordinates":[[112.763241,-7.288057,0.0],[112.762103,-7.299371,0.0],[112.772342,-7.300133,0.0]]}},{"id":"87","type":"Feature","properties":{"osm_id":449172487,"waterway":"river","name":""},"geometry":{"type":"LineString","coordinates":[[112.772698,-7.292466,0.0],[112.774488,-7.292451,0.0]]}},{"id":"57","type":"Feature","properties":{"osm_id":447150728,"waterway":"river","name":""},"geometry":{"type":"LineString","coordinates":[[112.772433,-7.289432,0.0],[112.773648,-7.289513,0.0]]}},{"id":"78","type":"Feature","properties":{"osm_id":448426555,"waterway":"river","name":""},"geometry":{"type":"LineString","coordinates":[[112.769088,-7.289369,0.0],[112.772433,-7.289432,0.0]]}},{"id":"52","type":"Feature","properties":{"osm_id":376493078,"waterway":"river","name":""},"geometry":{"type":"LineString","coordinates":[[112.763267,-7.287579,0.0],[112.769088,-7.289369,0.0]]}},{"id":"255","type":"Feature","properties":{"osm_id":561151085,"waterway":"river","name":""},"geometry":{"type":"LineString","coordinates":[[112.763267,-7.287965,0.0],[112.763241,-7.288057,0.0]]}},{"id":"62","type":"Feature","properties":{"osm_id":448074963,"waterway":"river","name":""},"geometry":{"type":"LineString","coordinates":[[112.773484,-7.286169,0.0],[112.77248,-7.289453,0.0]]}},{"id":"256","type":"Feature","properties":{"osm_id":561151086,"waterway":"river","name":""},"geometry":{"type":"LineString","coordinates":[[112.763366,-7.287624,0.0],[112.763267,-7.287965,0.0]]}},{"id":"50","type":"Feature","properties":{"osm_id":319645345,"waterway":"river","name":""},"geometry":{"type":"LineString","coordinates":[[112.746163,-7.286683,0.0],[112.749129,-7.287409,0.0],[112.755328,-7.286943,0.0],[112.763267,-7.287579,0.0]]}},{"id":"158","type":"Feature","properties":{"osm_id":457148605,"waterway":"river","name":""},"geometry":{"type":"LineString","coordinates":[[112.762621,-7.285042,0.0],[112.763267,-7.287579,0.0]]}},{"id":"79","type":"Feature","properties":{"osm_id":448447622,"waterway":"river","name":""},"geometry":{"type":"LineString","coordinates":[[112.770659,-7.289585,0.0],[112.771828,-7.282877,0.0]]}},{"id":"241","type":"Feature","properties":{"osm_id":474550711,"waterway":"river","name":""},"geometry":{"type":"LineString","coordinates":[[112.761488,-7.276698,0.0],[112.762505,-7.276707,0.0]]}},{"id":"156","type":"Feature","properties":{"osm_id":457109702,"waterway":"river","name":""},"geometry":{"type":"LineString","coordinates":[[112.797674,-7.289971,0.0],[112.798209,-7.289946,0.0]]}},{"id":"155","type":"Feature","properties":{"osm_id":457109701,"waterway":"river","name":""},"geometry":{"type":"LineString","coordinates":[[112.798263,-7.289948,0.0],[112.79845,-7.289959,0.0]]}},{"id":"152","type":"Feature","properties":{"osm_id":457109698,"waterway":"river","name":""},"geometry":{"type":"LineString","coordinates":[[112.798209,-7.289946,0.0],[112.798263,-7.289948,0.0]]}},{"id":"149","type":"Feature","properties":{"osm_id":457109695,"waterway":"river","name":""},"geometry":{"type":"LineString","coordinates":[[112.79845,-7.289959,0.0],[112.798603,-7.289868,0.0]]}},{"id":"41","type":"Feature","properties":{"osm_id":307111283,"waterway":"river","name":"Kali Keputih"},"geometry":{"type":"LineString","coordinates":[[112.793087,-7.290469,0.0],[112.796476,-7.290081,0.0],[112.797423,-7.289418,0.0],[112.797936,-7.28719,0.0],[112.800303,-7.287089,0.0]]}},{"id":"674","type":"Feature","properties":{"osm_id":1372017700,"waterway":"river","name":""},"geometry":{"type":"LineString","coordinates":[[112.841449,-7.28723,0.0],[112.846218,-7.285893,0.0]]}},{"id":"250","type":"Feature","properties":{"osm_id":544121909,"waterway":"river","name":""},"geometry":{"type":"LineString","coordinates":[[112.799682,-7.285176,0.0],[112.795458,-7.285886,0.0]]}},{"id":"114","type":"Feature","properties":{"osm_id":455228272,"waterway":"river","name":""},"geometry":{"type":"LineString","coordinates":[[112.809183,-7.282038,0.0],[112.809312,-7.28222,0.0]]}},{"id":"675","type":"Feature","properties":{"osm_id":1372017701,"waterway":"river","name":""},"geometry":{"type":"LineString","coordinates":[[112.841449,-7.28723,0.0],[112.841545,-7.275951,0.0]]}},{"id":"677","type":"Feature","properties":{"osm_id":1372030132,"waterway":"river","name":""},"geometry":{"type":"LineString","coordinates":[[112.831368,-7.283553,0.0],[112.833233,-7.280853,0.0],[112.836715,-7.277805,0.0]]}},{"id":"56","type":"Feature","properties":{"osm_id":447130161,"waterway":"river","name":""},"geometry":{"type":"LineString","coordinates":[[112.807196,-7.278155,0.0],[112.809183,-7.282038,0.0]]}},{"id":"54","type":"Feature","properties":{"osm_id":446964292,"waterway":"river","name":""},"geometry":{"type":"LineString","coordinates":[[112.800293,-7.285085,0.0],[112.801392,-7.280897,0.0],[112.798877,-7.274156,0.0]]}},{"id":"22","type":"Feature","properties":{"osm_id":138719484,"waterway":"river","name":""},"geometry":{"type":"LineString","coordinates":[[112.798603,-7.289868,0.0],[112.800303,-7.287089,0.0],[112.801858,-7.287181,0.0],[112.802177,-7.284981,0.0],[112.803797,-7.285167,0.0],[112.806384,-7.284367,0.0],[112.811889,-7.28093,0.0],[112.816712,-7.273547,0.0],[112.818654,-7.272127,0.0],[112.831813,-7.268371,0.0],[112.836987,-7.267475,0.0]]}},{"id":"642","type":"Feature","properties":{"osm_id":1121481230,"waterway":"river","name":""},"geometry":{"type":"LineString","coordinates":[[112.808756,-7.277496,0.0],[112.812318,-7.275388,0.0]]}},{"id":"663","type":"Feature","properties":{"osm_id":1231068716,"waterway":"river","name":""},"geometry":{"type":"LineString","coordinates":[[112.836715,-7.277805,0.0],[112.839719,-7.274782,0.0]]}},{"id":"58","type":"Feature","properties":{"osm_id":447342845,"waterway":"river","name":""},"geometry":{"type":"LineString","coordinates":[[112.812318,-7.275388,0.0],[112.812402,-7.274959,0.0]]}},{"id":"678","type":"Feature","properties":{"osm_id":1372030150,"waterway":"river","name":""},"geometry":{"type":"LineString","coordinates":[[112.832898,-7.281272,0.0],[112.82988,-7.269066,0.0]]}},{"id":"643","type":"Feature","properties":{"osm_id":1121481231,"waterway":"river","name":""},"geometry":{"type":"LineString","coordinates":[[112.812402,-7.274959,0.0],[112.812072,-7.273088,0.0]]}},{"id":"527","type":"Feature","properties":{"osm_id":677591250,"waterway":"river","name":""},"geometry":{"type":"LineString","coordinates":[[112.812072,-7.273088,0.0],[112.811516,-7.272509,0.0]]}},{"id":"526","type":"Feature","properties":{"osm_id":677591249,"waterway":"river","name":""},"geometry":{"type":"LineString","coordinates":[[112.811516,-7.272509,0.0],[112.811446,-7.272411,0.0]]}},{"id":"42","type":"Feature","properties":{"osm_id":307174711,"waterway":"river","name":"Kali Keputih"},"geometry":{"type":"LineString","coordinates":[[112.790546,-7.290635,0.0],[112.796802,-7.290249,0.0]]}},{"id":"239","type":"Feature","properties":{"osm_id":474279539,"waterway":"river","name":"Kali Keputih"},"geometry":{"type":"LineString","coordinates":[[112.791963,-7.290388,0.0],[112.792192,-7.290426,0.0]]}},{"id":"69","type":"Feature","properties":{"osm_id":448097636,"waterway":"river","name":""},"geometry":{"type":"LineString","coordinates":[[112.774098,-7.289559,0.0],[112.782733,-7.289601,0.0],[112.790546,-7.290635,0.0]]}},{"id":"77","type":"Feature","properties":{"osm_id":448426554,"waterway":"river","name":""},"geometry":{"type":"LineString","coordinates":[[112.773648,-7.289513,0.0],[112.774098,-7.289559,0.0]]}},{"id":"161","type":"Feature","properties":{"osm_id":457816221,"waterway":"river","name":"Kali Keputih"},"geometry":{"type":"LineString","coordinates":[[112.789702,-7.288405,0.0],[112.789568,-7.290166,0.0],[112.791963,-7.290388,0.0]]}},{"id":"67","type":"Feature","properties":{"osm_id":448092187,"waterway":"river","name":""},"geometry":{"type":"LineString","coordinates":[[112.786208,-7.287559,0.0],[112.789658,-7.287545,0.0]]}},{"id":"251","type":"Feature","properties":{"osm_id":544121912,"waterway":"river","name":""},"geometry":{"type":"LineString","coordinates":[[112.794577,-7.285652,0.0],[112.789658,-7.287545,0.0]]}},{"id":"579","type":"Feature","properties":{"osm_id":822523621,"waterway":"stream","name":""},"geometry":{"type":"LineString","coordinates":[[112.782863,-7.263348,0.0],[112.783274,-7.263307,0.0]]}},{"id":"578","type":"Feature","properties":{"osm_id":822523620,"waterway":"stream","name":""},"geometry":{"type":"LineString","coordinates":[[112.783274,-7.263307,0.0],[112.791831,-7.260111,0.0],[112.795522,-7.257999,0.0],[112.79761,-7.257986,0.0]]}},{"id":"237","type":"Feature","properties":{"osm_id":474007835,"waterway":"stream","name":""},"geometry":{"type":"LineString","coordinates":[[112.79497,-7.258284,0.0],[112.792779,-7.257257,0.0],[112.790939,-7.25755,0.0],[112.790206,-7.257064,0.0]]}},{"id":"243","type":"Feature","properties":{"osm_id":475190704,"waterway":"river","name":"Kali Mas"},"geometry":{"type":"LineString","coordinates":[[112.744348,-7.277874,0.0],[112.743708,-7.275125,0.0],[112.744681,-7.272721,0.0],[112.750198,-7.267059,0.0]]}},{"id":"242","type":"Feature","properties":{"osm_id":475190699,"waterway":"stream","name":""},"geometry":{"type":"LineString","coordinates":[[112.752695,-7.268126,0.0],[112.75447,-7.269029,0.0]]}},{"id":"21","type":"Feature","properties":{"osm_id":137851113,"waterway":"stream","name":""},"geometry":{"type":"LineString","coordinates":[[112.749685,-7.267906,0.0],[112.752179,-7.267634,0.0],[112.752695,-7.268126,0.0]]}},{"id":"240","type":"Feature","properties":{"osm_id":474550706,"waterway":"stream","name":""},"geometry":{"type":"LineString","coordinates":[[112.75447,-7.269029,0.0],[112.755118,-7.26867,0.0],[112.755291,-7.266853,0.0],[112.756496,-7.265662,0.0]]}},{"id":"61","type":"Feature","properties":{"osm_id":447632039,"waterway":"river","name":"Kali Mas"},"geometry":{"type":"LineString","coordinates":[[112.750198,-7.267059,0.0],[112.750696,-7.264635,0.0]]}},{"id":"10","type":"Feature","properties":{"osm_id":35451103,"waterway":"stream","name":""},"geometry":{"type":"LineString","coordinates":[[112.759144,-7.260251,0.0],[112.760609,-7.261451,0.0],[112.764274,-7.262865,0.0],[112.779763,-7.264572,0.0],[112.782863,-7.263348,0.0]]}},{"id":"683","type":"Feature","properties":{"osm_id":1379015355,"waterway":"stream","name":""},"geometry":{"type":"LineString","coordinates":[[112.756496,-7.265662,0.0],[112.758634,-7.260647,0.0],[112.760133,-7.259316,0.0],[112.762363,-7.258514,0.0]]}},{"id":"202","type":"Feature","properties":{"osm_id":464050511,"waterway":"stream","name":""},"geometry":{"type":"LineString","coordinates":[[112.764805,-7.262458,0.0],[112.765987,-7.258891,0.0]]}},{"id":"60","type":"Feature","properties":{"osm_id":447632038,"waterway":"river","name":"Ketabang Kali"},"geometry":{"type":"LineString","coordinates":[[112.750696,-7.264635,0.0],[112.749914,-7.262887,0.0],[112.748698,-7.26192,0.0],[112.744604,-7.262707,0.0],[112.742732,-7.26188,0.0],[112.742426,-7.260278,0.0],[112.744034,-7.257625,0.0],[112.743481,-7.255974,0.0]]}},{"id":"19","type":"Feature","properties":{"osm_id":125578790,"waterway":"stream","name":""},"geometry":{"type":"LineString","coordinates":[[112.75943,-7.248065,0.0],[112.768266,-7.250182,0.0]]}},{"id":"18","type":"Feature","properties":{"osm_id":125578770,"waterway":"river","name":""},"geometry":{"type":"LineString","coordinates":[[112.762505,-7.276707,0.0],[112.77671,-7.277792,0.0],[112.783853,-7.276974,0.0],[112.797634,-7.274154,0.0],[112.809278,-7.27357,0.0],[112.816423,-7.269277,0.0],[112.830921,-7.262038,0.0],[112.83164,-7.261113,0.0],[112.831585,-7.258754,0.0]]}},{"id":"55","type":"Feature","properties":{"osm_id":447128156,"waterway":"canal","name":""},"geometry":{"type":"LineString","coordinates":[[112.805447,-7.274023,0.0],[112.802401,-7.260078,0.0]]}},{"id":"212","type":"Feature","properties":{"osm_id":466551699,"waterway":"stream","name":""},"geometry":{"type":"LineString","coordinates":[[112.79761,-7.257986,0.0],[112.797863,-7.258106,0.0]]}},{"id":"672","type":"Feature","properties":{"osm_id":1370494830,"waterway":"river","name":""},"geometry":{"type":"LineString","coordinates":[[112.821746,-7.25935,0.0],[112.823676,-7.256232,0.0]]}},{"id":"211","type":"Feature","properties":{"osm_id":466551683,"waterway":"stream","name":""},"geometry":{"type":"LineString","coordinates":[[112.797863,-7.258106,0.0],[112.801452,-7.26,0.0],[112.804525,-7.260196,0.0],[112.810784,-7.257448,0.0],[112.810136,-7.254767,0.0],[112.81065,-7.25343,0.0]]}},{"id":"266","type":"Feature","properties":{"osm_id":576583336,"waterway":"river","name":""},"geometry":{"type":"LineString","coordinates":[[112.795207,-7.252851,0.0],[112.795619,-7.252726,0.0]]}},{"id":"673","type":"Feature","properties":{"osm_id":1370494831,"waterway":"river","name":""},"geometry":{"type":"LineString","coordinates":[[112.816067,-7.257551,0.0],[112.816716,-7.258824,0.0],[112.817048,-7.253139,0.0],[112.816104,-7.252155,0.0],[112.815866,-7.249732,0.0]]}},{"id":"76","type":"Feature","properties":{"osm_id":448278267,"waterway":"river","name":""},"geometry":{"type":"LineString","coordinates":[[112.802278,-7.25231,0.0],[112.798867,-7.251392,0.0]]}},{"id":"88","type":"Feature","properties":{"osm_id":449175881,"waterway":"river","name":""},"geometry":{"type":"LineString","coordinates":[[112.798867,-7.251392,0.0],[112.798772,-7.251366,0.0]]}},{"id":"89","type":"Feature","properties":{"osm_id":449175882,"waterway":"river","name":""},"geometry":{"type":"LineString","coordinates":[[112.798772,-7.251366,0.0],[112.797771,-7.251101,0.0]]}},{"id":"575","type":"Feature","properties":{"osm_id":822494400,"waterway":"stream","name":""},"geometry":{"type":"LineString","coordinates":[[112.790206,-7.257064,0.0],[112.790074,-7.257055,0.0]]}},{"id":"574","type":"Feature","properties":{"osm_id":822494399,"waterway":"stream","name":""},"geometry":{"type":"LineString","coordinates":[[112.790074,-7.257055,0.0],[112.788989,-7.256952,0.0]]}},{"id":"576","type":"Feature","properties":{"osm_id":822494401,"waterway":"stream","name":""},"geometry":{"type":"LineString","coordinates":[[112.788989,-7.256952,0.0],[112.788775,-7.25693,0.0]]}},{"id":"577","type":"Feature","properties":{"osm_id":822494402,"waterway":"stream","name":""},"geometry":{"type":"LineString","coordinates":[[112.788775,-7.25693,0.0],[112.785684,-7.256618,0.0]]}},{"id":"208","type":"Feature","properties":{"osm_id":466326194,"waterway":"river","name":""},"geometry":{"type":"LineString","coordinates":[[112.778261,-7.25756,0.0],[112.780972,-7.25519,0.0]]}},{"id":"235","type":"Feature","properties":{"osm_id":470930818,"waterway":"river","name":""},"geometry":{"type":"LineString","coordinates":[[112.777448,-7.25444,0.0],[112.777676,-7.254503,0.0]]}},{"id":"583","type":"Feature","properties":{"osm_id":894310974,"waterway":"river","name":""},"geometry":{"type":"LineString","coordinates":[[112.777414,-7.254431,0.0],[112.777448,-7.25444,0.0]]}},{"id":"82","type":"Feature","properties":{"osm_id":448477772,"waterway":"river","name":""},"geometry":{"type":"LineString","coordinates":[[112.777676,-7.254503,0.0],[112.780972,-7.25519,0.0],[112.783415,-7.254965,0.0],[112.784554,-7.254526,0.0],[112.784943,-7.252532,0.0],[112.786421,-7.25333,0.0],[112.787205,-7.252041,0.0]]}},{"id":"265","type":"Feature","properties":{"osm_id":576583335,"waterway":"river","name":""},"geometry":{"type":"LineString","coordinates":[[112.795339,-7.252875,0.0],[112.795375,-7.25272,0.0]]}},{"id":"267","type":"Feature","properties":{"osm_id":576583337,"waterway":"river","name":""},"geometry":{"type":"LineString","coordinates":[[112.793878,-7.252501,0.0],[112.795207,-7.252851,0.0]]}},{"id":"71","type":"Feature","properties":{"osm_id":448172451,"waterway":"river","name":""},"geometry":{"type":"LineString","coordinates":[[112.795619,-7.252726,0.0],[112.796948,-7.248034,0.0]]}},{"id":"72","type":"Feature","properties":{"osm_id":448172452,"waterway":"river","name":""},"geometry":{"type":"LineString","coordinates":[[112.796362,-7.248728,0.0],[112.796821,-7.248746,0.0]]}},{"id":"70","type":"Feature","properties":{"osm_id":448172450,"waterway":"river","name":""},"geometry":{"type":"LineString","coordinates":[[112.795375,-7.25272,0.0],[112.796534,-7.249165,0.0],[112.796109,-7.247961,0.0],[112.797061,-7.246035,0.0],[112.796077,-7.245164,0.0],[112.796793,-7.243866,0.0],[112.796451,-7.24224,0.0]]}},{"id":"75","type":"Feature","properties":{"osm_id":448270091,"waterway":"river","name":""},"geometry":{"type":"LineString","coordinates":[[112.796948,-7.248034,0.0],[112.798223,-7.245445,0.0],[112.798072,-7.242688,0.0]]}},{"id":"215","type":"Feature","properties":{"osm_id":467120202,"waterway":"river","name":""},"geometry":{"type":"LineString","coordinates":[[112.798051,-7.242558,0.0],[112.798072,-7.242688,0.0]]}},{"id":"216","type":"Feature","properties":{"osm_id":467120203,"waterway":"river","name":""},"geometry":{"type":"LineString","coordinates":[[112.798038,-7.24248,0.0],[112.798051,-7.242558,0.0]]}},{"id":"220","type":"Feature","properties":{"osm_id":467120207,"waterway":"river","name":""},"geometry":{"type":"LineString","coordinates":[[112.798022,-7.242308,0.0],[112.798038,-7.24248,0.0]]}},{"id":"221","type":"Feature","properties":{"osm_id":467120208,"waterway":"river","name":""},"geometry":{"type":"LineString","coordinates":[[112.798011,-7.24209,0.0],[112.798022,-7.242308,0.0]]}},{"id":"219","type":"Feature","properties":{"osm_id":467120206,"waterway":"river","name":""},"geometry":{"type":"LineString","coordinates":[[112.798,-7.242022,0.0],[112.798011,-7.24209,0.0]]}},{"id":"210","type":"Feature","properties":{"osm_id":466326228,"waterway":"river","name":""},"geometry":{"type":"LineString","coordinates":[[112.787205,-7.252041,0.0],[112.787239,-7.251883,0.0]]}},{"id":"236","type":"Feature","properties":{"osm_id":470930819,"waterway":"river","name":""},"geometry":{"type":"LineString","coordinates":[[112.780198,-7.248591,0.0],[112.777414,-7.254431,0.0]]}},{"id":"209","type":"Feature","properties":{"osm_id":466326227,"waterway":"river","name":""},"geometry":{"type":"LineString","coordinates":[[112.787239,-7.251883,0.0],[112.787476,-7.250847,0.0]]}},{"id":"565","type":"Feature","properties":{"osm_id":818310448,"waterway":"river","name":""},"geometry":{"type":"LineString","coordinates":[[112.787476,-7.250847,0.0],[112.78751,-7.25072,0.0]]}},{"id":"564","type":"Feature","properties":{"osm_id":818310447,"waterway":"river","name":""},"geometry":{"type":"LineString","coordinates":[[112.78751,-7.25072,0.0],[112.787514,-7.250702,0.0]]}},{"id":"668","type":"Feature","properties":{"osm_id":1333972520,"waterway":"river","name":""},"geometry":{"type":"LineString","coordinates":[[112.780198,-7.248591,0.0],[112.793878,-7.252501,0.0]]}},{"id":"73","type":"Feature","properties":{"osm_id":448178982,"waterway":"river","name":""},"geometry":{"type":"LineString","coordinates":[[112.783223,-7.244255,0.0],[112.787648,-7.245615,0.0],[112.789099,-7.24061,0.0]]}},{"id":"84","type":"Feature","properties":{"osm_id":448586238,"waterway":"river","name":""},"geometry":{"type":"LineString","coordinates":[[112.793868,-7.241146,0.0],[112.795879,-7.241281,0.0],[112.796451,-7.24224,0.0]]}},{"id":"654","type":"Feature","properties":{"osm_id":1137742659,"waterway":"stream","name":""},"geometry":{"type":"LineString","coordinates":[[112.774868,-7.236943,0.0],[112.774816,-7.23696,0.0]]}},{"id":"653","type":"Feature","properties":{"osm_id":1137742658,"waterway":"stream","name":""},"geometry":{"type":"LineString","coordinates":[[112.774816,-7.23696,0.0],[112.7745,-7.236878,0.0]]}},{"id":"528","type":"Feature","properties":{"osm_id":679136401,"waterway":"canal","name":""},"geometry":{"type":"LineString","coordinates":[[112.612114,-7.232827,0.0],[112.600707,-7.22159,0.0]]}},{"id":"560","type":"Feature","properties":{"osm_id":807252595,"waterway":"river","name":""},"geometry":{"type":"LineString","coordinates":[[112.68048,-7.257627,0.0],[112.680568,-7.257336,0.0]]}},{"id":"39","type":"Feature","properties":{"osm_id":229871705,"waterway":"river","name":""},"geometry":{"type":"LineString","coordinates":[[112.670486,-7.28397,0.0],[112.669727,-7.282612,0.0],[112.67054,-7.281322,0.0],[112.669285,-7.281131,0.0],[112.670157,-7.279993,0.0],[112.670462,-7.27654,0.0],[112.669414,-7.27607,0.0],[112.669944,-7.274415,0.0],[112.669308,-7.27393,0.0],[112.670368,-7.27162,0.0],[112.670221,-7.270184,0.0],[112.671374,-7.269906,0.0],[112.671339,-7.268195,0.0],[112.67076,-7.267719,0.0],[112.671748,-7.266382,0.0],[112.673096,-7.266688,0.0],[112.674356,-7.264791,0.0],[112.676384,-7.263781,0.0],[112.677163,-7.258016,0.0],[112.677856,-7.25685,0.0],[112.677601,-7.255087,0.0],[112.678801,-7.25208,0.0],[112.675468,-7.250715,0.0],[112.675424,-7.249739,0.0],[112.674574,-7.24912,0.0],[112.673823,-7.245173,0.0],[112.675231,-7.241185,0.0],[112.675221,-7.23613,0.0],[112.677251,-7.234498,0.0],[112.676159,-7.232932,0.0],[112.678241,-7.231981,0.0],[112.6769,-7.225856,0.0],[112.677225,-7.223683,0.0]]}},{"id":"183","type":"Feature","properties":{"osm_id":459681146,"waterway":"river","name":""},"geometry":{"type":"LineString","coordinates":[[112.680865,-7.256369,0.0],[112.682078,-7.25165,0.0],[112.682765,-7.229934,0.0],[112.677618,-7.229929,0.0]]}},{"id":"669","type":"Feature","properties":{"osm_id":1333973420,"waterway":"stream","name":""},"geometry":{"type":"LineString","coordinates":[[112.645995,-7.237368,0.0],[112.644139,-7.236695,0.0]]}},{"id":"175","type":"Feature","properties":{"osm_id":459486353,"waterway":"stream","name":""},"geometry":{"type":"LineString","coordinates":[[112.645995,-7.237368,0.0],[112.646433,-7.235748,0.0],[112.645338,-7.235301,0.0]]}},{"id":"174","type":"Feature","properties":{"osm_id":459486352,"waterway":"stream","name":""},"geometry":{"type":"LineString","coordinates":[[112.649273,-7.236173,0.0],[112.646383,-7.235937,0.0]]}},{"id":"172","type":"Feature","properties":{"osm_id":459486350,"waterway":"stream","name":""},"geometry":{"type":"LineString","coordinates":[[112.647581,-7.237222,0.0],[112.648026,-7.234883,0.0]]}},{"id":"11","type":"Feature","properties":{"osm_id":35680068,"waterway":"river","name":""},"geometry":{"type":"LineString","coordinates":[[112.655209,-7.251798,0.0],[112.654565,-7.241734,0.0],[112.657724,-7.238839,0.0],[112.659338,-7.239265,0.0],[112.659904,-7.237332,0.0],[112.660814,-7.237477,0.0],[112.660565,-7.235936,0.0],[112.66259,-7.23597,0.0],[112.662968,-7.234658,0.0],[112.66223,-7.233415,0.0],[112.662736,-7.231542,0.0],[112.66132,-7.229788,0.0],[112.661397,-7.228553,0.0],[112.663552,-7.227574,0.0],[112.664058,-7.222405,0.0],[112.66629,-7.222661,0.0],[112.668521,-7.220086,0.0]]}},{"id":"670","type":"Feature","properties":{"osm_id":1333973421,"waterway":"stream","name":""},"geometry":{"type":"LineString","coordinates":[[112.644139,-7.236695,0.0],[112.6449,-7.233962,0.0]]}},{"id":"178","type":"Feature","properties":{"osm_id":459487201,"waterway":"stream","name":""},"geometry":{"type":"LineString","coordinates":[[112.644139,-7.236695,0.0],[112.643189,-7.23632,0.0],[112.643557,-7.233898,0.0],[112.6449,-7.233962,0.0]]}},{"id":"660","type":"Feature","properties":{"osm_id":1137744407,"waterway":"stream","name":""},"geometry":{"type":"LineString","coordinates":[[112.72022,-7.254004,0.0],[112.718329,-7.253848,0.0]]}},{"id":"659","type":"Feature","properties":{"osm_id":1137744406,"waterway":"stream","name":""},"geometry":{"type":"LineString","coordinates":[[112.718329,-7.253848,0.0],[112.718293,-7.253845,0.0]]}},{"id":"658","type":"Feature","properties":{"osm_id":1137744405,"waterway":"stream","name":""},"geometry":{"type":"LineString","coordinates":[[112.718293,-7.253845,0.0],[112.717606,-7.253786,0.0]]}},{"id":"657","type":"Feature","properties":{"osm_id":1137744404,"waterway":"stream","name":""},"geometry":{"type":"LineString","coordinates":[[112.717606,-7.253786,0.0],[112.717574,-7.253782,0.0]]}},{"id":"109","type":"Feature","properties":{"osm_id":454837616,"waterway":"stream","name":""},"geometry":{"type":"LineString","coordinates":[[112.717574,-7.253782,0.0],[112.716509,-7.253719,0.0]]}},{"id":"2","type":"Feature","properties":{"osm_id":24564244,"waterway":"river","name":""},"geometry":{"type":"LineString","coordinates":[[112.714874,-7.256216,0.0],[112.715902,-7.251788,0.0],[112.715697,-7.250084,0.0],[112.717781,-7.245837,0.0],[112.717133,-7.243144,0.0],[112.714597,-7.239306,0.0],[112.715357,-7.236117,0.0]]}},{"id":"121","type":"Feature","properties":{"osm_id":455595613,"waterway":"river","name":""},"geometry":{"type":"LineString","coordinates":[[112.71282,-7.240602,0.0],[112.711173,-7.239987,0.0],[112.710536,-7.240705,0.0]]}},{"id":"23","type":"Feature","properties":{"osm_id":138885470,"waterway":"stream","name":""},"geometry":{"type":"LineString","coordinates":[[112.693277,-7.241176,0.0],[112.691811,-7.237537,0.0],[112.692333,-7.236381,0.0],[112.694007,-7.235644,0.0],[112.696303,-7.237995,0.0],[112.698185,-7.236833,0.0],[112.696745,-7.234349,0.0],[112.694663,-7.234176,0.0],[112.69635,-7.230344,0.0],[112.695159,-7.229912,0.0],[112.693766,-7.230483,0.0],[112.692989,-7.233658,0.0],[112.690512,-7.233618,0.0],[112.689475,-7.232615,0.0],[112.689207,-7.231154,0.0],[112.686589,-7.230331,0.0],[112.685042,-7.228937,0.0],[112.685864,-7.225398,0.0]]}},{"id":"24","type":"Feature","properties":{"osm_id":138888538,"waterway":"river","name":""},"geometry":{"type":"LineString","coordinates":[[112.710536,-7.240705,0.0],[112.710055,-7.240704,0.0],[112.709114,-7.237586,0.0],[112.71114,-7.237973,0.0],[112.711112,-7.235913,0.0],[112.708253,-7.236633,0.0],[112.707894,-7.235995,0.0],[112.708514,-7.23326,0.0],[112.710337,-7.232067,0.0],[112.709348,-7.230644,0.0],[112.707165,-7.230564,0.0],[112.707017,-7.227577,0.0],[112.705985,-7.226281,0.0],[112.706298,-7.223906,0.0]]}},{"id":"122","type":"Feature","properties":{"osm_id":455600565,"waterway":"river","name":""},"geometry":{"type":"LineString","coordinates":[[112.727446,-7.245133,0.0],[112.726522,-7.244358,0.0],[112.717133,-7.243144,0.0]]}},{"id":"1","type":"Feature","properties":{"osm_id":24564116,"waterway":"stream","name":""},"geometry":{"type":"LineString","coordinates":[[112.728365,-7.243137,0.0],[112.724715,-7.242518,0.0],[112.724583,-7.241103,0.0],[112.716201,-7.241692,0.0]]}},{"id":"113","type":"Feature","properties":{"osm_id":455014253,"waterway":"stream","name":""},"geometry":{"type":"LineString","coordinates":[[112.727441,-7.240851,0.0],[112.728821,-7.242292,0.0],[112.730481,-7.242892,0.0]]}},{"id":"157","type":"Feature","properties":{"osm_id":457123404,"waterway":"river","name":""},"geometry":{"type":"LineString","coordinates":[[112.727441,-7.240852,0.0],[112.726991,-7.237875,0.0]]}},{"id":"25","type":"Feature","properties":{"osm_id":156488741,"waterway":"river","name":""},"geometry":{"type":"LineString","coordinates":[[112.726991,-7.237875,0.0],[112.719847,-7.235899,0.0]]}},{"id":"14","type":"Feature","properties":{"osm_id":36978014,"waterway":"river","name":""},"geometry":{"type":"LineString","coordinates":[[112.74735,-7.243399,0.0],[112.74586,-7.241682,0.0],[112.742882,-7.234232,0.0],[112.745525,-7.230111,0.0],[112.745743,-7.228004,0.0]]}},{"id":"562","type":"Feature","properties":{"osm_id":816460458,"waterway":"river","name":""},"geometry":{"type":"LineString","coordinates":[[112.745743,-7.228004,0.0],[112.745774,-7.227863,0.0]]}},{"id":"0","type":"Feature","properties":{"osm_id":24400892,"waterway":"river","name":"Kali Mas"},"geometry":{"type":"LineString","coordinates":[[112.743481,-7.255974,0.0],[112.738254,-7.255582,0.0],[112.737225,-7.252551,0.0],[112.737782,-7.251376,0.0],[112.741645,-7.248873,0.0],[112.743104,-7.24528,0.0],[112.742417,-7.243841,0.0],[112.739585,-7.243066,0.0],[112.737862,-7.238993,0.0],[112.738872,-7.234332,0.0],[112.738274,-7.231926,0.0],[112.737751,-7.211243,0.0],[112.736945,-7.206881,0.0]]}},{"id":"103","type":"Feature","properties":{"osm_id":453883467,"waterway":"river","name":""},"geometry":{"type":"LineString","coordinates":[[112.721207,-7.226187,0.0],[112.719949,-7.222225,0.0]]}},{"id":"171","type":"Feature","properties":{"osm_id":459486349,"waterway":"stream","name":""},"geometry":{"type":"LineString","coordinates":[[112.649313,-7.236121,0.0],[112.648889,-7.234854,0.0],[112.646816,-7.234396,0.0]]}},{"id":"671","type":"Feature","properties":{"osm_id":1333973422,"waterway":"stream","name":""},"geometry":{"type":"LineString","coordinates":[[112.646433,-7.235748,0.0],[112.646816,-7.234396,0.0]]}},{"id":"179","type":"Feature","properties":{"osm_id":459487202,"waterway":"stream","name":""},"geometry":{"type":"LineString","coordinates":[[112.644584,-7.235119,0.0],[112.643364,-7.234856,0.0]]}},{"id":"173","type":"Feature","properties":{"osm_id":459486351,"waterway":"stream","name":""},"geometry":{"type":"LineString","coordinates":[[112.646816,-7.234396,0.0],[112.6449,-7.233962,0.0]]}},{"id":"177","type":"Feature","properties":{"osm_id":459486451,"waterway":"stream","name":""},"geometry":{"type":"LineString","coordinates":[[112.648391,-7.233009,0.0],[112.64559,-7.232624,0.0],[112.644777,-7.233856,0.0],[112.648224,-7.234861,0.0],[112.650587,-7.234281,0.0]]}},{"id":"176","type":"Feature","properties":{"osm_id":459486450,"waterway":"stream","name":""},"geometry":{"type":"LineString","coordinates":[[112.644689,-7.233832,0.0],[112.646221,-7.231591,0.0]]}},{"id":"159","type":"Feature","properties":{"osm_id":457151950,"waterway":"river","name":""},"geometry":{"type":"LineString","coordinates":[[112.632928,-7.23468,0.0],[112.635622,-7.235219,0.0],[112.637118,-7.233984,0.0],[112.640252,-7.229198,0.0],[112.640241,-7.227727,0.0],[112.642337,-7.223776,0.0],[112.643725,-7.223419,0.0],[112.643658,-7.220951,0.0]]}},{"id":"582","type":"Feature","properties":{"osm_id":855225802,"waterway":"river","name":"Kali Lamong"},"geometry":{"type":"MultiLineString","coordinates":[[[112.591313,-7.220232,0.0],[112.591435,-7.220194,0.0],[112.592214,-7.219572,0.0],[112.591924,-7.217602,0.0],[112.592634,-7.216356,0.0]],[[112.59929,-7.213341,0.0],[112.599315,-7.213379,0.0],[112.600637,-7.213343,0.0],[112.600628,-7.212977,0.0]],[[112.600617,-7.21251,0.0],[112.600556,-7.210023,0.0],[112.598613,-7.207186,0.0],[112.596191,-7.206628,0.0]],[[112.596172,-7.206603,0.0],[112.59752,-7.203952,0.0]],[[112.603886,-7.205568,0.0],[112.604574,-7.20716,0.0],[112.605398,-7.207621,0.0],[112.605414,-7.207596,0.0]],[[112.60561,-7.207276,0.0],[112.606614,-7.205646,0.0],[112.606533,-7.205362,0.0]],[[112.614559,-7.205773,0.0],[112.614392,-7.206713,0.0],[112.614518,-7.207567,0.0],[112.614946,-7.207643,0.0]],[[112.615055,-7.207663,0.0],[112.615294,-7.207705,0.0],[112.616897,-7.207065,0.0],[112.617352,-7.20505,0.0]],[[112.622108,-7.200429,0.0],[112.622717,-7.200073,0.0],[112.624433,-7.198092,0.0]],[[112.632224,-7.194931,0.0],[112.635303,-7.19481,0.0],[112.63942,-7.192653,0.0]],[[112.663118,-7.193262,0.0],[112.663248,-7.193355,0.0]],[[112.664396,-7.196498,0.0],[112.664484,-7.197437,0.0],[112.664842,-7.19772,0.0]]]}},{"id":"160","type":"Feature","properties":{"osm_id":457152305,"waterway":"river","name":""},"geometry":{"type":"LineString","coordinates":[[112.643658,-7.220951,0.0],[112.644956,-7.219821,0.0],[112.646474,-7.220385,0.0],[112.64708,-7.217838,0.0],[112.649035,-7.217351,0.0],[112.648668,-7.215121,0.0],[112.649139,-7.214203,0.0],[112.65137,-7.213697,0.0],[112.651628,-7.212769,0.0],[112.650001,-7.21166,0.0],[112.649898,-7.210813,0.0],[112.652247,-7.209869,0.0],[112.654016,-7.208293,0.0],[112.656637,-7.209492,0.0],[112.659779,-7.208908,0.0],[112.660287,-7.207879,0.0]]}},{"id":"222","type":"Feature","properties":{"osm_id":467120209,"waterway":"river","name":""},"geometry":{"type":"LineString","coordinates":[[112.797976,-7.24184,0.0],[112.798,-7.242022,0.0]]}},{"id":"218","type":"Feature","properties":{"osm_id":467120205,"waterway":"river","name":""},"geometry":{"type":"LineString","coordinates":[[112.797964,-7.241754,0.0],[112.797976,-7.24184,0.0]]}},{"id":"223","type":"Feature","properties":{"osm_id":467120210,"waterway":"river","name":""},"geometry":{"type":"LineString","coordinates":[[112.797929,-7.241502,0.0],[112.797964,-7.241754,0.0]]}},{"id":"217","type":"Feature","properties":{"osm_id":467120204,"waterway":"river","name":""},"geometry":{"type":"LineString","coordinates":[[112.797929,-7.241502,0.0],[112.797911,-7.241422,0.0]]}},{"id":"224","type":"Feature","properties":{"osm_id":467120211,"waterway":"river","name":""},"geometry":{"type":"LineString","coordinates":[[112.797911,-7.241422,0.0],[112.797791,-7.240906,0.0]]}},{"id":"702","type":"Feature","properties":{"osm_id":1486437090,"waterway":"river","name":""},"geometry":{"type":"LineString","coordinates":[[112.797791,-7.240906,0.0],[112.797776,-7.240807,0.0]]}},{"id":"701","type":"Feature","properties":{"osm_id":1486437089,"waterway":"river","name":""},"geometry":{"type":"LineString","coordinates":[[112.797776,-7.240807,0.0],[112.797723,-7.240466,0.0]]}},{"id":"49","type":"Feature","properties":{"osm_id":313913568,"waterway":"stream","name":""},"geometry":{"type":"LineString","coordinates":[[112.762363,-7.258514,0.0],[112.763774,-7.257917,0.0],[112.765032,-7.256215,0.0],[112.768468,-7.249806,0.0],[112.769122,-7.242909,0.0],[112.770202,-7.239508,0.0]]}},{"id":"662","type":"Feature","properties":{"osm_id":1193133590,"waterway":"river","name":""},"geometry":{"type":"LineString","coordinates":[[112.747346,-7.243578,0.0],[112.74735,-7.243399,0.0]]}},{"id":"32","type":"Feature","properties":{"osm_id":160180716,"waterway":"stream","name":""},"geometry":{"type":"LineString","coordinates":[[112.761397,-7.241175,0.0],[112.769164,-7.242723,0.0]]}},{"id":"100","type":"Feature","properties":{"osm_id":452042658,"waterway":"canal","name":""},"geometry":{"type":"LineString","coordinates":[[112.755601,-7.240788,0.0],[112.755546,-7.238959,0.0]]}},{"id":"90","type":"Feature","properties":{"osm_id":449309149,"waterway":"stream","name":""},"geometry":{"type":"LineString","coordinates":[[112.774479,-7.2369,0.0],[112.771559,-7.236079,0.0]]}},{"id":"31","type":"Feature","properties":{"osm_id":160155840,"waterway":"canal","name":""},"geometry":{"type":"LineString","coordinates":[[112.745642,-7.229819,0.0],[112.748736,-7.228983,0.0],[112.748938,-7.229397,0.0],[112.748268,-7.237885,0.0]]}},{"id":"99","type":"Feature","properties":{"osm_id":452018959,"waterway":"canal","name":""},"geometry":{"type":"LineString","coordinates":[[112.755546,-7.238959,0.0],[112.754507,-7.232706,0.0],[112.748921,-7.22322,0.0]]}},{"id":"4","type":"Feature","properties":{"osm_id":24760183,"waterway":"river","name":""},"geometry":{"type":"LineString","coordinates":[[112.759218,-7.248845,0.0],[112.761919,-7.23963,0.0],[112.767773,-7.228033,0.0],[112.768571,-7.220063,0.0],[112.772613,-7.203217,0.0]]}},{"id":"563","type":"Feature","properties":{"osm_id":816460459,"waterway":"river","name":""},"geometry":{"type":"LineString","coordinates":[[112.745774,-7.227863,0.0],[112.746126,-7.226288,0.0],[112.745231,-7.223975,0.0],[112.749791,-7.222669,0.0],[112.749368,-7.217146,0.0],[112.750818,-7.214191,0.0],[112.753041,-7.213084,0.0],[112.767298,-7.210436,0.0],[112.771656,-7.206763,0.0]]}},{"id":"655","type":"Feature","properties":{"osm_id":1137742660,"waterway":"stream","name":""},"geometry":{"type":"LineString","coordinates":[[112.775158,-7.236851,0.0],[112.774868,-7.236943,0.0]]}},{"id":"652","type":"Feature","properties":{"osm_id":1137742657,"waterway":"stream","name":""},"geometry":{"type":"LineString","coordinates":[[112.7745,-7.236878,0.0],[112.774479,-7.2369,0.0]]}},{"id":"64","type":"Feature","properties":{"osm_id":448082603,"waterway":"river","name":""},"geometry":{"type":"LineString","coordinates":[[112.795055,-7.236257,0.0],[112.794896,-7.241189,0.0]]}},{"id":"68","type":"Feature","properties":{"osm_id":448094839,"waterway":"river","name":""},"geometry":{"type":"LineString","coordinates":[[112.789099,-7.24061,0.0],[112.789703,-7.233701,0.0],[112.790915,-7.233761,0.0],[112.790933,-7.232804,0.0],[112.793148,-7.232545,0.0]]}},{"id":"651","type":"Feature","properties":{"osm_id":1137742337,"waterway":"river","name":""},"geometry":{"type":"LineString","coordinates":[[112.784721,-7.232855,0.0],[112.785275,-7.231275,0.0]]}},{"id":"650","type":"Feature","properties":{"osm_id":1137742336,"waterway":"river","name":""},"geometry":{"type":"LineString","coordinates":[[112.785275,-7.231275,0.0],[112.785288,-7.231241,0.0]]}},{"id":"80","type":"Feature","properties":{"osm_id":448453500,"waterway":"river","name":""},"geometry":{"type":"LineString","coordinates":[[112.7931,-7.23246,0.0],[112.793094,-7.23244,0.0]]}},{"id":"66","type":"Feature","properties":{"osm_id":448088953,"waterway":"river","name":""},"geometry":{"type":"LineString","coordinates":[[112.785288,-7.231241,0.0],[112.786647,-7.226856,0.0]]}},{"id":"656","type":"Feature","properties":{"osm_id":1137742777,"waterway":"stream","name":""},"geometry":{"type":"LineString","coordinates":[[112.770202,-7.239508,0.0],[112.776499,-7.223193,0.0],[112.777338,-7.217649,0.0]]}},{"id":"65","type":"Feature","properties":{"osm_id":448087880,"waterway":"river","name":""},"geometry":{"type":"LineString","coordinates":[[112.788602,-7.226194,0.0],[112.790235,-7.226877,0.0]]}},{"id":"581","type":"Feature","properties":{"osm_id":826284028,"waterway":"river","name":""},"geometry":{"type":"LineString","coordinates":[[112.786647,-7.226856,0.0],[112.786814,-7.226503,0.0]]}},{"id":"580","type":"Feature","properties":{"osm_id":826284027,"waterway":"river","name":""},"geometry":{"type":"LineString","coordinates":[[112.786814,-7.226503,0.0],[112.78749,-7.225862,0.0]]}},{"id":"63","type":"Feature","properties":{"osm_id":448077932,"waterway":"river","name":""},"geometry":{"type":"LineString","coordinates":[[112.787265,-7.223358,0.0],[112.787328,-7.225628,0.0],[112.788602,-7.226194,0.0]]}},{"id":"59","type":"Feature","properties":{"osm_id":447616826,"waterway":"river","name":""},"geometry":{"type":"LineString","coordinates":[[112.787243,-7.222649,0.0],[112.787265,-7.223358,0.0]]}},{"id":"262","type":"Feature","properties":{"osm_id":562358754,"waterway":"stream","name":""},"geometry":{"type":"LineString","coordinates":[[112.777338,-7.217649,0.0],[112.777608,-7.217377,0.0]]}},{"id":"617","type":"Feature","properties":{"osm_id":1043765183,"waterway":"stream","name":""},"geometry":{"type":"LineString","coordinates":[[112.777608,-7.217377,0.0],[112.777695,-7.216934,0.0]]}},{"id":"616","type":"Feature","properties":{"osm_id":1043765182,"waterway":"stream","name":""},"geometry":{"type":"LineString","coordinates":[[112.777695,-7.216934,0.0],[112.777815,-7.216502,0.0]]}},{"id":"263","type":"Feature","properties":{"osm_id":562358755,"waterway":"stream","name":""},"geometry":{"type":"LineString","coordinates":[[112.777815,-7.216502,0.0],[112.779745,-7.209808,0.0]]}}]}