{"type":"FeatureCollection","features":[{"id":"490","type":"Feature","properties":{"osm_id":1211334607,"waterway":"stream","name":""},"geometry":{"type":"LineString","coordinates":[[112.8725,-7.950139],[112.872714,-7.952729],[112.874173,-7.954801],[112.873841,-7.956523]]}},{"id":"477","type":"Feature","properties":{"osm_id":1211334594,"waterway":"stream","name":""},"geometry":{"type":"LineString","coordinates":[[112.863037,-7.94641],[112.861771,-7.944168],[112.860795,-7.943636],[112.85778,-7.94345],[112.855039,-7.944136],[112.85212,-7.942855],[112.848505,-7.943737],[112.847314,-7.945384],[112.844127,-7.946946],[112.838999,-7.947711],[112.838401,-7.947939]]}},{"id":"481","type":"Feature","properties":{"osm_id":1211334598,"waterway":"stream","name":""},"geometry":{"type":"LineString","coordinates":[[112.867548,-7.953646],[112.868814,-7.955293],[112.868686,-7.956929],[112.868589,-7.957098]]}},{"id":"482","type":"Feature","properties":{"osm_id":1211334599,"waterway":"stream","name":""},"geometry":{"type":"LineString","coordinates":[[112.870826,-7.952448],[112.871491,-7.953874],[112.871033,-7.95648],[112.87162,-7.957072]]}},{"id":"498","type":"Feature","properties":{"osm_id":1211338869,"waterway":"stream","name":""},"geometry":{"type":"LineString","coordinates":[[112.888636,-7.959219],[112.890353,-7.959366]]}},{"id":"499","type":"Feature","properties":{"osm_id":1211338870,"waterway":"stream","name":""},"geometry":{"type":"LineString","coordinates":[[112.886801,-7.956241],[112.890261,-7.959017],[112.891077,-7.960305]]}},{"id":"535","type":"Feature","properties":{"osm_id":1211338906,"waterway":"stream","name":""},"geometry":{"type":"LineString","coordinates":[[112.89473,-7.955611],[112.894834,-7.958965]]}},{"id":"494","type":"Feature","properties":{"osm_id":1211338865,"waterway":"stream","name":""},"geometry":{"type":"LineString","coordinates":[[112.884825,-7.957901],[112.888636,-7.959219]]}},{"id":"533","type":"Feature","properties":{"osm_id":1211338904,"waterway":"stream","name":""},"geometry":{"type":"LineString","coordinates":[[112.902122,-7.956021],[112.901479,-7.957507]]}},{"id":"534","type":"Feature","properties":{"osm_id":1211338905,"waterway":"stream","name":""},"geometry":{"type":"LineString","coordinates":[[112.907664,-7.955598],[112.902481,-7.957681]]}},{"id":"721","type":"Feature","properties":{"osm_id":1212593406,"waterway":"stream","name":""},"geometry":{"type":"LineString","coordinates":[[112.863734,-7.954368],[112.862983,-7.954381]]}},{"id":"501","type":"Feature","properties":{"osm_id":1211338872,"waterway":"stream","name":""},"geometry":{"type":"LineString","coordinates":[[112.866272,-7.953274],[112.867548,-7.953646]]}},{"id":"683","type":"Feature","properties":{"osm_id":1212347889,"waterway":"stream","name":""},"geometry":{"type":"LineString","coordinates":[[112.863952,-7.951656],[112.859137,-7.951329]]}},{"id":"682","type":"Feature","properties":{"osm_id":1212347888,"waterway":"stream","name":""},"geometry":{"type":"LineString","coordinates":[[112.859137,-7.951329],[112.858436,-7.951502]]}},{"id":"500","type":"Feature","properties":{"osm_id":1211338871,"waterway":"stream","name":""},"geometry":{"type":"LineString","coordinates":[[112.869147,-7.949847],[112.870826,-7.952448]]}},{"id":"502","type":"Feature","properties":{"osm_id":1211338873,"waterway":"stream","name":""},"geometry":{"type":"LineString","coordinates":[[112.874683,-7.949178],[112.8725,-7.950139]]}},{"id":"496","type":"Feature","properties":{"osm_id":1211338867,"waterway":"stream","name":""},"geometry":{"type":"LineString","coordinates":[[112.884795,-7.956645],[112.885315,-7.95656]]}},{"id":"495","type":"Feature","properties":{"osm_id":1211338866,"waterway":"stream","name":""},"geometry":{"type":"LineString","coordinates":[[112.885315,-7.95656],[112.886801,-7.956241]]}},{"id":"497","type":"Feature","properties":{"osm_id":1211338868,"waterway":"stream","name":""},"geometry":{"type":"LineString","coordinates":[[112.885028,-7.953943],[112.886801,-7.956241]]}},{"id":"531","type":"Feature","properties":{"osm_id":1211338902,"waterway":"stream","name":""},"geometry":{"type":"LineString","coordinates":[[112.905797,-7.95329],[112.902122,-7.956021]]}},{"id":"493","type":"Feature","properties":{"osm_id":1211338864,"waterway":"stream","name":""},"geometry":{"type":"LineString","coordinates":[[112.890304,-7.954352],[112.893528,-7.953747]]}},{"id":"536","type":"Feature","properties":{"osm_id":1211338907,"waterway":"stream","name":""},"geometry":{"type":"LineString","coordinates":[[112.890784,-7.951773],[112.892879,-7.952501],[112.89473,-7.955611]]}},{"id":"537","type":"Feature","properties":{"osm_id":1211338908,"waterway":"stream","name":""},"geometry":{"type":"LineString","coordinates":[[112.899917,-7.950131],[112.897511,-7.949886],[112.896019,-7.950757],[112.894711,-7.954022],[112.89473,-7.955611]]}},{"id":"492","type":"Feature","properties":{"osm_id":1211338863,"waterway":"stream","name":""},"geometry":{"type":"LineString","coordinates":[[112.887407,-7.95274],[112.890784,-7.951773]]}},{"id":"540","type":"Feature","properties":{"osm_id":1211338911,"waterway":"stream","name":""},"geometry":{"type":"LineString","coordinates":[[112.904064,-7.95075],[112.900993,-7.950762],[112.899917,-7.950131]]}},{"id":"541","type":"Feature","properties":{"osm_id":1211338912,"waterway":"stream","name":""},"geometry":{"type":"LineString","coordinates":[[112.903294,-7.949066],[112.899917,-7.950131]]}},{"id":"538","type":"Feature","properties":{"osm_id":1211338909,"waterway":"stream","name":""},"geometry":{"type":"LineString","coordinates":[[112.898426,-7.9476],[112.897353,-7.949927]]}},{"id":"539","type":"Feature","properties":{"osm_id":1211338910,"waterway":"stream","name":""},"geometry":{"type":"LineString","coordinates":[[112.901615,-7.947655],[112.899408,-7.948362],[112.898726,-7.949794]]}},{"id":"546","type":"Feature","properties":{"osm_id":1211338917,"waterway":"stream","name":""},"geometry":{"type":"LineString","coordinates":[[112.886136,-7.950934],[112.888746,-7.947183],[112.888628,-7.945934]]}},{"id":"544","type":"Feature","properties":{"osm_id":1211338915,"waterway":"stream","name":""},"geometry":{"type":"LineString","coordinates":[[112.89422,-7.948043],[112.892266,-7.945995]]}},{"id":"543","type":"Feature","properties":{"osm_id":1211338914,"waterway":"stream","name":""},"geometry":{"type":"LineString","coordinates":[[112.895567,-7.947266],[112.893932,-7.946197],[112.892631,-7.946279]]}},{"id":"548","type":"Feature","properties":{"osm_id":1211338919,"waterway":"stream","name":""},"geometry":{"type":"LineString","coordinates":[[112.882252,-7.9474],[112.884063,-7.945862],[112.885653,-7.9455]]}},{"id":"545","type":"Feature","properties":{"osm_id":1211338916,"waterway":"stream","name":""},"geometry":{"type":"LineString","coordinates":[[112.891518,-7.948723],[112.892303,-7.947605],[112.892396,-7.945153],[112.891031,-7.943149]]}},{"id":"549","type":"Feature","properties":{"osm_id":1211338920,"waterway":"stream","name":""},"geometry":{"type":"LineString","coordinates":[[112.884184,-7.948009],[112.885409,-7.946965],[112.885686,-7.945323],[112.887555,-7.942842]]}},{"id":"547","type":"Feature","properties":{"osm_id":1211338918,"waterway":"stream","name":""},"geometry":{"type":"LineString","coordinates":[[112.884964,-7.949061],[112.888462,-7.946242],[112.889792,-7.941686]]}},{"id":"591","type":"Feature","properties":{"osm_id":1211342428,"waterway":"stream","name":""},"geometry":{"type":"LineString","coordinates":[[112.904807,-7.944338],[112.900509,-7.945336]]}},{"id":"532","type":"Feature","properties":{"osm_id":1211338903,"waterway":"stream","name":""},"geometry":{"type":"LineString","coordinates":[[112.910424,-7.955471],[112.907664,-7.955598]]}},{"id":"348","type":"Feature","properties":{"osm_id":1209490198,"waterway":"stream","name":""},"geometry":{"type":"LineString","coordinates":[[112.91146,-7.953526],[112.912919,-7.949859]]}},{"id":"347","type":"Feature","properties":{"osm_id":1209490197,"waterway":"stream","name":""},"geometry":{"type":"LineString","coordinates":[[112.910896,-7.953356],[112.912081,-7.950062],[112.911828,-7.948367],[112.9128,-7.947583],[112.913819,-7.947772]]}},{"id":"327","type":"Feature","properties":{"osm_id":1209490175,"waterway":"stream","name":""},"geometry":{"type":"LineString","coordinates":[[112.909029,-7.952511],[112.910665,-7.949321],[112.911828,-7.948367]]}},{"id":"326","type":"Feature","properties":{"osm_id":1209490174,"waterway":"stream","name":""},"geometry":{"type":"LineString","coordinates":[[112.906831,-7.952337],[112.908661,-7.951085],[112.910642,-7.948387],[112.911891,-7.948273]]}},{"id":"351","type":"Feature","properties":{"osm_id":1209490201,"waterway":"stream","name":""},"geometry":{"type":"LineString","coordinates":[[112.916772,-7.948839],[112.916449,-7.947021],[112.916929,-7.946383]]}},{"id":"356","type":"Feature","properties":{"osm_id":1209490206,"waterway":"stream","name":""},"geometry":{"type":"LineString","coordinates":[[112.922984,-7.947784],[112.923291,-7.94722]]}},{"id":"353","type":"Feature","properties":{"osm_id":1209490203,"waterway":"stream","name":""},"geometry":{"type":"LineString","coordinates":[[112.920961,-7.948199],[112.921438,-7.947446],[112.920967,-7.946292],[112.921618,-7.944739]]}},{"id":"360","type":"Feature","properties":{"osm_id":1209490210,"waterway":"stream","name":""},"geometry":{"type":"LineString","coordinates":[[112.925378,-7.946828],[112.924768,-7.945557],[112.923975,-7.945667],[112.923581,-7.944112]]}},{"id":"325","type":"Feature","properties":{"osm_id":1209490173,"waterway":"stream","name":""},"geometry":{"type":"LineString","coordinates":[[112.905275,-7.950434],[112.909787,-7.948583],[112.910169,-7.947812]]}},{"id":"357","type":"Feature","properties":{"osm_id":1209490207,"waterway":"stream","name":""},"geometry":{"type":"LineString","coordinates":[[112.923566,-7.947617],[112.923293,-7.947029]]}},{"id":"324","type":"Feature","properties":{"osm_id":1209490172,"waterway":"stream","name":""},"geometry":{"type":"LineString","coordinates":[[112.904879,-7.948994],[112.910169,-7.947812]]}},{"id":"358","type":"Feature","properties":{"osm_id":1209490208,"waterway":"stream","name":""},"geometry":{"type":"LineString","coordinates":[[112.923642,-7.947591],[112.921579,-7.945095]]}},{"id":"322","type":"Feature","properties":{"osm_id":1209490170,"waterway":"stream","name":""},"geometry":{"type":"LineString","coordinates":[[112.904736,-7.947916],[112.909614,-7.947371],[112.912705,-7.945701]]}},{"id":"323","type":"Feature","properties":{"osm_id":1209490171,"waterway":"stream","name":""},"geometry":{"type":"LineString","coordinates":[[112.910169,-7.947812],[112.913185,-7.945145],[112.914145,-7.946018],[112.916248,-7.946302]]}},{"id":"321","type":"Feature","properties":{"osm_id":1209490169,"waterway":"stream","name":""},"geometry":{"type":"LineString","coordinates":[[112.910283,-7.946001],[112.912537,-7.94573]]}},{"id":"320","type":"Feature","properties":{"osm_id":1209490168,"waterway":"stream","name":""},"geometry":{"type":"LineString","coordinates":[[112.906939,-7.945274],[112.908207,-7.946002],[112.910283,-7.946001]]}},{"id":"314","type":"Feature","properties":{"osm_id":1209490162,"waterway":"stream","name":""},"geometry":{"type":"LineString","coordinates":[[112.921618,-7.944739],[112.922157,-7.94424]]}},{"id":"319","type":"Feature","properties":{"osm_id":1209490167,"waterway":"stream","name":""},"geometry":{"type":"LineString","coordinates":[[112.906758,-7.942578],[112.906962,-7.94443],[112.910283,-7.946001]]}},{"id":"340","type":"Feature","properties":{"osm_id":1209490188,"waterway":"stream","name":""},"geometry":{"type":"LineString","coordinates":[[112.934493,-7.936605],[112.933204,-7.936113]]}},{"id":"335","type":"Feature","properties":{"osm_id":1209490183,"waterway":"stream","name":""},"geometry":{"type":"LineString","coordinates":[[112.933979,-7.937154],[112.933973,-7.937138]]}},{"id":"337","type":"Feature","properties":{"osm_id":1209490185,"waterway":"stream","name":""},"geometry":{"type":"LineString","coordinates":[[112.93416,-7.936961],[112.933737,-7.936615]]}},{"id":"328","type":"Feature","properties":{"osm_id":1209490176,"waterway":"stream","name":""},"geometry":{"type":"LineString","coordinates":[[112.919146,-7.939864],[112.915706,-7.943024],[112.915456,-7.945911]]}},{"id":"318","type":"Feature","properties":{"osm_id":1209490166,"waterway":"stream","name":""},"geometry":{"type":"LineString","coordinates":[[112.90934,-7.941304],[112.910791,-7.943942],[112.912744,-7.944407]]}},{"id":"317","type":"Feature","properties":{"osm_id":1209490165,"waterway":"stream","name":""},"geometry":{"type":"LineString","coordinates":[[112.911851,-7.940192],[112.913362,-7.945154]]}},{"id":"316","type":"Feature","properties":{"osm_id":1209490164,"waterway":"stream","name":""},"geometry":{"type":"LineString","coordinates":[[112.913165,-7.940212],[112.913768,-7.943708],[112.913075,-7.944757]]}},{"id":"329","type":"Feature","properties":{"osm_id":1209490177,"waterway":"stream","name":""},"geometry":{"type":"LineString","coordinates":[[112.921561,-7.93996],[112.922153,-7.942985],[112.92385,-7.943231]]}},{"id":"315","type":"Feature","properties":{"osm_id":1209490163,"waterway":"stream","name":""},"geometry":{"type":"LineString","coordinates":[[112.915496,-7.939247],[112.913761,-7.943742]]}},{"id":"587","type":"Feature","properties":{"osm_id":1211342424,"waterway":"stream","name":""},"geometry":{"type":"LineString","coordinates":[[112.909136,-7.939905],[112.905227,-7.938135],[112.901908,-7.938201]]}},{"id":"586","type":"Feature","properties":{"osm_id":1211342423,"waterway":"stream","name":""},"geometry":{"type":"LineString","coordinates":[[112.909328,-7.938647],[112.907937,-7.938972],[112.905738,-7.938418]]}},{"id":"330","type":"Feature","properties":{"osm_id":1209490178,"waterway":"stream","name":""},"geometry":{"type":"LineString","coordinates":[[112.923819,-7.936881],[112.925747,-7.939177],[112.927042,-7.939476]]}},{"id":"585","type":"Feature","properties":{"osm_id":1211342422,"waterway":"stream","name":""},"geometry":{"type":"LineString","coordinates":[[112.908857,-7.936344],[112.906544,-7.936513],[112.90447,-7.938068]]}},{"id":"349","type":"Feature","properties":{"osm_id":1209490199,"waterway":"stream","name":""},"geometry":{"type":"LineString","coordinates":[[112.913226,-7.951736],[112.912919,-7.949859],[112.913838,-7.947569],[112.915873,-7.946349],[112.919597,-7.945674],[112.921082,-7.944167],[112.9237,-7.94403],[112.924232,-7.942353],[112.925358,-7.942122],[112.927305,-7.939102],[112.929281,-7.938671],[112.928976,-7.936339],[112.930708,-7.932893],[112.932898,-7.931581],[112.932675,-7.929729],[112.933287,-7.928337],[112.934896,-7.928085],[112.935902,-7.926555],[112.93665,-7.926998],[112.937079,-7.925543],[112.938215,-7.924752],[112.940336,-7.924563],[112.94081,-7.923979]]}},{"id":"334","type":"Feature","properties":{"osm_id":1209490182,"waterway":"stream","name":""},"geometry":{"type":"LineString","coordinates":[[112.932936,-7.938266],[112.933204,-7.936113],[112.931358,-7.933807],[112.931916,-7.932389]]}},{"id":"331","type":"Feature","properties":{"osm_id":1209490179,"waterway":"stream","name":""},"geometry":{"type":"LineString","coordinates":[[112.924688,-7.934497],[112.926123,-7.935955],[112.92738,-7.935759],[112.930708,-7.932893]]}},{"id":"560","type":"Feature","properties":{"osm_id":1211342397,"waterway":"stream","name":""},"geometry":{"type":"LineString","coordinates":[[112.913774,-7.937906],[112.912663,-7.936352]]}},{"id":"579","type":"Feature","properties":{"osm_id":1211342416,"waterway":"stream","name":""},"geometry":{"type":"LineString","coordinates":[[112.918171,-7.937735],[112.919071,-7.936265]]}},{"id":"580","type":"Feature","properties":{"osm_id":1211342417,"waterway":"stream","name":""},"geometry":{"type":"LineString","coordinates":[[112.921024,-7.936926],[112.918508,-7.936028]]}},{"id":"561","type":"Feature","properties":{"osm_id":1211342398,"waterway":"stream","name":""},"geometry":{"type":"LineString","coordinates":[[112.916198,-7.937829],[112.915971,-7.934575]]}},{"id":"574","type":"Feature","properties":{"osm_id":1211342411,"waterway":"stream","name":""},"geometry":{"type":"LineString","coordinates":[[112.910222,-7.935568],[112.911663,-7.934153]]}},{"id":"576","type":"Feature","properties":{"osm_id":1211342413,"waterway":"stream","name":""},"geometry":{"type":"LineString","coordinates":[[112.913422,-7.935287],[112.912445,-7.934424]]}},{"id":"575","type":"Feature","properties":{"osm_id":1211342412,"waterway":"stream","name":""},"geometry":{"type":"LineString","coordinates":[[112.912068,-7.937468],[112.912095,-7.935327],[112.911172,-7.932769],[112.911444,-7.931459]]}},{"id":"564","type":"Feature","properties":{"osm_id":1211342401,"waterway":"stream","name":""},"geometry":{"type":"LineString","coordinates":[[112.921088,-7.935286],[112.917875,-7.934683],[112.915978,-7.933265]]}},{"id":"577","type":"Feature","properties":{"osm_id":1211342414,"waterway":"stream","name":""},"geometry":{"type":"LineString","coordinates":[[112.912663,-7.936352],[112.911897,-7.931961]]}},{"id":"573","type":"Feature","properties":{"osm_id":1211342410,"waterway":"stream","name":""},"geometry":{"type":"LineString","coordinates":[[112.910212,-7.933573],[112.911201,-7.932698]]}},{"id":"563","type":"Feature","properties":{"osm_id":1211342400,"waterway":"stream","name":""},"geometry":{"type":"LineString","coordinates":[[112.92347,-7.932452],[112.922013,-7.932869],[112.919776,-7.932179],[112.914817,-7.93311]]}},{"id":"572","type":"Feature","properties":{"osm_id":1211342409,"waterway":"stream","name":""},"geometry":{"type":"LineString","coordinates":[[112.908817,-7.932617],[112.910197,-7.930894]]}},{"id":"562","type":"Feature","properties":{"osm_id":1211342399,"waterway":"stream","name":""},"geometry":{"type":"LineString","coordinates":[[112.922365,-7.930792],[112.918564,-7.932298]]}},{"id":"569","type":"Feature","properties":{"osm_id":1211342406,"waterway":"stream","name":""},"geometry":{"type":"LineString","coordinates":[[112.915252,-7.932083],[112.912301,-7.930951],[112.911542,-7.929905]]}},{"id":"571","type":"Feature","properties":{"osm_id":1211342408,"waterway":"stream","name":""},"geometry":{"type":"LineString","coordinates":[[112.907843,-7.931902],[112.908918,-7.929921]]}},{"id":"578","type":"Feature","properties":{"osm_id":1211342415,"waterway":"stream","name":""},"geometry":{"type":"LineString","coordinates":[[112.918508,-7.936028],[112.915175,-7.934092],[112.91358,-7.932293],[112.911812,-7.931922],[112.908951,-7.930125],[112.908581,-7.928213],[112.907173,-7.92655],[112.907309,-7.925535]]}},{"id":"570","type":"Feature","properties":{"osm_id":1211342407,"waterway":"stream","name":""},"geometry":{"type":"LineString","coordinates":[[112.908086,-7.930372],[112.908725,-7.929538]]}},{"id":"568","type":"Feature","properties":{"osm_id":1211342405,"waterway":"stream","name":""},"geometry":{"type":"LineString","coordinates":[[112.91759,-7.928348],[112.913049,-7.930194],[112.908633,-7.928824]]}},{"id":"559","type":"Feature","properties":{"osm_id":1211342396,"waterway":"stream","name":""},"geometry":{"type":"LineString","coordinates":[[112.925071,-7.929366],[112.924964,-7.927323],[112.923789,-7.925472]]}},{"id":"567","type":"Feature","properties":{"osm_id":1211342404,"waterway":"stream","name":""},"geometry":{"type":"LineString","coordinates":[[112.913677,-7.927846],[112.912347,-7.927745],[112.911242,-7.925737],[112.910145,-7.925229]]}},{"id":"623","type":"Feature","properties":{"osm_id":1211537627,"waterway":"stream","name":""},"geometry":{"type":"LineString","coordinates":[[112.92813,-7.928709],[112.925611,-7.925274]]}},{"id":"624","type":"Feature","properties":{"osm_id":1211537628,"waterway":"stream","name":""},"geometry":{"type":"LineString","coordinates":[[112.9298,-7.924299],[112.925561,-7.925297]]}},{"id":"625","type":"Feature","properties":{"osm_id":1211537629,"waterway":"stream","name":""},"geometry":{"type":"LineString","coordinates":[[112.930159,-7.923404],[112.927579,-7.923577],[112.925326,-7.924432],[112.924906,-7.925152]]}},{"id":"605","type":"Feature","properties":{"osm_id":1211537609,"waterway":"stream","name":""},"geometry":{"type":"LineString","coordinates":[[112.931763,-7.918367],[112.930972,-7.915803]]}},{"id":"606","type":"Feature","properties":{"osm_id":1211537610,"waterway":"stream","name":""},"geometry":{"type":"LineString","coordinates":[[112.936176,-7.915819],[112.931393,-7.915838]]}},{"id":"607","type":"Feature","properties":{"osm_id":1211537611,"waterway":"stream","name":""},"geometry":{"type":"LineString","coordinates":[[112.931605,-7.913054],[112.930403,-7.912565],[112.926414,-7.91315]]}},{"id":"604","type":"Feature","properties":{"osm_id":1211537608,"waterway":"stream","name":""},"geometry":{"type":"LineString","coordinates":[[112.936841,-7.913096],[112.932023,-7.911072],[112.929216,-7.909079],[112.929194,-7.909053]]}},{"id":"503","type":"Feature","properties":{"osm_id":1211338874,"waterway":"stream","name":""},"geometry":{"type":"LineString","coordinates":[[112.870912,-7.948726],[112.8725,-7.950139]]}},{"id":"726","type":"Feature","properties":{"osm_id":1212593411,"waterway":"stream","name":""},"geometry":{"type":"LineString","coordinates":[[112.866363,-7.949252],[112.863037,-7.94641]]}},{"id":"724","type":"Feature","properties":{"osm_id":1212593409,"waterway":"stream","name":""},"geometry":{"type":"MultiLineString","coordinates":[[[112.857141,-7.949417],[112.85022,-7.946244]],[[112.849455,-7.945894],[112.847625,-7.945055]]]}},{"id":"718","type":"Feature","properties":{"osm_id":1212593403,"waterway":"stream","name":""},"geometry":{"type":"LineString","coordinates":[[112.845407,-7.939242],[112.844358,-7.94022],[112.841762,-7.940943],[112.840244,-7.943418],[112.838119,-7.944024],[112.837545,-7.945363],[112.834824,-7.947391]]}},{"id":"725","type":"Feature","properties":{"osm_id":1212593410,"waterway":"stream","name":""},"geometry":{"type":"LineString","coordinates":[[112.864813,-7.949709],[112.862533,-7.947865],[112.859405,-7.947802],[112.855039,-7.944136]]}},{"id":"727","type":"Feature","properties":{"osm_id":1212593412,"waterway":"stream","name":""},"geometry":{"type":"LineString","coordinates":[[112.868273,-7.947509],[112.867849,-7.946713],[112.86603,-7.946192],[112.863219,-7.944013],[112.861771,-7.944168]]}},{"id":"713","type":"Feature","properties":{"osm_id":1212593398,"waterway":"stream","name":""},"geometry":{"type":"LineString","coordinates":[[112.840088,-7.939301],[112.836912,-7.942446],[112.836086,-7.944789],[112.833217,-7.946971]]}},{"id":"716","type":"Feature","properties":{"osm_id":1212593401,"waterway":"stream","name":""},"geometry":{"type":"LineString","coordinates":[[112.846954,-7.942531],[112.843183,-7.943822],[112.840152,-7.943493]]}},{"id":"644","type":"Feature","properties":{"osm_id":1212050381,"waterway":"stream","name":""},"geometry":{"type":"LineString","coordinates":[[112.833433,-7.937059],[112.832707,-7.937155],[112.831878,-7.93899],[112.828576,-7.94099],[112.827621,-7.945384],[112.827618,-7.945389]]}},{"id":"712","type":"Feature","properties":{"osm_id":1212593397,"waterway":"stream","name":""},"geometry":{"type":"LineString","coordinates":[[112.834767,-7.937059],[112.835611,-7.939755],[112.834096,-7.940217],[112.834061,-7.94208],[112.834453,-7.943631],[112.835695,-7.945002]]}},{"id":"676","type":"Feature","properties":{"osm_id":1212347876,"waterway":"stream","name":""},"geometry":{"type":"LineString","coordinates":[[112.812821,-7.936995],[112.812321,-7.937594]]}},{"id":"646","type":"Feature","properties":{"osm_id":1212050383,"waterway":"stream","name":""},"geometry":{"type":"LineString","coordinates":[[112.833313,-7.943937],[112.831086,-7.944393],[112.829269,-7.945872]]}},{"id":"642","type":"Feature","properties":{"osm_id":1212050379,"waterway":"stream","name":""},"geometry":{"type":"LineString","coordinates":[[112.824318,-7.942247],[112.8224,-7.942234],[112.821648,-7.942612]]}},{"id":"643","type":"Feature","properties":{"osm_id":1212050380,"waterway":"stream","name":""},"geometry":{"type":"LineString","coordinates":[[112.820517,-7.94031],[112.820201,-7.9414],[112.819898,-7.941462]]}},{"id":"641","type":"Feature","properties":{"osm_id":1212050378,"waterway":"stream","name":""},"geometry":{"type":"LineString","coordinates":[[112.827036,-7.937622],[112.820517,-7.94031]]}},{"id":"542","type":"Feature","properties":{"osm_id":1211338913,"waterway":"stream","name":""},"geometry":{"type":"LineString","coordinates":[[112.896422,-7.946519],[112.894727,-7.944385],[112.89455,-7.942609]]}},{"id":"552","type":"Feature","properties":{"osm_id":1211338923,"waterway":"stream","name":""},"geometry":{"type":"LineString","coordinates":[[112.876054,-7.944983],[112.877325,-7.943881],[112.877607,-7.941612]]}},{"id":"469","type":"Feature","properties":{"osm_id":1211321891,"waterway":"stream","name":""},"geometry":{"type":"LineString","coordinates":[[112.900509,-7.945336],[112.897494,-7.944397],[112.894136,-7.942305],[112.889612,-7.941142]]}},{"id":"590","type":"Feature","properties":{"osm_id":1211342427,"waterway":"stream","name":""},"geometry":{"type":"LineString","coordinates":[[112.904372,-7.941718],[112.900265,-7.942114],[112.899346,-7.943737],[112.898053,-7.944297]]}},{"id":"550","type":"Feature","properties":{"osm_id":1211338921,"waterway":"stream","name":""},"geometry":{"type":"LineString","coordinates":[[112.880396,-7.945225],[112.881247,-7.94328],[112.883084,-7.942441],[112.884157,-7.939726]]}},{"id":"589","type":"Feature","properties":{"osm_id":1211342426,"waterway":"stream","name":""},"geometry":{"type":"LineString","coordinates":[[112.902516,-7.940831],[112.900265,-7.942114]]}},{"id":"468","type":"Feature","properties":{"osm_id":1211321890,"waterway":"stream","name":""},"geometry":{"type":"LineString","coordinates":[[112.887555,-7.942842],[112.888437,-7.939593]]}},{"id":"592","type":"Feature","properties":{"osm_id":1211342429,"waterway":"stream","name":""},"geometry":{"type":"LineString","coordinates":[[112.89665,-7.940232],[112.893724,-7.940139],[112.891922,-7.937897],[112.891996,-7.9371]]}},{"id":"588","type":"Feature","properties":{"osm_id":1211342425,"waterway":"stream","name":""},"geometry":{"type":"LineString","coordinates":[[112.900175,-7.939328],[112.899066,-7.937816]]}},{"id":"466","type":"Feature","properties":{"osm_id":1211321888,"waterway":"stream","name":""},"geometry":{"type":"LineString","coordinates":[[112.877607,-7.941612],[112.877886,-7.938307],[112.879752,-7.936655],[112.880273,-7.934679]]}},{"id":"555","type":"Feature","properties":{"osm_id":1211338926,"waterway":"stream","name":""},"geometry":{"type":"LineString","coordinates":[[112.873366,-7.943944],[112.874356,-7.940018],[112.871655,-7.938018]]}},{"id":"554","type":"Feature","properties":{"osm_id":1211338925,"waterway":"stream","name":""},"geometry":{"type":"LineString","coordinates":[[112.872064,-7.943682],[112.871735,-7.938167]]}},{"id":"717","type":"Feature","properties":{"osm_id":1212593402,"waterway":"stream","name":""},"geometry":{"type":"LineString","coordinates":[[112.858826,-7.94123],[112.855672,-7.941628],[112.845407,-7.939242]]}},{"id":"715","type":"Feature","properties":{"osm_id":1212593400,"waterway":"stream","name":""},"geometry":{"type":"LineString","coordinates":[[112.854631,-7.937399],[112.848424,-7.937792],[112.846745,-7.93937]]}},{"id":"714","type":"Feature","properties":{"osm_id":1212593399,"waterway":"stream","name":""},"geometry":{"type":"LineString","coordinates":[[112.854572,-7.935306],[112.850479,-7.935672],[112.845903,-7.93836],[112.845313,-7.939258]]}},{"id":"461","type":"Feature","properties":{"osm_id":1211321883,"waterway":"stream","name":""},"geometry":{"type":"LineString","coordinates":[[112.873836,-7.936825],[112.870611,-7.936203],[112.869206,-7.936807]]}},{"id":"553","type":"Feature","properties":{"osm_id":1211338924,"waterway":"stream","name":""},"geometry":{"type":"LineString","coordinates":[[112.876046,-7.936124],[112.873836,-7.936825]]}},{"id":"463","type":"Feature","properties":{"osm_id":1211321885,"waterway":"stream","name":""},"geometry":{"type":"LineString","coordinates":[[112.867307,-7.941734],[112.863064,-7.94014],[112.859137,-7.939848],[112.857222,-7.937112],[112.856487,-7.932909],[112.855849,-7.932038],[112.85315,-7.931826],[112.850511,-7.928005]]}},{"id":"460","type":"Feature","properties":{"osm_id":1211321882,"waterway":"stream","name":""},"geometry":{"type":"LineString","coordinates":[[112.865419,-7.936007],[112.865655,-7.933143]]}},{"id":"465","type":"Feature","properties":{"osm_id":1211321887,"waterway":"stream","name":""},"geometry":{"type":"LineString","coordinates":[[112.871735,-7.938167],[112.867162,-7.935826],[112.866079,-7.933366],[112.861862,-7.928595],[112.860022,-7.929275],[112.858365,-7.928701],[112.857141,-7.92919],[112.85417,-7.926528],[112.85248,-7.926619],[112.850356,-7.928058],[112.848376,-7.927219],[112.848084,-7.92639]]}},{"id":"551","type":"Feature","properties":{"osm_id":1211338922,"waterway":"stream","name":""},"geometry":{"type":"LineString","coordinates":[[112.881547,-7.938637],[112.881303,-7.936551]]}},{"id":"473","type":"Feature","properties":{"osm_id":1211321895,"waterway":"stream","name":""},"geometry":{"type":"LineString","coordinates":[[112.891031,-7.943149],[112.888341,-7.938722],[112.887265,-7.938206],[112.885187,-7.933629],[112.882311,-7.93195],[112.880836,-7.932572]]}},{"id":"581","type":"Feature","properties":{"osm_id":1211342418,"waterway":"stream","name":""},"geometry":{"type":"LineString","coordinates":[[112.905019,-7.935444],[112.899936,-7.936448],[112.898455,-7.937651]]}},{"id":"583","type":"Feature","properties":{"osm_id":1211342420,"waterway":"stream","name":""},"geometry":{"type":"LineString","coordinates":[[112.899296,-7.935494],[112.897456,-7.935131],[112.896471,-7.934238]]}},{"id":"467","type":"Feature","properties":{"osm_id":1211321889,"waterway":"stream","name":""},"geometry":{"type":"LineString","coordinates":[[112.881303,-7.936551],[112.880273,-7.934679],[112.880876,-7.932981]]}},{"id":"584","type":"Feature","properties":{"osm_id":1211342421,"waterway":"stream","name":""},"geometry":{"type":"LineString","coordinates":[[112.900786,-7.934293],[112.89641,-7.934212]]}},{"id":"472","type":"Feature","properties":{"osm_id":1211321894,"waterway":"stream","name":""},"geometry":{"type":"LineString","coordinates":[[112.901908,-7.938201],[112.900435,-7.937186],[112.895468,-7.938447],[112.891275,-7.936832],[112.89024,-7.936007],[112.889159,-7.932197],[112.887751,-7.931198],[112.887196,-7.929424],[112.883618,-7.927065],[112.883449,-7.926215]]}},{"id":"558","type":"Feature","properties":{"osm_id":1211342395,"waterway":"stream","name":""},"geometry":{"type":"LineString","coordinates":[[112.906824,-7.933828],[112.900623,-7.930457]]}},{"id":"582","type":"Feature","properties":{"osm_id":1211342419,"waterway":"stream","name":""},"geometry":{"type":"LineString","coordinates":[[112.900849,-7.932463],[112.899058,-7.93222],[112.896096,-7.929448]]}},{"id":"470","type":"Feature","properties":{"osm_id":1211321892,"waterway":"stream","name":""},"geometry":{"type":"LineString","coordinates":[[112.89641,-7.934212],[112.893567,-7.933628],[112.89107,-7.929804],[112.888451,-7.927527]]}},{"id":"638","type":"Feature","properties":{"osm_id":1212050375,"waterway":"stream","name":""},"geometry":{"type":"LineString","coordinates":[[112.817689,-7.937115],[112.818202,-7.937739],[112.817621,-7.939204],[112.817615,-7.939209]]}},{"id":"640","type":"Feature","properties":{"osm_id":1212050377,"waterway":"stream","name":""},"geometry":{"type":"LineString","coordinates":[[112.825577,-7.935367],[112.822761,-7.936732],[112.820916,-7.939274],[112.821054,-7.940211]]}},{"id":"637","type":"Feature","properties":{"osm_id":1212050374,"waterway":"stream","name":""},"geometry":{"type":"LineString","coordinates":[[112.822318,-7.933268],[112.821288,-7.933911],[112.820609,-7.936296],[112.818061,-7.936534]]}},{"id":"639","type":"Feature","properties":{"osm_id":1212050376,"waterway":"stream","name":""},"geometry":{"type":"LineString","coordinates":[[112.821608,-7.928887],[112.819848,-7.929918],[112.817665,-7.932758],[112.818398,-7.935642],[112.818083,-7.936525],[112.817355,-7.936553],[112.817689,-7.937115]]}},{"id":"669","type":"Feature","properties":{"osm_id":1212347868,"waterway":"stream","name":""},"geometry":{"type":"LineString","coordinates":[[112.791519,-7.919159],[112.788439,-7.922132],[112.788313,-7.922207]]}},{"id":"674","type":"Feature","properties":{"osm_id":1212347874,"waterway":"stream","name":""},"geometry":{"type":"LineString","coordinates":[[112.796446,-7.924632],[112.795075,-7.927305]]}},{"id":"671","type":"Feature","properties":{"osm_id":1212347870,"waterway":"stream","name":""},"geometry":{"type":"LineString","coordinates":[[112.803293,-7.928011],[112.801051,-7.928399],[112.799207,-7.931712]]}},{"id":"672","type":"Feature","properties":{"osm_id":1212347871,"waterway":"stream","name":""},"geometry":{"type":"LineString","coordinates":[[112.802212,-7.922307],[112.800493,-7.921486],[112.79779,-7.921858],[112.796446,-7.924632]]}},{"id":"665","type":"Feature","properties":{"osm_id":1212347864,"waterway":"stream","name":""},"geometry":{"type":"LineString","coordinates":[[112.785747,-7.914499],[112.783744,-7.91529],[112.782817,-7.915988]]}},{"id":"459","type":"Feature","properties":{"osm_id":1211321881,"waterway":"stream","name":""},"geometry":{"type":"LineString","coordinates":[[112.868042,-7.931602],[112.867398,-7.931076],[112.864046,-7.931216]]}},{"id":"462","type":"Feature","properties":{"osm_id":1211321884,"waterway":"stream","name":""},"geometry":{"type":"LineString","coordinates":[[112.860387,-7.930556],[112.85786,-7.928887]]}},{"id":"458","type":"Feature","properties":{"osm_id":1211321880,"waterway":"stream","name":""},"geometry":{"type":"LineString","coordinates":[[112.849503,-7.93122],[112.846659,-7.927458],[112.846353,-7.925637]]}},{"id":"464","type":"Feature","properties":{"osm_id":1211321886,"waterway":"stream","name":""},"geometry":{"type":"LineString","coordinates":[[112.860486,-7.925192],[112.858212,-7.92626],[112.854969,-7.925729],[112.85417,-7.926528]]}},{"id":"648","type":"Feature","properties":{"osm_id":1212050385,"waterway":"stream","name":""},"geometry":{"type":"LineString","coordinates":[[112.84441,-7.929679],[112.842959,-7.928897],[112.84205,-7.926451],[112.840076,-7.924302],[112.838048,-7.923109],[112.837667,-7.921402],[112.838409,-7.918462]]}},{"id":"456","type":"Feature","properties":{"osm_id":1211321878,"waterway":"stream","name":""},"geometry":{"type":"LineString","coordinates":[[112.861438,-7.922167],[112.859974,-7.922009]]}},{"id":"457","type":"Feature","properties":{"osm_id":1211321879,"waterway":"stream","name":""},"geometry":{"type":"LineString","coordinates":[[112.865319,-7.916518],[112.863788,-7.917273],[112.855548,-7.918431],[112.854797,-7.919399],[112.853799,-7.91946],[112.849976,-7.922],[112.846138,-7.923174],[112.844573,-7.923035]]}},{"id":"474","type":"Feature","properties":{"osm_id":1211321896,"waterway":"stream","name":""},"geometry":{"type":"LineString","coordinates":[[112.884157,-7.939726],[112.884798,-7.938438],[112.884251,-7.934958],[112.880876,-7.932981],[112.880369,-7.931233],[112.879122,-7.930107],[112.876923,-7.929397],[112.876094,-7.92634],[112.874039,-7.92409],[112.866052,-7.920623],[112.864829,-7.920915],[112.862533,-7.919967],[112.860564,-7.920973],[112.858987,-7.923309],[112.857324,-7.922883],[112.856479,-7.923959],[112.854875,-7.923943],[112.848872,-7.92631],[112.846421,-7.92567],[112.844838,-7.924815],[112.844546,-7.922915],[112.843481,-7.922743],[112.84196,-7.921236],[112.84048,-7.918763],[112.838353,-7.918418],[112.838138,-7.916037],[112.837213,-7.914967],[112.836344,-7.915386],[112.835209,-7.9138],[112.83393,-7.913519],[112.832943,-7.910626],[112.833825,-7.909954],[112.833069,-7.909409],[112.833433,-7.908787],[112.83253,-7.90867],[112.832814,-7.906856],[112.829021,-7.907547],[112.828772,-7.908532],[112.827243,-7.908041],[112.826202,-7.906441],[112.825322,-7.907079],[112.825239,-7.905785],[112.822646,-7.904773],[112.82231,-7.903984],[112.821259,-7.903681],[112.821355,-7.902799],[112.820438,-7.901906],[112.818282,-7.90078],[112.818089,-7.898904],[112.813722,-7.897868]]}},{"id":"635","type":"Feature","properties":{"osm_id":1212050372,"waterway":"stream","name":""},"geometry":{"type":"LineString","coordinates":[[112.856883,-7.914192],[112.852894,-7.918517],[112.852958,-7.920023]]}},{"id":"647","type":"Feature","properties":{"osm_id":1212050384,"waterway":"stream","name":""},"geometry":{"type":"LineString","coordinates":[[112.84151,-7.931457],[112.839554,-7.929246],[112.831537,-7.931924],[112.829088,-7.928869],[112.826605,-7.928077],[112.82433,-7.924345],[112.823853,-7.921162],[112.824577,-7.919223],[112.823402,-7.918296],[112.82319,-7.916725],[112.820878,-7.914175],[112.816621,-7.911959],[112.816141,-7.910514],[112.814752,-7.909255],[112.815004,-7.908612],[112.814237,-7.908471],[112.81347,-7.906184],[112.813497,-7.900392],[112.811808,-7.898192]]}},{"id":"556","type":"Feature","properties":{"osm_id":1211342393,"waterway":"stream","name":""},"geometry":{"type":"LineString","coordinates":[[112.895701,-7.93131],[112.895909,-7.929357]]}},{"id":"557","type":"Feature","properties":{"osm_id":1211342394,"waterway":"stream","name":""},"geometry":{"type":"LineString","coordinates":[[112.904209,-7.930836],[112.902688,-7.93099],[112.899781,-7.929223],[112.897508,-7.929324]]}},{"id":"471","type":"Feature","properties":{"osm_id":1211321893,"waterway":"stream","name":""},"geometry":{"type":"LineString","coordinates":[[112.900623,-7.930457],[112.897173,-7.929214],[112.896096,-7.929448],[112.891537,-7.927115],[112.888451,-7.927527],[112.886391,-7.926563]]}},{"id":"629","type":"Feature","properties":{"osm_id":1211558397,"waterway":"stream","name":""},"geometry":{"type":"LineString","coordinates":[[112.88262,-7.92893],[112.881396,-7.925254]]}},{"id":"475","type":"Feature","properties":{"osm_id":1211321897,"waterway":"stream","name":""},"geometry":{"type":"LineString","coordinates":[[112.925561,-7.925297],[112.922917,-7.925594],[112.92126,-7.924912],[112.919667,-7.923266],[112.915576,-7.924323],[112.914069,-7.924318],[112.91213,-7.923356],[112.9092,-7.92567],[112.904794,-7.925104],[112.902538,-7.924116],[112.901519,-7.924988],[112.900875,-7.924132],[112.897798,-7.925314],[112.895883,-7.92308],[112.894708,-7.922756],[112.890894,-7.924225],[112.888038,-7.923997],[112.888218,-7.925357],[112.886536,-7.925763],[112.886391,-7.926563],[112.883449,-7.926215],[112.882789,-7.925351],[112.881348,-7.925237],[112.880544,-7.923888],[112.878757,-7.923476],[112.878149,-7.922249],[112.875657,-7.92249],[112.873154,-7.921547],[112.871815,-7.922985]]}},{"id":"616","type":"Feature","properties":{"osm_id":1211537620,"waterway":"stream","name":""},"geometry":{"type":"LineString","coordinates":[[112.90478,-7.921234],[112.902782,-7.921586],[112.900939,-7.924151]]}},{"id":"620","type":"Feature","properties":{"osm_id":1211537624,"waterway":"stream","name":""},"geometry":{"type":"LineString","coordinates":[[112.908366,-7.917844],[112.906194,-7.91706],[112.905507,-7.917711],[112.902716,-7.917522],[112.899809,-7.918207],[112.899754,-7.919302],[112.89894,-7.920103],[112.898946,-7.922695],[112.897346,-7.924595]]}},{"id":"634","type":"Feature","properties":{"osm_id":1212050370,"waterway":"stream","name":""},"geometry":{"type":"LineString","coordinates":[[112.8934,-7.910636],[112.891388,-7.90977],[112.888851,-7.911502],[112.887135,-7.911735]]}},{"id":"677","type":"Feature","properties":{"osm_id":1212347877,"waterway":"stream","name":""},"geometry":{"type":"LineString","coordinates":[[112.835155,-7.927208],[112.834375,-7.92758],[112.829043,-7.925221],[112.82775,-7.923359],[112.828305,-7.920562],[112.826808,-7.918272],[112.827498,-7.916906],[112.826977,-7.915841],[112.822914,-7.913774],[112.822831,-7.91189],[112.821897,-7.910256],[112.817246,-7.909005],[112.813816,-7.905923]]}},{"id":"670","type":"Feature","properties":{"osm_id":1212347869,"waterway":"stream","name":""},"geometry":{"type":"LineString","coordinates":[[112.793568,-7.913508],[112.791846,-7.916736],[112.791519,-7.919159]]}},{"id":"664","type":"Feature","properties":{"osm_id":1212347863,"waterway":"stream","name":""},"geometry":{"type":"LineString","coordinates":[[112.790202,-7.912422],[112.78902,-7.913547],[112.785747,-7.914499]]}},{"id":"667","type":"Feature","properties":{"osm_id":1212347866,"waterway":"stream","name":""},"geometry":{"type":"LineString","coordinates":[[112.790877,-7.912289],[112.790202,-7.912422]]}},{"id":"666","type":"Feature","properties":{"osm_id":1212347865,"waterway":"stream","name":""},"geometry":{"type":"LineString","coordinates":[[112.79032,-7.91188],[112.790202,-7.912422]]}},{"id":"662","type":"Feature","properties":{"osm_id":1212347861,"waterway":"stream","name":""},"geometry":{"type":"LineString","coordinates":[[112.77823,-7.896056],[112.775079,-7.896896],[112.772268,-7.89684]]}},{"id":"661","type":"Feature","properties":{"osm_id":1212347860,"waterway":"stream","name":""},"geometry":{"type":"LineString","coordinates":[[112.784678,-7.897532],[112.781632,-7.896414],[112.77823,-7.896056]]}},{"id":"658","type":"Feature","properties":{"osm_id":1212347857,"waterway":"stream","name":""},"geometry":{"type":"LineString","coordinates":[[112.778708,-7.887748],[112.773057,-7.88791],[112.769342,-7.8849],[112.768532,-7.88476]]}},{"id":"654","type":"Feature","properties":{"osm_id":1212347853,"waterway":"stream","name":""},"geometry":{"type":"LineString","coordinates":[[112.74668,-7.877308],[112.746136,-7.876882],[112.744567,-7.877211],[112.742584,-7.875787],[112.741063,-7.877046],[112.738379,-7.876659],[112.73391,-7.877357],[112.732598,-7.876507],[112.731799,-7.877352],[112.728774,-7.876627],[112.727894,-7.877062],[112.725418,-7.874871],[112.724933,-7.875745],[112.723744,-7.875288],[112.722017,-7.875755],[112.721108,-7.877697],[112.719643,-7.878229],[112.718951,-7.880934],[112.717118,-7.881559],[112.71463,-7.880996],[112.713433,-7.88182],[112.710814,-7.880965],[112.710275,-7.882075]]}},{"id":"76","type":"Feature","properties":{"osm_id":563736651,"waterway":"stream","name":""},"geometry":{"type":"LineString","coordinates":[[112.813722,-7.897868],[112.811217,-7.898112],[112.804922,-7.894943],[112.80199,-7.894988],[112.798986,-7.891975],[112.799549,-7.890966],[112.799152,-7.889186],[112.797626,-7.888046],[112.798626,-7.885084],[112.797886,-7.883752],[112.796352,-7.883423],[112.797098,-7.881667],[112.794614,-7.880062],[112.796014,-7.878558],[112.796046,-7.877687],[112.794989,-7.876582],[112.796041,-7.8758],[112.796025,-7.875046],[112.793675,-7.873515],[112.793702,-7.872474],[112.792461,-7.872743],[112.789846,-7.870334],[112.788461,-7.868361],[112.788541,-7.867128],[112.7873,-7.865919],[112.787943,-7.862279],[112.787705,-7.86111],[112.786296,-7.860284],[112.787927,-7.858559],[112.788506,-7.856861],[112.786063,-7.852315]]}},{"id":"656","type":"Feature","properties":{"osm_id":1212347855,"waterway":"stream","name":""},"geometry":{"type":"MultiLineString","coordinates":[[[112.775844,-7.870061],[112.772437,-7.871571],[112.771314,-7.87151],[112.771547,-7.872293],[112.770909,-7.871884],[112.770034,-7.873218],[112.768076,-7.873213],[112.765737,-7.875508],[112.762722,-7.876042]],[[112.762113,-7.876149],[112.760676,-7.876404],[112.759428,-7.87722]]]}},{"id":"655","type":"Feature","properties":{"osm_id":1212347854,"waterway":"stream","name":""},"geometry":{"type":"LineString","coordinates":[[112.780302,-7.874227],[112.779331,-7.874164],[112.775844,-7.870061]]}},{"id":"1288","type":"Feature","properties":{"osm_id":1486918364,"waterway":"stream","name":""},"geometry":{"type":"LineString","coordinates":[[112.711459,-7.818652],[112.720683,-7.812448],[112.721521,-7.811236],[112.725135,-7.809914],[112.726827,-7.808027],[112.72811,-7.808008],[112.733301,-7.803166],[112.73847,-7.793802],[112.740461,-7.783856],[112.741991,-7.779766]]}},{"id":"1289","type":"Feature","properties":{"osm_id":1486918365,"waterway":"stream","name":""},"geometry":{"type":"LineString","coordinates":[[112.728771,-7.788108],[112.732832,-7.784132],[112.737375,-7.783888],[112.738561,-7.782442],[112.73928,-7.782798],[112.740133,-7.781948],[112.741099,-7.781949]]}},{"id":"151","type":"Feature","properties":{"osm_id":680273289,"waterway":"canal","name":""},"geometry":{"type":"LineString","coordinates":[[112.76219,-7.786274],[112.763613,-7.786851],[112.764224,-7.785264],[112.768977,-7.781682],[112.769018,-7.779827],[112.767129,-7.777924],[112.765418,-7.777884],[112.765147,-7.777212]]}},{"id":"152","type":"Feature","properties":{"osm_id":680273290,"waterway":"stream","name":""},"geometry":{"type":"LineString","coordinates":[[112.741086,-7.782043],[112.742386,-7.78249],[112.743614,-7.781762],[112.74444,-7.782325],[112.745165,-7.781262],[112.748904,-7.781209],[112.749757,-7.780438],[112.751543,-7.781049],[112.75293,-7.779782],[112.753697,-7.780555],[112.755706,-7.780661],[112.756403,-7.779609],[112.757658,-7.780353],[112.759134,-7.778939],[112.761944,-7.777887],[112.763935,-7.778312],[112.76489,-7.777228],[112.768559,-7.777148],[112.769326,-7.777829],[112.770892,-7.776441],[112.771971,-7.777271],[112.775076,-7.776946]]}},{"id":"1290","type":"Feature","properties":{"osm_id":1486918366,"waterway":"stream","name":""},"geometry":{"type":"LineString","coordinates":[[112.741991,-7.779766],[112.742606,-7.77829]]}},{"id":"565","type":"Feature","properties":{"osm_id":1211342402,"waterway":"stream","name":""},"geometry":{"type":"LineString","coordinates":[[112.922526,-7.928438],[112.920238,-7.926632],[112.918663,-7.923561]]}},{"id":"566","type":"Feature","properties":{"osm_id":1211342403,"waterway":"stream","name":""},"geometry":{"type":"LineString","coordinates":[[112.919825,-7.927782],[112.919074,-7.925763],[112.916823,-7.924127]]}},{"id":"621","type":"Feature","properties":{"osm_id":1211537625,"waterway":"stream","name":""},"geometry":{"type":"LineString","coordinates":[[112.914594,-7.923223],[112.913785,-7.924181]]}},{"id":"622","type":"Feature","properties":{"osm_id":1211537626,"waterway":"stream","name":""},"geometry":{"type":"LineString","coordinates":[[112.930047,-7.919511],[112.927645,-7.919305],[112.922219,-7.921291],[112.919709,-7.921034],[112.914594,-7.923223]]}},{"id":"614","type":"Feature","properties":{"osm_id":1211537618,"waterway":"stream","name":""},"geometry":{"type":"LineString","coordinates":[[112.912698,-7.918625],[112.909592,-7.919246],[112.908366,-7.917844]]}},{"id":"615","type":"Feature","properties":{"osm_id":1211537619,"waterway":"stream","name":""},"geometry":{"type":"LineString","coordinates":[[112.907752,-7.918994],[112.907657,-7.917399]]}},{"id":"613","type":"Feature","properties":{"osm_id":1211537617,"waterway":"stream","name":""},"geometry":{"type":"LineString","coordinates":[[112.913098,-7.915979],[112.909581,-7.915081],[112.907333,-7.917185]]}},{"id":"619","type":"Feature","properties":{"osm_id":1211537623,"waterway":"stream","name":""},"geometry":{"type":"LineString","coordinates":[[112.908876,-7.913872],[112.907792,-7.913917],[112.905148,-7.915851],[112.905038,-7.917496]]}},{"id":"609","type":"Feature","properties":{"osm_id":1211537613,"waterway":"stream","name":""},"geometry":{"type":"LineString","coordinates":[[112.925524,-7.915966],[112.926966,-7.91405]]}},{"id":"608","type":"Feature","properties":{"osm_id":1211537612,"waterway":"stream","name":""},"geometry":{"type":"LineString","coordinates":[[112.924401,-7.914778],[112.925755,-7.912791]]}},{"id":"612","type":"Feature","properties":{"osm_id":1211537616,"waterway":"stream","name":""},"geometry":{"type":"LineString","coordinates":[[112.912438,-7.913314],[112.9107,-7.913104],[112.908876,-7.913872]]}},{"id":"610","type":"Feature","properties":{"osm_id":1211537614,"waterway":"stream","name":""},"geometry":{"type":"LineString","coordinates":[[112.92148,-7.916128],[112.918658,-7.912725],[112.918505,-7.911712],[112.919329,-7.910359]]}},{"id":"611","type":"Feature","properties":{"osm_id":1211537615,"waterway":"stream","name":""},"geometry":{"type":"LineString","coordinates":[[112.918886,-7.916524],[112.917183,-7.913856],[112.917474,-7.906973]]}},{"id":"618","type":"Feature","properties":{"osm_id":1211537622,"waterway":"stream","name":""},"geometry":{"type":"LineString","coordinates":[[112.931393,-7.915838],[112.927099,-7.914224],[112.924413,-7.911453],[112.919386,-7.91044],[112.916469,-7.904252]]}},{"id":"628","type":"Feature","properties":{"osm_id":1211558396,"waterway":"stream","name":""},"geometry":{"type":"LineString","coordinates":[[112.911035,-7.91045],[112.911704,-7.905587],[112.9124,-7.905042]]}},{"id":"627","type":"Feature","properties":{"osm_id":1211558395,"waterway":"stream","name":""},"geometry":{"type":"LineString","coordinates":[[112.912442,-7.909927],[112.912887,-7.906343],[112.912191,-7.902457]]}},{"id":"617","type":"Feature","properties":{"osm_id":1211537621,"waterway":"stream","name":""},"geometry":{"type":"LineString","coordinates":[[112.916684,-7.904092],[112.911907,-7.902289],[112.911904,-7.902235]]}},{"id":"626","type":"Feature","properties":{"osm_id":1211537630,"waterway":"stream","name":""},"geometry":{"type":"LineString","coordinates":[[112.90064,-7.915301],[112.898387,-7.916397],[112.896587,-7.915037],[112.887995,-7.913799],[112.886123,-7.910684],[112.885978,-7.910608]]}},{"id":"455","type":"Feature","properties":{"osm_id":1211321877,"waterway":"stream","name":""},"geometry":{"type":"MultiLineString","coordinates":[[[112.860258,-7.913078],[112.855387,-7.909234],[112.8544,-7.907597],[112.852748,-7.907709],[112.852051,-7.906965],[112.850484,-7.906859],[112.850344,-7.906746]],[[112.848617,-7.905595],[112.848038,-7.905602],[112.847019,-7.904194],[112.84611,-7.904717],[112.844862,-7.903551],[112.843591,-7.903918],[112.844683,-7.902504],[112.843757,-7.902318],[112.84291,-7.89959],[112.841625,-7.899598],[112.841161,-7.897273],[112.841601,-7.896518],[112.840187,-7.896149],[112.84071,-7.895177],[112.839648,-7.893386],[112.840186,-7.892703],[112.839688,-7.892034],[112.840085,-7.890171],[112.838597,-7.88952],[112.837363,-7.886646],[112.837293,-7.884871],[112.836108,-7.88477],[112.835652,-7.882724],[112.833906,-7.882474],[112.834061,-7.880963],[112.833213,-7.881],[112.830808,-7.878933],[112.829815,-7.874796],[112.82996,-7.874076],[112.832071,-7.872934],[112.831934,-7.871937],[112.834801,-7.870037],[112.834777,-7.868993],[112.835764,-7.868382],[112.83537,-7.866416],[112.836832,-7.866249],[112.836652,-7.865611],[112.837492,-7.865483],[112.838374,-7.86551],[112.838872,-7.866313],[112.839559,-7.865382]]]}},{"id":"15","type":"Feature","properties":{"osm_id":228846778,"waterway":"river","name":""},"geometry":{"type":"LineString","coordinates":[[112.846632,-7.699916],[112.848331,-7.698524],[112.851694,-7.69895],[112.852831,-7.696782],[112.856548,-7.696779]]}},{"id":"63","type":"Feature","properties":{"osm_id":561180443,"waterway":"river","name":""},"geometry":{"type":"LineString","coordinates":[[112.856548,-7.696779],[112.856634,-7.696796]]}},{"id":"62","type":"Feature","properties":{"osm_id":561180442,"waterway":"river","name":""},"geometry":{"type":"LineString","coordinates":[[112.856634,-7.696796],[112.858375,-7.696113]]}},{"id":"1291","type":"Feature","properties":{"osm_id":1486918367,"waterway":"stream","name":""},"geometry":{"type":"LineString","coordinates":[[112.742606,-7.77829],[112.74279,-7.777799]]}},{"id":"150","type":"Feature","properties":{"osm_id":680273278,"waterway":"stream","name":""},"geometry":{"type":"LineString","coordinates":[[112.709727,-7.777361],[112.711144,-7.777733],[112.711471,-7.776128],[112.712967,-7.776229],[112.713767,-7.775081],[112.715301,-7.774464],[112.718187,-7.774129],[112.71926,-7.774576],[112.72022,-7.773497],[112.721872,-7.77456],[112.723149,-7.773566],[112.7264,-7.7736],[112.730354,-7.772041],[112.731523,-7.772662],[112.734334,-7.772381],[112.736582,-7.773481],[112.739409,-7.773231],[112.744137,-7.773981],[112.746473,-7.775735],[112.748281,-7.775352],[112.752036,-7.77717],[112.754279,-7.776473],[112.760094,-7.776617],[112.761124,-7.778142]]}},{"id":"154","type":"Feature","properties":{"osm_id":680273294,"waterway":"canal","name":""},"geometry":{"type":"LineString","coordinates":[[112.765147,-7.777212],[112.767383,-7.775197],[112.769107,-7.767386]]}},{"id":"1293","type":"Feature","properties":{"osm_id":1487095985,"waterway":"stream","name":""},"geometry":{"type":"LineString","coordinates":[[112.732968,-7.769386],[112.735957,-7.768249]]}},{"id":"1294","type":"Feature","properties":{"osm_id":1487095986,"waterway":"stream","name":""},"geometry":{"type":"LineString","coordinates":[[112.735957,-7.768249],[112.736246,-7.768265]]}},{"id":"153","type":"Feature","properties":{"osm_id":680273293,"waterway":"canal","name":""},"geometry":{"type":"LineString","coordinates":[[112.769107,-7.767386],[112.769127,-7.767225]]}},{"id":"1292","type":"Feature","properties":{"osm_id":1487095974,"waterway":"stream","name":""},"geometry":{"type":"LineString","coordinates":[[112.736246,-7.768265],[112.738957,-7.767189],[112.741528,-7.766981],[112.74241,-7.764644],[112.745087,-7.764068],[112.745966,-7.762581]]}},{"id":"171","type":"Feature","properties":{"osm_id":699530672,"waterway":"stream","name":""},"geometry":{"type":"LineString","coordinates":[[112.723594,-7.759794],[112.72404,-7.759042]]}},{"id":"85","type":"Feature","properties":{"osm_id":571282769,"waterway":"stream","name":""},"geometry":{"type":"LineString","coordinates":[[112.769127,-7.767225],[112.770081,-7.76528],[112.769202,-7.763307],[112.770137,-7.760881],[112.767995,-7.760103],[112.766458,-7.757857],[112.767094,-7.754088],[112.76501,-7.748342],[112.766094,-7.747125]]}},{"id":"156","type":"Feature","properties":{"osm_id":680273314,"waterway":"stream","name":""},"geometry":{"type":"LineString","coordinates":[[112.72404,-7.759042],[112.72423,-7.758088],[112.725584,-7.757891],[112.727953,-7.754838],[112.728621,-7.755335],[112.729321,-7.75438],[112.732129,-7.753724],[112.73329,-7.752379],[112.735042,-7.752834],[112.735479,-7.753575],[112.737027,-7.751457],[112.737998,-7.752175],[112.741302,-7.751343],[112.741672,-7.750524],[112.746066,-7.749652],[112.746409,-7.748903],[112.749295,-7.750439],[112.749746,-7.749562],[112.750454,-7.750259],[112.751033,-7.749296],[112.751763,-7.749961],[112.752128,-7.749179],[112.755287,-7.748276],[112.756095,-7.748813],[112.756634,-7.748217],[112.757755,-7.748382],[112.757983,-7.747534],[112.759986,-7.748318],[112.766386,-7.744895],[112.767845,-7.744598],[112.769396,-7.745241],[112.772132,-7.742397],[112.773441,-7.742503],[112.774605,-7.741355],[112.776842,-7.740786]]}},{"id":"155","type":"Feature","properties":{"osm_id":680273313,"waterway":"stream","name":""},"geometry":{"type":"LineString","coordinates":[[112.754668,-7.751407],[112.76372,-7.749145],[112.767936,-7.74462]]}},{"id":"1197","type":"Feature","properties":{"osm_id":1339209511,"waterway":"stream","name":""},"geometry":{"type":"LineString","coordinates":[[112.716793,-7.747776],[112.718399,-7.745851],[112.722802,-7.743212],[112.724017,-7.743095],[112.72714,-7.740626],[112.728489,-7.740489],[112.729921,-7.739079],[112.732921,-7.738265],[112.735792,-7.739127],[112.73772,-7.73804],[112.740536,-7.738262],[112.743589,-7.736659],[112.744224,-7.734947],[112.746671,-7.732562],[112.748017,-7.732111],[112.749363,-7.732582],[112.752216,-7.731418],[112.756332,-7.730935],[112.759349,-7.729485],[112.761553,-7.729461],[112.762732,-7.730113],[112.764106,-7.729493],[112.765463,-7.730556],[112.767382,-7.729686],[112.768919,-7.730597],[112.776297,-7.728375],[112.77731,-7.728787],[112.781793,-7.724668]]}},{"id":"1194","type":"Feature","properties":{"osm_id":1339209502,"waterway":"stream","name":""},"geometry":{"type":"LineString","coordinates":[[112.721503,-7.713871],[112.724318,-7.714286],[112.728963,-7.717743]]}},{"id":"1195","type":"Feature","properties":{"osm_id":1339209505,"waterway":"river","name":""},"geometry":{"type":"LineString","coordinates":[[112.709042,-7.729777],[112.718723,-7.725616],[112.719595,-7.723791],[112.723301,-7.722795],[112.723343,-7.72192],[112.727403,-7.719202],[112.727898,-7.717789],[112.732598,-7.716094],[112.732919,-7.714574],[112.736061,-7.712955],[112.737067,-7.711156],[112.741976,-7.708517],[112.744226,-7.708226],[112.746959,-7.706942],[112.747957,-7.705533],[112.749691,-7.704593],[112.750399,-7.703119],[112.753662,-7.701168]]}},{"id":"4","type":"Feature","properties":{"osm_id":142790104,"waterway":"river","name":"Sungai Welang"},"geometry":{"type":"LineString","coordinates":[[112.709191,-7.832432],[112.714008,-7.833862],[112.718267,-7.833543],[112.71919,-7.832629],[112.723088,-7.831953],[112.723051,-7.831342],[112.724097,-7.831129],[112.725304,-7.828504],[112.726404,-7.829248],[112.727542,-7.827941],[112.728363,-7.825454],[112.730117,-7.826474],[112.730051,-7.824693],[112.730943,-7.823047],[112.733218,-7.822069],[112.732283,-7.820968],[112.733357,-7.819906],[112.732851,-7.817179],[112.734876,-7.816627],[112.734713,-7.815404],[112.736968,-7.814554],[112.740165,-7.815447],[112.740205,-7.814255],[112.742311,-7.811971],[112.741892,-7.808516],[112.742775,-7.805931],[112.744245,-7.805514],[112.747423,-7.801642],[112.74937,-7.800938],[112.751355,-7.798748],[112.755207,-7.797515],[112.757352,-7.794836],[112.757642,-7.793167],[112.759284,-7.792179],[112.759208,-7.790425],[112.760517,-7.789819],[112.760206,-7.788596],[112.761354,-7.788118],[112.761601,-7.786205],[112.763638,-7.78714],[112.765238,-7.784695],[112.767738,-7.783824],[112.768349,-7.78258],[112.771407,-7.782867],[112.771804,-7.779752],[112.775076,-7.780018],[112.775076,-7.776946],[112.776042,-7.776999],[112.779518,-7.772747],[112.780248,-7.773789],[112.781074,-7.773757],[112.78425,-7.771078],[112.786985,-7.763722],[112.788992,-7.762712],[112.791062,-7.760533],[112.791631,-7.756493],[112.792672,-7.754792],[112.793787,-7.750232],[112.797865,-7.748382],[112.798476,-7.747266],[112.798433,-7.74397],[112.800525,-7.741153],[112.799152,-7.73874],[112.80119,-7.73757],[112.801244,-7.735369],[112.799774,-7.73286],[112.803227,-7.7327],[112.804924,-7.729809],[112.807068,-7.729904],[112.809634,-7.72848],[112.811312,-7.722237],[112.814677,-7.717955],[112.815299,-7.715776],[112.817144,-7.714798],[112.817037,-7.713787],[112.815567,-7.712427],[112.816179,-7.710896],[112.817434,-7.710364],[112.820652,-7.712756],[112.821563,-7.710661],[112.827068,-7.707738],[112.826661,-7.705665],[112.829182,-7.70289],[112.835425,-7.702652],[112.835967,-7.701326],[112.839879,-7.698196],[112.841789,-7.695724],[112.845893,-7.688951],[112.854666,-7.682127],[112.855243,-7.677032],[112.85642,-7.675078],[112.856189,-7.672761],[112.85549,-7.671812],[112.855463,-7.668037],[112.857206,-7.666256],[112.856906,-7.663587],[112.857641,-7.66136],[112.859328,-7.660354],[112.859105,-7.659403],[112.859665,-7.658934],[112.860506,-7.658915],[112.862939,-7.657017],[112.863046,-7.655193],[112.864792,-7.652694],[112.865092,-7.651099],[112.867595,-7.648357],[112.867152,-7.647462],[112.867821,-7.645673],[112.868955,-7.64607],[112.869119,-7.644747],[112.871532,-7.644662],[112.87249,-7.643586],[112.872627,-7.639442],[112.873332,-7.638211],[112.875714,-7.636875],[112.874158,-7.63551],[112.875252,-7.634277],[112.87659,-7.634608],[112.875199,-7.632203],[112.873588,-7.631033],[112.874729,-7.630009],[112.874899,-7.62896],[112.875681,-7.61823],[112.875168,-7.613706],[112.875844,-7.612942],[112.874061,-7.611201],[112.874008,-7.608776],[112.873128,-7.608574],[112.872077,-7.60934],[112.871218,-7.608914],[112.871057,-7.606575],[112.86948,-7.602119],[112.86948,-7.599163],[112.870961,-7.592186],[112.870585,-7.587539],[112.871261,-7.584965],[112.87022,-7.582179],[112.870373,-7.579645]]}},{"id":"894","type":"Feature","properties":{"osm_id":1221702942,"waterway":"river","name":""},"geometry":{"type":"LineString","coordinates":[[112.719566,-7.701782],[112.721829,-7.699802],[112.72506,-7.698807],[112.728186,-7.699507],[112.729651,-7.698898],[112.73042,-7.69982],[112.73118,-7.698861],[112.735468,-7.70054],[112.737823,-7.700758],[112.740476,-7.698983],[112.743413,-7.699129],[112.750467,-7.702058],[112.7522,-7.70117],[112.756572,-7.701471],[112.758828,-7.699538],[112.766207,-7.696763],[112.769498,-7.698361],[112.772386,-7.697292],[112.773872,-7.698025],[112.775299,-7.696758],[112.780194,-7.696385],[112.78157,-7.69541]]}},{"id":"88","type":"Feature","properties":{"osm_id":572442271,"waterway":"river","name":""},"geometry":{"type":"LineString","coordinates":[[112.78157,-7.69541],[112.783625,-7.695012],[112.785453,-7.693327],[112.788104,-7.694151],[112.788624,-7.693289],[112.789998,-7.692835],[112.792932,-7.693319],[112.793447,-7.69197],[112.79412,-7.691934],[112.794533,-7.692835],[112.796064,-7.69112],[112.796529,-7.691555],[112.797996,-7.69061],[112.798711,-7.691245],[112.79886,-7.690559]]}},{"id":"87","type":"Feature","properties":{"osm_id":572442270,"waterway":"stream","name":""},"geometry":{"type":"LineString","coordinates":[[112.784833,-7.693727],[112.785244,-7.692924],[112.786913,-7.693083],[112.787576,-7.690565],[112.789797,-7.690981],[112.790368,-7.690304]]}},{"id":"90","type":"Feature","properties":{"osm_id":572450164,"waterway":"stream","name":""},"geometry":{"type":"LineString","coordinates":[[112.790368,-7.690304],[112.792799,-7.690868],[112.795671,-7.689818]]}},{"id":"89","type":"Feature","properties":{"osm_id":572450163,"waterway":"stream","name":""},"geometry":{"type":"LineString","coordinates":[[112.790368,-7.690304],[112.790769,-7.68805]]}},{"id":"64","type":"Feature","properties":{"osm_id":561180930,"waterway":"stream","name":""},"geometry":{"type":"LineString","coordinates":[[112.867389,-7.692647],[112.868313,-7.692753]]}},{"id":"82","type":"Feature","properties":{"osm_id":569382461,"waterway":"stream","name":""},"geometry":{"type":"LineString","coordinates":[[112.824228,-7.69679],[112.825568,-7.69488],[112.826657,-7.694828]]}},{"id":"26","type":"Feature","properties":{"osm_id":311512836,"waterway":"stream","name":""},"geometry":{"type":"LineString","coordinates":[[112.842708,-7.699377],[112.845274,-7.697981],[112.851154,-7.696273],[112.854005,-7.6919],[112.855681,-7.690695],[112.858586,-7.692058],[112.861002,-7.692162],[112.865391,-7.691015],[112.8673,-7.692569]]}},{"id":"65","type":"Feature","properties":{"osm_id":561180933,"waterway":"stream","name":""},"geometry":{"type":"LineString","coordinates":[[112.8673,-7.692569],[112.867389,-7.692647]]}},{"id":"98","type":"Feature","properties":{"osm_id":591908497,"waterway":"stream","name":""},"geometry":{"type":"LineString","coordinates":[[112.870326,-7.690292],[112.870021,-7.687792]]}},{"id":"96","type":"Feature","properties":{"osm_id":591908495,"waterway":"river","name":""},"geometry":{"type":"LineString","coordinates":[[112.869778,-7.687798],[112.870451,-7.687642]]}},{"id":"101","type":"Feature","properties":{"osm_id":591908506,"waterway":"stream","name":""},"geometry":{"type":"LineString","coordinates":[[112.856209,-7.686478],[112.856942,-7.685427]]}},{"id":"97","type":"Feature","properties":{"osm_id":591908496,"waterway":"stream","name":""},"geometry":{"type":"LineString","coordinates":[[112.87004,-7.687792],[112.870617,-7.687904],[112.871463,-7.686687],[112.874614,-7.686934],[112.876357,-7.683994],[112.876559,-7.684085]]}},{"id":"81","type":"Feature","properties":{"osm_id":569366273,"waterway":"stream","name":""},"geometry":{"type":"LineString","coordinates":[[112.853869,-7.685683],[112.854317,-7.684964],[112.854973,-7.68513],[112.856043,-7.681272],[112.85709,-7.680243]]}},{"id":"100","type":"Feature","properties":{"osm_id":591908499,"waterway":"river","name":""},"geometry":{"type":"LineString","coordinates":[[112.854993,-7.680907],[112.854364,-7.680618],[112.853875,-7.678517],[112.852493,-7.678537],[112.85176,-7.677812]]}},{"id":"44","type":"Feature","properties":{"osm_id":323541285,"waterway":"canal","name":""},"geometry":{"type":"LineString","coordinates":[[112.882282,-7.680217],[112.882239,-7.680168],[112.884643,-7.676967]]}},{"id":"13","type":"Feature","properties":{"osm_id":228214329,"waterway":"river","name":"Sungai Gembong"},"geometry":{"type":"MultiLineString","coordinates":[[[112.883474,-7.679591],[112.883756,-7.678668],[112.884743,-7.678922]],[[112.887449,-7.677444],[112.887957,-7.675304],[112.889326,-7.675245],[112.890046,-7.674507],[112.890377,-7.674641]],[[112.891181,-7.673569],[112.89067,-7.672712],[112.892706,-7.671501]],[[112.895355,-7.666303],[112.89429,-7.665866],[112.894204,-7.665277],[112.896256,-7.664627]],[[112.896781,-7.663576],[112.896239,-7.662907],[112.897727,-7.662209],[112.897447,-7.66035],[112.898771,-7.659818],[112.900438,-7.65597],[112.901315,-7.656692]]]}},{"id":"1202","type":"Feature","properties":{"osm_id":1379211791,"waterway":"stream","name":""},"geometry":{"type":"LineString","coordinates":[[112.890011,-7.667252],[112.88702,-7.666077],[112.887085,-7.659804]]}},{"id":"1205","type":"Feature","properties":{"osm_id":1379211794,"waterway":"stream","name":""},"geometry":{"type":"LineString","coordinates":[[112.887085,-7.659804],[112.887056,-7.659703]]}},{"id":"1204","type":"Feature","properties":{"osm_id":1379211793,"waterway":"stream","name":""},"geometry":{"type":"LineString","coordinates":[[112.887056,-7.659703],[112.887049,-7.659678]]}},{"id":"1203","type":"Feature","properties":{"osm_id":1379211792,"waterway":"stream","name":""},"geometry":{"type":"LineString","coordinates":[[112.887049,-7.659678],[112.887026,-7.659597]]}},{"id":"1206","type":"Feature","properties":{"osm_id":1379211795,"waterway":"stream","name":""},"geometry":{"type":"LineString","coordinates":[[112.887026,-7.659597],[112.887007,-7.65953]]}},{"id":"41","type":"Feature","properties":{"osm_id":323203583,"waterway":"stream","name":""},"geometry":{"type":"LineString","coordinates":[[112.85709,-7.680243],[112.858285,-7.679384],[112.859594,-7.679879],[112.861668,-7.678761],[112.861792,-7.678039],[112.862986,-7.678919]]}},{"id":"40","type":"Feature","properties":{"osm_id":323203582,"waterway":"stream","name":""},"geometry":{"type":"LineString","coordinates":[[112.862986,-7.678919],[112.863909,-7.677997],[112.865571,-7.67797]]}},{"id":"299","type":"Feature","properties":{"osm_id":1137195609,"waterway":"stream","name":""},"geometry":{"type":"LineString","coordinates":[[112.859439,-7.677527],[112.859456,-7.677406]]}},{"id":"298","type":"Feature","properties":{"osm_id":1137195608,"waterway":"stream","name":""},"geometry":{"type":"LineString","coordinates":[[112.859456,-7.677406],[112.859469,-7.677333]]}},{"id":"99","type":"Feature","properties":{"osm_id":591908498,"waterway":"river","name":""},"geometry":{"type":"LineString","coordinates":[[112.85147,-7.677915],[112.853899,-7.676664]]}},{"id":"86","type":"Feature","properties":{"osm_id":572438492,"waterway":"river","name":""},"geometry":{"type":"LineString","coordinates":[[112.853899,-7.676664],[112.85576,-7.67599]]}},{"id":"80","type":"Feature","properties":{"osm_id":569363379,"waterway":"stream","name":""},"geometry":{"type":"LineString","coordinates":[[112.829932,-7.675645],[112.830821,-7.674608]]}},{"id":"39","type":"Feature","properties":{"osm_id":323203581,"waterway":"stream","name":""},"geometry":{"type":"LineString","coordinates":[[112.859469,-7.677333],[112.860542,-7.677515],[112.861189,-7.676438],[112.861039,-7.67382],[112.861734,-7.671311],[112.862553,-7.670604],[112.862208,-7.669741],[112.863017,-7.670148],[112.862916,-7.669054],[112.865613,-7.666793]]}},{"id":"43","type":"Feature","properties":{"osm_id":323346646,"waterway":"stream","name":""},"geometry":{"type":"LineString","coordinates":[[112.858292,-7.678534],[112.858727,-7.675685],[112.86251,-7.665509],[112.866148,-7.664309]]}},{"id":"103","type":"Feature","properties":{"osm_id":593116832,"waterway":"stream","name":""},"geometry":{"type":"LineString","coordinates":[[112.872072,-7.668923],[112.872433,-7.667192],[112.873116,-7.666717]]}},{"id":"49","type":"Feature","properties":{"osm_id":463783156,"waterway":"stream","name":""},"geometry":{"type":"LineString","coordinates":[[112.887007,-7.65953],[112.885835,-7.658624],[112.886815,-7.65469],[112.885938,-7.654254],[112.885902,-7.652023],[112.885404,-7.651606],[112.885622,-7.65109],[112.888621,-7.650689]]}},{"id":"144","type":"Feature","properties":{"osm_id":677608499,"waterway":"stream","name":""},"geometry":{"type":"LineString","coordinates":[[112.888621,-7.650689],[112.888995,-7.650613]]}},{"id":"143","type":"Feature","properties":{"osm_id":677608496,"waterway":"stream","name":""},"geometry":{"type":"LineString","coordinates":[[112.888995,-7.650613],[112.889155,-7.650347]]}},{"id":"33","type":"Feature","properties":{"osm_id":320086929,"waterway":"stream","name":""},"geometry":{"type":"LineString","coordinates":[[112.889155,-7.650347],[112.890223,-7.650412],[112.890535,-7.647459],[112.889687,-7.647119],[112.889677,-7.646372],[112.890672,-7.644716]]}},{"id":"281","type":"Feature","properties":{"osm_id":1001071132,"waterway":"canal","name":"Selokan air"},"geometry":{"type":"LineString","coordinates":[[112.902359,-7.646432],[112.903162,-7.644236]]}},{"id":"1208","type":"Feature","properties":{"osm_id":1379229858,"waterway":"stream","name":""},"geometry":{"type":"LineString","coordinates":[[112.890672,-7.644716],[112.890678,-7.644637]]}},{"id":"1207","type":"Feature","properties":{"osm_id":1379229857,"waterway":"stream","name":""},"geometry":{"type":"LineString","coordinates":[[112.890678,-7.644637],[112.890905,-7.644343]]}},{"id":"282","type":"Feature","properties":{"osm_id":1001071512,"waterway":"canal","name":""},"geometry":{"type":"LineString","coordinates":[[112.903162,-7.644236],[112.90346,-7.643274]]}},{"id":"1211","type":"Feature","properties":{"osm_id":1381182150,"waterway":"stream","name":""},"geometry":{"type":"LineString","coordinates":[[112.886086,-7.62302],[112.886809,-7.619739],[112.889684,-7.615717]]}},{"id":"84","type":"Feature","properties":{"osm_id":570884529,"waterway":"river","name":""},"geometry":{"type":"LineString","coordinates":[[112.822281,-7.669664],[112.822951,-7.670148]]}},{"id":"83","type":"Feature","properties":{"osm_id":570884527,"waterway":"river","name":""},"geometry":{"type":"LineString","coordinates":[[112.821156,-7.670359],[112.822281,-7.669664],[112.82179,-7.667305]]}},{"id":"79","type":"Feature","properties":{"osm_id":568726456,"waterway":"river","name":""},"geometry":{"type":"LineString","coordinates":[[112.834822,-7.667901],[112.835795,-7.667727],[112.835526,-7.669026],[112.837154,-7.669357],[112.837465,-7.670124],[112.838229,-7.669003],[112.83986,-7.669026],[112.843886,-7.664188],[112.845072,-7.664402]]}},{"id":"652","type":"Feature","properties":{"osm_id":1212347850,"waterway":"stream","name":""},"geometry":{"type":"LineString","coordinates":[[112.708394,-7.88343],[112.708508,-7.884016],[112.707651,-7.88384],[112.707785,-7.884781],[112.707126,-7.885219],[112.707831,-7.885772],[112.707196,-7.886624]]}},{"id":"653","type":"Feature","properties":{"osm_id":1212347851,"waterway":"stream","name":""},"geometry":{"type":"LineString","coordinates":[[112.710275,-7.882075],[112.709068,-7.882522],[112.709413,-7.883285],[112.708394,-7.88343]]}},{"id":"1295","type":"Feature","properties":{"osm_id":1489343004,"waterway":"stream","name":""},"geometry":{"type":"LineString","coordinates":[[112.695956,-7.847281],[112.696592,-7.846807],[112.696808,-7.844279]]}},{"id":"1047","type":"Feature","properties":{"osm_id":1221801160,"waterway":"stream","name":""},"geometry":{"type":"LineString","coordinates":[[112.633542,-7.805344],[112.637968,-7.809282],[112.643053,-7.809697],[112.646744,-7.811695],[112.648611,-7.810526],[112.649759,-7.810536],[112.652349,-7.811838],[112.653723,-7.813906],[112.656673,-7.813757],[112.658996,-7.814777],[112.659838,-7.816],[112.666571,-7.817153]]}},{"id":"1048","type":"Feature","properties":{"osm_id":1221801161,"waterway":"stream","name":""},"geometry":{"type":"LineString","coordinates":[[112.626262,-7.805912],[112.631986,-7.816164],[112.634068,-7.817286]]}},{"id":"1046","type":"Feature","properties":{"osm_id":1221801159,"waterway":"stream","name":""},"geometry":{"type":"LineString","coordinates":[[112.625479,-7.801044],[112.633542,-7.805344]]}},{"id":"1044","type":"Feature","properties":{"osm_id":1221801157,"waterway":"stream","name":""},"geometry":{"type":"LineString","coordinates":[[112.632619,-7.797536],[112.63654,-7.797512],[112.641586,-7.795113],[112.648661,-7.796503]]}},{"id":"1051","type":"Feature","properties":{"osm_id":1221801164,"waterway":"stream","name":""},"geometry":{"type":"LineString","coordinates":[[112.607318,-7.77616],[112.610236,-7.78001],[112.61323,-7.781892],[112.618529,-7.782734],[112.622816,-7.781464],[112.624457,-7.782599],[112.625616,-7.781873],[112.626388,-7.783109],[112.628515,-7.78413],[112.629422,-7.783569],[112.631989,-7.783928],[112.632533,-7.784839],[112.634105,-7.785543],[112.634658,-7.785025],[112.635098,-7.78578],[112.636465,-7.784496],[112.638595,-7.784188],[112.639352,-7.783096],[112.6419,-7.783928],[112.643751,-7.78356]]}},{"id":"1058","type":"Feature","properties":{"osm_id":1221801171,"waterway":"stream","name":""},"geometry":{"type":"LineString","coordinates":[[112.630087,-7.768155],[112.634073,-7.773109],[112.643021,-7.777536],[112.646154,-7.778105],[112.647387,-7.779508],[112.649643,-7.780499],[112.650925,-7.784805],[112.655324,-7.787172],[112.657504,-7.787333]]}},{"id":"1057","type":"Feature","properties":{"osm_id":1221801170,"waterway":"stream","name":""},"geometry":{"type":"LineString","coordinates":[[112.624444,-7.768777],[112.627754,-7.768405],[112.630613,-7.769057]]}},{"id":"1056","type":"Feature","properties":{"osm_id":1221801169,"waterway":"stream","name":""},"geometry":{"type":"LineString","coordinates":[[112.620453,-7.764732],[112.622813,-7.764998],[112.624551,-7.764488],[112.630087,-7.768155]]}},{"id":"1082","type":"Feature","properties":{"osm_id":1221801195,"waterway":"stream","name":""},"geometry":{"type":"LineString","coordinates":[[112.640355,-7.766252],[112.646701,-7.765955],[112.650756,-7.763526]]}},{"id":"1083","type":"Feature","properties":{"osm_id":1221801196,"waterway":"stream","name":""},"geometry":{"type":"LineString","coordinates":[[112.636133,-7.765418],[112.646298,-7.764828],[112.648675,-7.764068],[112.649276,-7.7633]]}},{"id":"1054","type":"Feature","properties":{"osm_id":1221801167,"waterway":"stream","name":""},"geometry":{"type":"LineString","coordinates":[[112.586421,-7.770382],[112.586008,-7.772359],[112.586866,-7.773822]]}},{"id":"1101","type":"Feature","properties":{"osm_id":1221807540,"waterway":"stream","name":""},"geometry":{"type":"LineString","coordinates":[[112.584185,-7.758663],[112.58148,-7.760002],[112.57868,-7.76368],[112.57813,-7.763993]]}},{"id":"1053","type":"Feature","properties":{"osm_id":1221801166,"waterway":"stream","name":""},"geometry":{"type":"LineString","coordinates":[[112.600416,-7.779152],[112.603909,-7.784653],[112.604445,-7.786253],[112.604134,-7.787906],[112.605388,-7.790016]]}},{"id":"1052","type":"Feature","properties":{"osm_id":1221801165,"waterway":"stream","name":""},"geometry":{"type":"LineString","coordinates":[[112.594323,-7.767581],[112.595074,-7.770021],[112.59892,-7.775384],[112.600416,-7.779152]]}},{"id":"1050","type":"Feature","properties":{"osm_id":1221801163,"waterway":"stream","name":""},"geometry":{"type":"LineString","coordinates":[[112.599912,-7.767958],[112.605355,-7.77199],[112.607318,-7.77616]]}},{"id":"1090","type":"Feature","properties":{"osm_id":1221801203,"waterway":"stream","name":""},"geometry":{"type":"LineString","coordinates":[[112.598003,-7.763355],[112.608026,-7.764115],[112.608297,-7.764982],[112.610298,-7.76626],[112.613449,-7.766749],[112.617706,-7.770542]]}},{"id":"941","type":"Feature","properties":{"osm_id":1221702989,"waterway":"stream","name":""},"geometry":{"type":"LineString","coordinates":[[112.60348,-7.75475],[112.605808,-7.752884],[112.608603,-7.752124],[112.61063,-7.750577]]}},{"id":"942","type":"Feature","properties":{"osm_id":1221702990,"waterway":"stream","name":""},"geometry":{"type":"LineString","coordinates":[[112.604434,-7.749456],[112.608235,-7.749719],[112.608992,-7.749291],[112.61063,-7.750577]]}},{"id":"903","type":"Feature","properties":{"osm_id":1221702951,"waterway":"stream","name":""},"geometry":{"type":"LineString","coordinates":[[112.58681,-7.745184],[112.589945,-7.744459],[112.590755,-7.743322],[112.594049,-7.743614],[112.596109,-7.743088],[112.599451,-7.741068],[112.600872,-7.739574],[112.601055,-7.738458]]}},{"id":"902","type":"Feature","properties":{"osm_id":1221702950,"waterway":"stream","name":""},"geometry":{"type":"LineString","coordinates":[[112.596329,-7.741148],[112.599253,-7.738155],[112.601055,-7.738458]]}},{"id":"901","type":"Feature","properties":{"osm_id":1221702949,"waterway":"stream","name":""},"geometry":{"type":"LineString","coordinates":[[112.601055,-7.738458],[112.602273,-7.736959]]}},{"id":"900","type":"Feature","properties":{"osm_id":1221702948,"waterway":"stream","name":""},"geometry":{"type":"LineString","coordinates":[[112.602273,-7.736959],[112.60466,-7.733705]]}},{"id":"1055","type":"Feature","properties":{"osm_id":1221801168,"waterway":"stream","name":""},"geometry":{"type":"LineString","coordinates":[[112.598448,-7.787199],[112.598963,-7.787582],[112.60002,-7.78915],[112.605388,-7.790016],[112.606521,-7.791265],[112.608769,-7.79143],[112.609837,-7.794151],[112.61673,-7.800056],[112.617899,-7.802288],[112.623752,-7.806269],[112.627539,-7.811105],[112.628714,-7.815022],[112.632453,-7.819257],[112.63418,-7.820113],[112.634427,-7.823727],[112.635629,-7.825837],[112.63815,-7.827702],[112.638558,-7.828999],[112.640875,-7.83139],[112.642897,-7.836163],[112.643552,-7.835924],[112.64411,-7.837704],[112.644898,-7.838065]]}},{"id":"1049","type":"Feature","properties":{"osm_id":1221801162,"waterway":"stream","name":""},"geometry":{"type":"LineString","coordinates":[[112.615426,-7.795081],[112.616118,-7.796532],[112.618725,-7.798408],[112.619868,-7.800029],[112.621172,-7.80039],[112.625168,-7.80392],[112.626262,-7.805912]]}},{"id":"1059","type":"Feature","properties":{"osm_id":1221801172,"waterway":"stream","name":""},"geometry":{"type":"LineString","coordinates":[[112.621681,-7.769489],[112.624444,-7.768777]]}},{"id":"1060","type":"Feature","properties":{"osm_id":1221801173,"waterway":"stream","name":""},"geometry":{"type":"LineString","coordinates":[[112.618731,-7.767751],[112.624444,-7.768777]]}},{"id":"917","type":"Feature","properties":{"osm_id":1221702965,"waterway":"stream","name":""},"geometry":{"type":"LineString","coordinates":[[112.617593,-7.761067],[112.620434,-7.759199],[112.622827,-7.758922]]}},{"id":"918","type":"Feature","properties":{"osm_id":1221702966,"waterway":"stream","name":""},"geometry":{"type":"LineString","coordinates":[[112.6121,-7.759295],[112.616545,-7.758768],[112.619533,-7.75757],[112.622151,-7.757905],[112.622827,-7.758922]]}},{"id":"924","type":"Feature","properties":{"osm_id":1221702972,"waterway":"stream","name":""},"geometry":{"type":"LineString","coordinates":[[112.599521,-7.761522],[112.606366,-7.758901],[112.613323,-7.758598],[112.61739,-7.757727],[112.620136,-7.756089],[112.623961,-7.75602],[112.625962,-7.755234]]}},{"id":"923","type":"Feature","properties":{"osm_id":1221702971,"waterway":"stream","name":""},"geometry":{"type":"LineString","coordinates":[[112.617634,-7.75589],[112.618398,-7.755],[112.620689,-7.7547],[112.625962,-7.755234]]}},{"id":"1086","type":"Feature","properties":{"osm_id":1221801199,"waterway":"stream","name":""},"geometry":{"type":"LineString","coordinates":[[112.614385,-7.753868],[112.616068,-7.753646]]}},{"id":"1087","type":"Feature","properties":{"osm_id":1221801200,"waterway":"stream","name":""},"geometry":{"type":"LineString","coordinates":[[112.609863,-7.753937],[112.613291,-7.753209],[112.616068,-7.753646]]}},{"id":"1045","type":"Feature","properties":{"osm_id":1221801158,"waterway":"stream","name":""},"geometry":{"type":"LineString","coordinates":[[112.648661,-7.796503],[112.654903,-7.796923],[112.659068,-7.795751],[112.661257,-7.794403],[112.664342,-7.795129],[112.665066,-7.7946],[112.668327,-7.79574],[112.670704,-7.797497],[112.672954,-7.797353],[112.675746,-7.798602],[112.677125,-7.79823]]}},{"id":"1061","type":"Feature","properties":{"osm_id":1221801174,"waterway":"stream","name":""},"geometry":{"type":"LineString","coordinates":[[112.654023,-7.792323],[112.657446,-7.791127],[112.658556,-7.789522],[112.664213,-7.790345],[112.665498,-7.789973],[112.665742,-7.788857]]}},{"id":"1066","type":"Feature","properties":{"osm_id":1221801179,"waterway":"stream","name":""},"geometry":{"type":"LineString","coordinates":[[112.665235,-7.780986],[112.668866,-7.781634],[112.67023,-7.782639],[112.673539,-7.781382]]}},{"id":"1070","type":"Feature","properties":{"osm_id":1221801183,"waterway":"stream","name":""},"geometry":{"type":"LineString","coordinates":[[112.660938,-7.779428],[112.665235,-7.780986]]}},{"id":"1089","type":"Feature","properties":{"osm_id":1221801202,"waterway":"stream","name":""},"geometry":{"type":"LineString","coordinates":[[112.617706,-7.770542],[112.620544,-7.772965],[112.624589,-7.773534],[112.628695,-7.775801],[112.632144,-7.775838],[112.63429,-7.775187],[112.63587,-7.776731],[112.640872,-7.778886],[112.64234,-7.780685],[112.642235,-7.781608],[112.643246,-7.781804],[112.643787,-7.783645],[112.645593,-7.784082],[112.647183,-7.786548],[112.651558,-7.788031],[112.654407,-7.788073],[112.658591,-7.787098],[112.66185,-7.788613],[112.66484,-7.788421],[112.667013,-7.789421],[112.668132,-7.789065],[112.669153,-7.787699],[112.672206,-7.787324],[112.673351,-7.786237],[112.674773,-7.787093],[112.681583,-7.787542],[112.684289,-7.786396],[112.688039,-7.786734],[112.691287,-7.785068],[112.693296,-7.785838],[112.695694,-7.784539],[112.696743,-7.784887],[112.696885,-7.78397],[112.698049,-7.784217],[112.697974,-7.783516],[112.699224,-7.783813],[112.699626,-7.783146],[112.701536,-7.783938],[112.703317,-7.783117],[112.704435,-7.783518],[112.705999,-7.781759],[112.707002,-7.781807],[112.709727,-7.777361]]}},{"id":"1063","type":"Feature","properties":{"osm_id":1221801176,"waterway":"stream","name":""},"geometry":{"type":"LineString","coordinates":[[112.673539,-7.781382],[112.676425,-7.782963],[112.678978,-7.782336],[112.681655,-7.781342],[112.686601,-7.777573],[112.690681,-7.776067]]}},{"id":"1072","type":"Feature","properties":{"osm_id":1221801185,"waterway":"stream","name":""},"geometry":{"type":"LineString","coordinates":[[112.656097,-7.779522],[112.660938,-7.779428]]}},{"id":"1065","type":"Feature","properties":{"osm_id":1221801178,"waterway":"stream","name":""},"geometry":{"type":"LineString","coordinates":[[112.6666,-7.777536],[112.669709,-7.779785],[112.673539,-7.781382]]}},{"id":"1073","type":"Feature","properties":{"osm_id":1221801186,"waterway":"stream","name":""},"geometry":{"type":"LineString","coordinates":[[112.650504,-7.778977],[112.653852,-7.779816],[112.656097,-7.779522]]}},{"id":"1074","type":"Feature","properties":{"osm_id":1221801187,"waterway":"stream","name":""},"geometry":{"type":"LineString","coordinates":[[112.648637,-7.77667],[112.656097,-7.779522]]}},{"id":"1071","type":"Feature","properties":{"osm_id":1221801184,"waterway":"stream","name":""},"geometry":{"type":"LineString","coordinates":[[112.651475,-7.775176],[112.660938,-7.779428]]}},{"id":"1064","type":"Feature","properties":{"osm_id":1221801177,"waterway":"stream","name":""},"geometry":{"type":"LineString","coordinates":[[112.660675,-7.77616],[112.664478,-7.776606],[112.667906,-7.776],[112.671525,-7.777369],[112.67705,-7.778347],[112.682264,-7.777627]]}},{"id":"1062","type":"Feature","properties":{"osm_id":1221801175,"waterway":"stream","name":""},"geometry":{"type":"LineString","coordinates":[[112.682264,-7.777627],[112.68459,-7.776569],[112.686601,-7.777573]]}},{"id":"1075","type":"Feature","properties":{"osm_id":1221801188,"waterway":"stream","name":""},"geometry":{"type":"LineString","coordinates":[[112.642452,-7.771451],[112.645982,-7.772381],[112.651475,-7.775176]]}},{"id":"1069","type":"Feature","properties":{"osm_id":1221801182,"waterway":"stream","name":""},"geometry":{"type":"LineString","coordinates":[[112.658229,-7.773135],[112.659618,-7.774002],[112.66435,-7.77423],[112.665846,-7.773664],[112.667027,-7.774326],[112.668327,-7.77376],[112.66936,-7.774156],[112.671828,-7.772785],[112.679335,-7.773252],[112.684477,-7.771929]]}},{"id":"1076","type":"Feature","properties":{"osm_id":1221801189,"waterway":"stream","name":""},"geometry":{"type":"LineString","coordinates":[[112.644839,-7.770425],[112.647377,-7.770414],[112.654908,-7.773385],[112.65684,-7.773667],[112.658229,-7.773135]]}},{"id":"1068","type":"Feature","properties":{"osm_id":1221801181,"waterway":"stream","name":""},"geometry":{"type":"LineString","coordinates":[[112.663427,-7.77068],[112.667295,-7.771945]]}},{"id":"1077","type":"Feature","properties":{"osm_id":1221801190,"waterway":"stream","name":""},"geometry":{"type":"LineString","coordinates":[[112.650316,-7.769447],[112.655456,-7.771482],[112.659361,-7.771525],[112.663427,-7.77068]]}},{"id":"1067","type":"Feature","properties":{"osm_id":1221801180,"waterway":"stream","name":""},"geometry":{"type":"LineString","coordinates":[[112.643788,-7.767788],[112.645574,-7.767555],[112.650472,-7.768708],[112.654243,-7.76816]]}},{"id":"1078","type":"Feature","properties":{"osm_id":1221801191,"waterway":"stream","name":""},"geometry":{"type":"LineString","coordinates":[[112.654243,-7.76816],[112.655434,-7.766683],[112.656539,-7.766369],[112.663465,-7.7668],[112.665245,-7.766382],[112.666487,-7.765046],[112.670701,-7.765093],[112.675358,-7.763063],[112.67782,-7.762898]]}},{"id":"1085","type":"Feature","properties":{"osm_id":1221801198,"waterway":"stream","name":""},"geometry":{"type":"LineString","coordinates":[[112.616068,-7.753646],[112.617497,-7.753559],[112.619533,-7.752225]]}},{"id":"1088","type":"Feature","properties":{"osm_id":1221801201,"waterway":"stream","name":""},"geometry":{"type":"LineString","coordinates":[[112.610668,-7.752281],[112.613672,-7.752042],[112.615095,-7.751052]]}},{"id":"940","type":"Feature","properties":{"osm_id":1221702988,"waterway":"stream","name":""},"geometry":{"type":"LineString","coordinates":[[112.61063,-7.750577],[112.613989,-7.750301],[112.61739,-7.751869],[112.622019,-7.75273],[112.624868,-7.752818],[112.627957,-7.751869],[112.630669,-7.752307]]}},{"id":"945","type":"Feature","properties":{"osm_id":1221702993,"waterway":"stream","name":""},"geometry":{"type":"LineString","coordinates":[[112.618154,-7.74754],[112.621858,-7.750434]]}},{"id":"947","type":"Feature","properties":{"osm_id":1221702995,"waterway":"stream","name":""},"geometry":{"type":"LineString","coordinates":[[112.614426,-7.745855],[112.616354,-7.747383],[112.618154,-7.74754]]}},{"id":"946","type":"Feature","properties":{"osm_id":1221702994,"waterway":"stream","name":""},"geometry":{"type":"LineString","coordinates":[[112.617304,-7.744789],[112.618154,-7.74754]]}},{"id":"952","type":"Feature","properties":{"osm_id":1221703000,"waterway":"stream","name":""},"geometry":{"type":"LineString","coordinates":[[112.622285,-7.745517],[112.623942,-7.746136]]}},{"id":"953","type":"Feature","properties":{"osm_id":1221703001,"waterway":"stream","name":""},"geometry":{"type":"LineString","coordinates":[[112.620219,-7.745105],[112.622285,-7.745517]]}},{"id":"951","type":"Feature","properties":{"osm_id":1221702999,"waterway":"stream","name":""},"geometry":{"type":"LineString","coordinates":[[112.623374,-7.744409],[112.623942,-7.746136]]}},{"id":"948","type":"Feature","properties":{"osm_id":1221702996,"waterway":"stream","name":""},"geometry":{"type":"LineString","coordinates":[[112.613211,-7.744645],[112.614308,-7.744932],[112.614426,-7.745855]]}},{"id":"1084","type":"Feature","properties":{"osm_id":1221801197,"waterway":"stream","name":""},"geometry":{"type":"LineString","coordinates":[[112.630972,-7.761266],[112.632509,-7.761819],[112.640899,-7.761833],[112.645298,-7.762869]]}},{"id":"1147","type":"Feature","properties":{"osm_id":1304207262,"waterway":"stream","name":""},"geometry":{"type":"LineString","coordinates":[[112.622827,-7.758922],[112.624784,-7.759595],[112.628035,-7.758965],[112.6316,-7.759813],[112.637882,-7.758981],[112.642401,-7.761167],[112.645421,-7.76002],[112.647994,-7.760528],[112.64959,-7.759749],[112.655198,-7.758869],[112.658355,-7.757245],[112.660839,-7.757243],[112.666758,-7.751857]]}},{"id":"920","type":"Feature","properties":{"osm_id":1221702968,"waterway":"stream","name":""},"geometry":{"type":"LineString","coordinates":[[112.625962,-7.755234],[112.630133,-7.755837],[112.632364,-7.755686],[112.6351,-7.754508],[112.636498,-7.754689]]}},{"id":"943","type":"Feature","properties":{"osm_id":1221702991,"waterway":"stream","name":""},"geometry":{"type":"LineString","coordinates":[[112.630669,-7.752307],[112.632448,-7.751621]]}},{"id":"944","type":"Feature","properties":{"osm_id":1221702992,"waterway":"stream","name":""},"geometry":{"type":"LineString","coordinates":[[112.621858,-7.750434],[112.624471,-7.75142],[112.627236,-7.750676],[112.630669,-7.752307]]}},{"id":"939","type":"Feature","properties":{"osm_id":1221702987,"waterway":"stream","name":""},"geometry":{"type":"LineString","coordinates":[[112.628022,-7.745881],[112.631259,-7.748092],[112.635503,-7.749901]]}},{"id":"938","type":"Feature","properties":{"osm_id":1221702986,"waterway":"stream","name":""},"geometry":{"type":"LineString","coordinates":[[112.628344,-7.74237],[112.631895,-7.742955],[112.637866,-7.742487],[112.640087,-7.743636],[112.640301,-7.74443],[112.642822,-7.746391],[112.646058,-7.747253]]}},{"id":"927","type":"Feature","properties":{"osm_id":1221702975,"waterway":"stream","name":""},"geometry":{"type":"LineString","coordinates":[[112.631482,-7.739638],[112.63422,-7.737942],[112.635889,-7.738416],[112.643246,-7.736481]]}},{"id":"925","type":"Feature","properties":{"osm_id":1221702973,"waterway":"stream","name":""},"geometry":{"type":"LineString","coordinates":[[112.627083,-7.740111],[112.629213,-7.739556],[112.634794,-7.736343],[112.636009,-7.736444],[112.637105,-7.735028],[112.638673,-7.735083]]}},{"id":"929","type":"Feature","properties":{"osm_id":1221702977,"waterway":"stream","name":""},"geometry":{"type":"LineString","coordinates":[[112.623843,-7.733788],[112.628483,-7.731907],[112.62991,-7.730187]]}},{"id":"172","type":"Feature","properties":{"osm_id":699530673,"waterway":"stream","name":""},"geometry":{"type":"LineString","coordinates":[[112.706594,-7.77068],[112.707592,-7.769888],[112.710521,-7.769877],[112.711814,-7.767943],[112.714456,-7.766061],[112.715663,-7.766204],[112.7176,-7.764884],[112.718595,-7.764897],[112.7196,-7.762967],[112.720287,-7.762718],[112.720716,-7.763292],[112.721129,-7.762391],[112.723071,-7.761474],[112.72379,-7.760605],[112.723594,-7.759794]]}},{"id":"1081","type":"Feature","properties":{"osm_id":1221801194,"waterway":"stream","name":""},"geometry":{"type":"LineString","coordinates":[[112.649276,-7.7633],[112.650756,-7.763526]]}},{"id":"1080","type":"Feature","properties":{"osm_id":1221801193,"waterway":"stream","name":""},"geometry":{"type":"LineString","coordinates":[[112.645298,-7.762869],[112.649276,-7.7633]]}},{"id":"1079","type":"Feature","properties":{"osm_id":1221801192,"waterway":"stream","name":""},"geometry":{"type":"LineString","coordinates":[[112.650756,-7.763526],[112.65273,-7.763892],[112.653302,-7.763055],[112.657655,-7.762117],[112.660332,-7.762888],[112.662923,-7.762162],[112.668593,-7.762662],[112.66951,-7.761716],[112.671627,-7.761431],[112.67399,-7.760121],[112.678906,-7.759744],[112.681266,-7.760445],[112.683949,-7.758928],[112.686663,-7.758766]]}},{"id":"922","type":"Feature","properties":{"osm_id":1221702970,"waterway":"stream","name":""},"geometry":{"type":"LineString","coordinates":[[112.636498,-7.754689],[112.642643,-7.753501],[112.645413,-7.753788],[112.648028,-7.754931],[112.658213,-7.754322],[112.662896,-7.752087],[112.664441,-7.749288]]}},{"id":"1148","type":"Feature","properties":{"osm_id":1304207263,"waterway":"stream","name":""},"geometry":{"type":"LineString","coordinates":[[112.666758,-7.751857],[112.666929,-7.751852]]}},{"id":"921","type":"Feature","properties":{"osm_id":1221702969,"waterway":"stream","name":""},"geometry":{"type":"LineString","coordinates":[[112.648621,-7.750203],[112.649779,-7.749109],[112.652714,-7.749271],[112.655055,-7.748184],[112.658157,-7.74965],[112.66145,-7.750152],[112.664441,-7.749288]]}},{"id":"937","type":"Feature","properties":{"osm_id":1221702985,"waterway":"stream","name":""},"geometry":{"type":"LineString","coordinates":[[112.646674,-7.74438],[112.64908,-7.744999],[112.653535,-7.744528]]}},{"id":"936","type":"Feature","properties":{"osm_id":1221702984,"waterway":"stream","name":""},"geometry":{"type":"LineString","coordinates":[[112.643581,-7.742564],[112.651741,-7.743202],[112.654908,-7.742657]]}},{"id":"916","type":"Feature","properties":{"osm_id":1221702964,"waterway":"stream","name":""},"geometry":{"type":"LineString","coordinates":[[112.666929,-7.751852],[112.672925,-7.750838],[112.674848,-7.747298],[112.677155,-7.745055],[112.677455,-7.743178],[112.679206,-7.740893],[112.693547,-7.732004],[112.694711,-7.731844],[112.696383,-7.732752],[112.699163,-7.732416],[112.705359,-7.730341],[112.706859,-7.72913],[112.707603,-7.725235],[112.712262,-7.721405],[112.712594,-7.720261]]}},{"id":"949","type":"Feature","properties":{"osm_id":1221702997,"waterway":"stream","name":""},"geometry":{"type":"LineString","coordinates":[[112.610874,-7.743667],[112.613114,-7.745517],[112.614426,-7.745855]]}},{"id":"954","type":"Feature","properties":{"osm_id":1221703002,"waterway":"stream","name":""},"geometry":{"type":"LineString","coordinates":[[112.618218,-7.741536],[112.619672,-7.742214],[112.622285,-7.745517]]}},{"id":"933","type":"Feature","properties":{"osm_id":1221702981,"waterway":"stream","name":""},"geometry":{"type":"LineString","coordinates":[[112.624076,-7.739946],[112.624184,-7.736998]]}},{"id":"934","type":"Feature","properties":{"osm_id":1221702982,"waterway":"stream","name":""},"geometry":{"type":"LineString","coordinates":[[112.621153,-7.739202],[112.622904,-7.737735]]}},{"id":"932","type":"Feature","properties":{"osm_id":1221702980,"waterway":"stream","name":""},"geometry":{"type":"LineString","coordinates":[[112.622904,-7.737735],[112.624184,-7.736998]]}},{"id":"935","type":"Feature","properties":{"osm_id":1221702983,"waterway":"stream","name":""},"geometry":{"type":"LineString","coordinates":[[112.620241,-7.73681],[112.622904,-7.737735]]}},{"id":"909","type":"Feature","properties":{"osm_id":1221702957,"waterway":"stream","name":""},"geometry":{"type":"LineString","coordinates":[[112.608351,-7.741036],[112.609509,-7.737257],[112.609692,-7.734078],[112.61194,-7.730923]]}},{"id":"914","type":"Feature","properties":{"osm_id":1221702962,"waterway":"stream","name":""},"geometry":{"type":"LineString","coordinates":[[112.620007,-7.735178],[112.621434,-7.731542]]}},{"id":"915","type":"Feature","properties":{"osm_id":1221702963,"waterway":"stream","name":""},"geometry":{"type":"LineString","coordinates":[[112.619305,-7.735061],[112.619551,-7.732922],[112.621434,-7.731542]]}},{"id":"908","type":"Feature","properties":{"osm_id":1221702956,"waterway":"stream","name":""},"geometry":{"type":"LineString","coordinates":[[112.614659,-7.738501],[112.614664,-7.734689],[112.616215,-7.731957],[112.616261,-7.730408]]}},{"id":"928","type":"Feature","properties":{"osm_id":1221702976,"waterway":"stream","name":""},"geometry":{"type":"LineString","coordinates":[[112.643246,-7.736481],[112.648541,-7.73655],[112.65363,-7.73504],[112.655539,-7.732747],[112.657781,-7.732013],[112.659616,-7.729919],[112.662582,-7.729354],[112.66454,-7.727261]]}},{"id":"1196","type":"Feature","properties":{"osm_id":1339209506,"waterway":"stream","name":""},"geometry":{"type":"LineString","coordinates":[[112.708568,-7.730331],[112.709042,-7.729777]]}},{"id":"926","type":"Feature","properties":{"osm_id":1221702974,"waterway":"stream","name":""},"geometry":{"type":"LineString","coordinates":[[112.638673,-7.735083],[112.642146,-7.734915],[112.644786,-7.73395],[112.648468,-7.734432],[112.651792,-7.733193],[112.652736,-7.732085],[112.655211,-7.731901],[112.656456,-7.731035],[112.65861,-7.72716],[112.660722,-7.725025]]}},{"id":"931","type":"Feature","properties":{"osm_id":1221702979,"waterway":"stream","name":""},"geometry":{"type":"LineString","coordinates":[[112.624184,-7.736998],[112.629087,-7.734288],[112.634191,-7.734501],[112.63848,-7.733504],[112.639864,-7.731877],[112.639931,-7.730647],[112.64937,-7.726136],[112.653329,-7.722617],[112.656853,-7.722984],[112.662341,-7.725541],[112.664698,-7.724741],[112.669414,-7.720427],[112.67025,-7.717081]]}},{"id":"950","type":"Feature","properties":{"osm_id":1221702998,"waterway":"stream","name":""},"geometry":{"type":"LineString","coordinates":[[112.623942,-7.746136],[112.626048,-7.749498],[112.628153,-7.749738],[112.632814,-7.751683],[112.633453,-7.75091],[112.634843,-7.750771],[112.637734,-7.748268],[112.641277,-7.748433],[112.64154,-7.74902],[112.643989,-7.748839],[112.646058,-7.747253],[112.652183,-7.746139],[112.654908,-7.743657],[112.654908,-7.742657],[112.656158,-7.741158],[112.657687,-7.740845],[112.659693,-7.73891],[112.66163,-7.738245],[112.661893,-7.735327],[112.662746,-7.734312],[112.663569,-7.729124],[112.66454,-7.727261],[112.669105,-7.724826],[112.674537,-7.722989],[112.678914,-7.719237],[112.679166,-7.717565],[112.681527,-7.713666],[112.685675,-7.710558],[112.687048,-7.706801],[112.689106,-7.70605],[112.690389,-7.707148],[112.691687,-7.705559],[112.693208,-7.70562],[112.693757,-7.70482],[112.696662,-7.704097],[112.701191,-7.705625],[112.702037,-7.705094],[112.704006,-7.705674],[112.708716,-7.705003],[112.719566,-7.701782]]}},{"id":"919","type":"Feature","properties":{"osm_id":1221702967,"waterway":"stream","name":""},"geometry":{"type":"LineString","coordinates":[[112.664441,-7.749288],[112.669934,-7.747388],[112.670685,-7.745735],[112.672882,-7.74455],[112.673732,-7.742931],[112.677884,-7.741238],[112.678458,-7.739197],[112.681135,-7.737007],[112.683002,-7.733597],[112.684874,-7.733087],[112.685228,-7.730931],[112.68692,-7.729522],[112.693305,-7.725735],[112.69952,-7.724689],[112.700889,-7.723503],[112.70229,-7.723667],[112.707008,-7.72064],[112.709164,-7.720225],[112.711174,-7.720769],[112.7127,-7.720231],[112.714832,-7.717377],[112.718133,-7.715753],[112.71944,-7.713551],[112.719609,-7.712028],[112.721824,-7.710744],[112.722594,-7.708974],[112.723848,-7.708469],[112.724777,-7.706983],[112.726993,-7.705718],[112.728747,-7.702365],[112.72738,-7.700245],[112.723995,-7.69949]]}},{"id":"911","type":"Feature","properties":{"osm_id":1221702959,"waterway":"stream","name":""},"geometry":{"type":"LineString","coordinates":[[112.625184,-7.731441],[112.625878,-7.730703]]}},{"id":"912","type":"Feature","properties":{"osm_id":1221702960,"waterway":"stream","name":""},"geometry":{"type":"LineString","coordinates":[[112.621434,-7.731542],[112.621859,-7.730861]]}},{"id":"930","type":"Feature","properties":{"osm_id":1221702978,"waterway":"stream","name":""},"geometry":{"type":"MultiLineString","coordinates":[[[112.62991,-7.730187],[112.631592,-7.728505]],[[112.651259,-7.722524],[112.653329,-7.722617]]]}}]}